nro;altitude;country;county;latitude;localname;abs(longitude);municipality;res_org;treespecies
115086;80;Sweden;SkÃ¥ne län (Malmöhus);55.9;Källstorp, Svalöv;13.1;;Skogforsk;,Pinus sylvestris,
115089;210;Sweden;Jönköpings län;57.9;Ryfors, Mullsjö;13.8;;Skogforsk;,Pinus sylvestris,
115090;155;Sweden;Kronobergs län;56.7;Hallarp, Ljungby;13.6;;Skogforsk;,Pinus sylvestris,
115101;30;Sweden;SkÃ¥ne län (Malmöhus);55.6;Vomb;13.5;Lund;Skogforsk;,Pinus sylvestris,
115106;200;Sweden;Jönköpings län;57.5;Hok, Vaggeryd;14.2;;Skogforsk;,Pinus sylvestris,
115109;140;Sweden;Kalmar län;57.7;Norrkvill, Vimmerby;15.5;Vimmerby;Skogforsk;,Pinus sylvestris,
115119;140;Sweden;Kalmar län;57.7;Norra Kvill, Vimmerby;15.5;Vimmerby;Skogforsk;,Pinus sylvestris,
115120;140;Sweden;Kalmar län;57.7;Norra Kvill, Vimmerby;15.5;Vimmerby;Skogforsk;,Pinus sylvestris,
115122;200;Sweden;Jönköpings län;57.5;Hok, Vaggeryd;14.1;Vaggeryd;Skogforsk;,Pinus sylvestris,
115123;140;Sweden;Kalmar län;57.7;Norrkvill, Vimmerby;15.5;Vimmerby;Skogforsk;,Pinus sylvestris,
115136;210;Sweden;Jönköpings län;57.5;Bölö-Oxhagsvägen, Karlstorp, ;15.6;Vetlanda;Skogforsk;,Pinus sylvestris,
115141;80;Sweden;SkÃ¥ne län (Malmöhus);55.9;Ekebo-Skoghuset, Svalöv;13.1;;Skogforsk;,Pinus sylvestris,
115142;50;Sweden;SkÃ¥ne län (Kristianstad);55.9;Maltesholm, Kristianstad;14;;Skogforsk;,Pinus sylvestris,
115197;54;Sweden;Uppsala län;60;Sätuna SOMA;17.5;;Skogforsk;,Pinus sylvestris,
115199;54;Sweden;Uppsala län;60;Sätuna;17.5;;Skogforsk;,Pinus sylvestris,
115208;85;Sweden;Värmlands län;59.5;MogÃ¥rden;13.3;;Skogforsk;,Pinus sylvestris,
115209;55;Sweden;Värmlands län;59.4;Öjenäsmon;13.4;;Skogforsk;,Pinus sylvestris,
115210;210;Sweden;Gävleborgs län;62;GRÖNHÄLLSBERGET HASSELA;16.8;Nordanstig;Skogforsk;,Pinus sylvestris,
115211;370;Sweden;Gävleborgs län;62.1;SILVERÃ…SEN HASSELA;16.5;Nordanstig;Skogforsk;,Pinus sylvestris,
115212;370;Sweden;Gävleborgs län;62.1;SILVERÃ…SEN HASSELA;16.5;Nordanstig;Skogforsk;,Pinus sylvestris,
115222;200;Sweden;Gävleborgs län;60.8;JÄDRAÃ…S;16.4;Ockelbo;Skogforsk;,Pinus sylvestris,
115223;440;Sweden;Gävleborgs län;61.6;GRÖNVALL;16;Ljusdal;Skogforsk;,Pinus sylvestris,
115224;530;Sweden;Jämtlands län;62;RASSEN ÄLVROS;14.7;Härjedalen;Skogforsk;,Pinus sylvestris,
115225;85;Sweden;Värmlands län;59.4;Kärne;13.3;;Skogforsk;,Pinus sylvestris,
115241;90;Sweden;Värmlands län;59.6;Rättartorp, Brunsberg;12.9;;Skogforsk;,Pinus sylvestris,
115242;100;Sweden;Värmlands län;59.6;Rättartorp , Brunsberg;12.9;;Skogforsk;,Pinus sylvestris,
115245;275;Sweden;Västernorrlands län;64.2;Lunne;16.2;Strömsund;Skogforsk;,Pinus sylvestris,
115247;275;Sweden;Västernorrlands län;62.4;Alby;15.4;Ã…nge;Skogforsk;,Pinus sylvestris,
115249;225;Sweden;Västernorrlands län;63.5;Johan-Lars torpet Norrmoflo;16.7;SollefteÃ¥;Skogforsk;,Pinus sylvestris,
115250;200;Sweden;Västernorrlands län;63.5;Sundmo Plantskolan;16.6;SollefteÃ¥;Skogforsk;,Pinus sylvestris,
115251;200;Sweden;Västernorrlands län;63.5;Sundmo Plantskolan;16.6;SollefteÃ¥;Skogforsk;,Pinus sylvestris,
115254;370;Sweden;Jämtlands län;64.5;Kycklingvattnet;14.1;Strömsund;Skogforsk;,Pinus sylvestris,
115259;240;Sweden;Västernorrlands län;64;Andersnäset Hoting;16.2;Strömsund;Skogforsk;,Pinus sylvestris,
115260;365;Sweden;Västernorrlands län;63.9;Övra;16.7;SollefteÃ¥;Skogforsk;,Pinus sylvestris,
115261;175;Sweden;Västernorrlands län;63.5;Norrboholm;16.5;SollefteÃ¥;Skogforsk;,Pinus sylvestris,
115262;290;Sweden;Jämtlands län;63.7;Tjärnnäset;16.2;Strömsund;Skogforsk;,Pinus sylvestris,
115263;350;Sweden;Västerbottens län;64.2;Ställhult Yxsjö;17.5;Ã…sele;Skogforsk;,Pinus sylvestris,
115264;250;Sweden;Västernorrlands län;63.3;Ã…llsjön;17.4;SollefteÃ¥;Skogforsk;,Pinus sylvestris,
115272;195;Sweden;Västernorrlands län;63.4;KilÃ¥mon;16.7;SollefteÃ¥;Skogforsk;,Pinus sylvestris,
115273;300;Sweden;Jämtlands län;62.9;HÃ¥sjö;16.3;Bräcke;Skogforsk;,Pinus sylvestris,
115276;330;Sweden;Västerbottens län;64.2;Pilsnerhygget;16.5;Dorotea;Skogforsk;,Pinus sylvestris,
115277;330;Sweden;Västerbottens län;64.2;Pilsnerhygget;16.5;Dorotea;Skogforsk;,Pinus sylvestris,
115286;150;Sweden;Västernorrlands län;63.1;Storbränna;17;;Skogforsk;,Pinus sylvestris,
115312;200;Sweden;Västernorrlands län;63.5;Sundmo Plantskola;16.6;;Skogforsk;,Pinus sylvestris,
115315;310;Sweden;Jämtlands län;63;BispgÃ¥rden;16.6;;Skogforsk;,Pinus sylvestris,
115336;155;Sweden;Västerbottens län;64;Flurkmark;20.2;;Skogforsk;,Pinus sylvestris,
115337;155;Sweden;Västerbottens län;64;Flurkmark;20.2;UmeÃ¥;Skogforsk;,Pinus sylvestris,
115349;330;Sweden;Västerbottens län;64.4;Umgransele;18.1;Lycksele;Skogforsk;,Pinus sylvestris,
115357;10;Sweden;Västerbottens län;63.9;Sävar;20.5;UmeÃ¥;Skogforsk;,Pinus sylvestris,
115359;10;Sweden;Västerbottens län;63.9;Sävar;20.5;;Skogforsk;,Pinus sylvestris,
115373;285;Sweden;Gävleborgs län;60.5;Kopparfors (MÃ¥cksjön);16.2;Hofors;Skogforsk;,Pinus sylvestris,
115380;165;Sweden;Kronobergs län;57.1;Hörle Bruk, Värnamo;14;Värnamo;Skogforsk;,Pinus sylvestris,
115490;570;Sweden;Kopparbergs län;61.6;Hornberget, Särna;13.3;Älvdalen;Skogforsk;,Pinus sylvestris,
115498;60;Sweden;Gävleborgs län;60.2;NÄSSJA Talldemoförsök;16.7;Sandviken;Skogforsk;,Pinus sylvestris,
115508;155;Sweden;Kronobergs län;56.7;Hallarp, Ljungby;13.6;;Skogforsk;,Pinus sylvestris,
115509;160;Sweden;Östergötlands län;58.1;RÃ¥ckarp, Boxholm;15.2;;Skogforsk;,Pinus sylvestris,
115534;90;Sweden;Östergötlands län;58.8;Rullebacka, FinspÃ¥ng;15.6;FinspÃ¥ng;Skogforsk;,Pinus sylvestris,
115535;100;Sweden;Östergötlands län;58.3;Sya, Mjölby;15.1;Mjölby;Skogforsk;,Pinus sylvestris,
115536;90;Sweden;Östergötlands län;58.8;Rullebacka, FinspÃ¥ng;15.6;FinspÃ¥ng;Skogforsk;,Pinus sylvestris,
115543;10;Sweden;SkÃ¥ne län (Kristianstad);55.8;Vittskövle, Kristianstad;14.1;Kristianstad;Skogforsk;,Pinus sylvestris,
115546;150;Sweden;SkÃ¥ne län (Kristianstad);56.4;Lönsboda, Osby;14.3;Osby;Skogforsk;,Pinus sylvestris,
115547;10;Sweden;SkÃ¥ne län (Kristianstad);55.8;Furuboda, Kristianstad;14.1;Kristianstad;Skogforsk;,Pinus sylvestris,
115549;30;Sweden;SkÃ¥ne län (Malmöhus);55.6;Vomb, Lund;13.5;Lund;Skogforsk;,Pinus sylvestris,
115564;150;Sweden;SkÃ¥ne län (Malmöhus);56;Dragesholm-Nyhus, Svalöv;13.1;Svalöv;Skogforsk;,Pinus sylvestris,
115571;230;Sweden;Kronobergs län;56.9;Sköna Lyckorna, Kosta, Lessebo;15.3;Uppvidinge;Skogforsk;,Pinus sylvestris,
115573;10;Sweden;Kalmar län;57;Kronobäck, MönsterÃ¥s;16.4;MönsterÃ¥s;Skogforsk;,Pinus sylvestris,
115575;120;Sweden;Örebro län;58.9;Rönneshytta, Askersund;15;Askersund;Skogforsk;,Pinus sylvestris,
115590;80;Sweden;Hallands län;56.6;Tönnersjö-Nybyggabergsvägen, ;13;Svenljunga;Skogforsk;,Pinus sylvestris,
115591;100;Sweden;SkÃ¥ne län (Kristianstad);56;Svenstorp, Matteröd, Hässlehol;13.6;Hässleholm;Skogforsk;,Pinus sylvestris,
115592;20;Sweden;Kalmar län;56.5;Gräsgärde, Arby, Kalmar;16.1;Kalmar;Skogforsk;,Pinus sylvestris,
115594;165;Sweden;Jönköpings län;57.2;Hörle, Värnamo;14;Värnamo;Skogforsk;,Pinus sylvestris,
115597;170;Sweden;Hallands län;56.7;Hilleshult, Halmstad;13.2;;Skogforsk;,Pinus sylvestris,
115598;100;Sweden;SkÃ¥ne län (Kristianstad);56;Svenstorp, Matteröd, Hässlehol;13.6;;Skogforsk;,Pinus sylvestris,
115600;45;Sweden;Kalmar län;56.7;Dansbo, Trekanten, Kalmar;16.1;;Skogforsk;,Pinus sylvestris,
115601;200;Sweden;Kronobergs län;57;Sevedstorp, BraÃ¥s, Växjö;15;;Skogforsk;,Pinus sylvestris,
115602;165;Sweden;Jönköpings län;59;Hörle, Värnamo;13.9;;Skogforsk;,Pinus sylvestris,
115603;185;Sweden;Östergötlands län;58.1;Sand, Nykil, Linköping;15.5;;Skogforsk;,Pinus sylvestris,
115604;25;Sweden;Gotlands län;57.4;Sandäskes, Sanda, Gotland;18.2;;Skogforsk;,Pinus sylvestris,
115605;65;Sweden;Östergötlands län;58.7;Petterslund, Risinge, FinspÃ¥ng;15.8;;Skogforsk;,Pinus sylvestris,
115623;195;Sweden;Jönköpings län;57.5;Fluxerum, Karlstorp, Vetlanda;15.5;Vetlanda;Skogforsk;,Pinus sylvestris,
115624;190;Sweden;Kronobergs län;56.7;Slätthult, Lessebo;15.3;Lessebo;Skogforsk;,Pinus sylvestris,
115625;115;Sweden;SkÃ¥ne län (Kristianstad);55.6;Tunbyholm, Tomelilla;14.1;Tomelilla;Skogforsk;,Pinus sylvestris,
115626;155;Sweden;Kronobergs län;56.8;Förarp, Ljungby;14;Ljungby;Skogforsk;,Pinus sylvestris,
115628;195;Sweden;Jönköpings län;57.5;Fluxerum, Karlstorp, Vetlanda;15.5;Vetlanda;Skogforsk;,Pinus sylvestris,
115630;190;Sweden;Kronobergs län;56.7;Slätthult, Lessebo;15.3;Lessebo;Skogforsk;,Pinus sylvestris,
115631;115;Sweden;SkÃ¥ne län (Kristianstad);55.6;Tunbyholm, Tomelilla;14.1;Tomelilla;Skogforsk;,Pinus sylvestris,
115634;155;Sweden;Kronobergs län;56.8;Förarp, Ljungby;14;Ljungby;Skogforsk;,Pinus sylvestris,
115635;195;Sweden;Jönköpings län;57.5;Fluxerum, Karlstorp, Vetlanda;15.5;Vetlanda;Skogforsk;,Pinus sylvestris,
115636;115;Sweden;SkÃ¥ne län (Kristianstad);55.6;Tunbyholm, Tomelilla;14.1;Tomelilla;Skogforsk;,Pinus sylvestris,
115637;190;Sweden;Kronobergs län;56.7;Slätthult, Lessebo;15.3;Lessebo;Skogforsk;,Pinus sylvestris,
115638;190;Sweden;Kronobergs län;56.7;Slätthult, Lessebo;15.3;Lessebo;Skogforsk;,Pinus sylvestris,
115639;220;Sweden;Jönköpings län;57.5;Bratteborg, Vaggeryd;14.1;Vaggeryd;Skogforsk;,Pinus sylvestris,
115640;20;Sweden;Kalmar län;56.4;Värnanäs, Halltorp, Kalmar;16.1;Kalmar;Skogforsk;,Pinus sylvestris,
115641;195;Sweden;Jönköpings län;57.5;Fluxerum, Karlstorp, Vetlanda;15.5;Vetlanda;Skogforsk;,Pinus sylvestris,
115642;175;Sweden;Kronobergs län;56.8;Öjaböke, Lidhult, Ljungby;13.4;Ljungby;Skogforsk;,Pinus sylvestris,
115643;195;Sweden;Jönköpings län;57.5;Fluxerum, Karlstorp, Vetlanda;15.5;Vetlanda;Skogforsk;,Pinus sylvestris,
115644;190;Sweden;Kronobergs län;56.7;Slätthult, Lessebo;15.3;Lessebo;Skogforsk;,Pinus sylvestris,
115645;220;Sweden;Jönköpings län;57.5;Bratteborg, Vaggeryd;14.1;Vaggeryd;Skogforsk;,Pinus sylvestris,
115646;175;Sweden;Kronobergs län;56.8;Öjaböke, Lidhult, Ljungby;13.4;Ljungby;Skogforsk;,Pinus sylvestris,
115647;20;Sweden;Kalmar län;56.4;Värnanäs, Halltorp, Kalmar;16.1;Kalmar;Skogforsk;,Pinus sylvestris,
115648;195;Sweden;Jönköpings län;57.5;Fluxerum, Karlstorp, Vetlanda;15.5;Vetlanda;Skogforsk;,Pinus sylvestris,
115649;190;Sweden;Kronobergs län;56.7;Slätthult, Lessebo;15.3;Lessebo;Skogforsk;,Pinus sylvestris,
115650;175;Sweden;Kronobergs län;56.8;Öjaböke, Lidhult, Ljungby;13.4;Ljungby;Skogforsk;,Pinus sylvestris,
115651;20;Sweden;Kalmar län;56.4;Värnanäs, Halltorp, Kalmar;16.1;Kalmar;Skogforsk;,Pinus sylvestris,
115652;195;Sweden;Jönköpings län;57.5;Fluxerum, Karlstorp, Vetlanda;15.5;Vetlanda;Skogforsk;,Pinus sylvestris,
115653;175;Sweden;Kronobergs län;56.8;Öjaböke, Lidhult, Ljungby;13.4;Ljungby;Skogforsk;,Pinus sylvestris,
115654;20;Sweden;Kalmar län;56.4;Värnanäs, Halltorp, Kalmar;16.1;Kalmar;Skogforsk;,Pinus sylvestris,
115655;225;Sweden;Jönköpings län;57.5;Bölö, Karlstorp, Vetlanda;15.6;;Skogforsk;,Pinus sylvestris,
115656;140;Sweden;Kalmar län;57.7;Norrkvill, Vimmerby;15.5;;Skogforsk;,Pinus sylvestris,
115657;55;Sweden;Kalmar län;56.6;Tvärskog, Kalmar;16;;Skogforsk;,Pinus sylvestris,
115666;225;Sweden;Jönköpings län;57.5;Bölö, Karlstorp, Vetlanda;15.6;;Skogforsk;,Pinus sylvestris,
115667;150;Sweden;Kronobergs län;56.5;Ã…lshult, Tingsryd;14.6;;Skogforsk;,Pinus sylvestris,
115668;55;Sweden;Hallands län;56.9;Hjuleberg, Falkenberg;12.7;;Skogforsk;,Pinus sylvestris,
115669;210;Sweden;Jönköpings län;57.7;Beth 2:5 2:6, Jönköping;13.9;;Skogforsk;,Pinus sylvestris,
115670;40;Sweden;Kalmar län;58;Ravenäs 1:1, Eds bruk, Västerv;16.5;;Skogforsk;,Pinus sylvestris,
115671;70;Sweden;Östergötlands län;58.8;Kolvetorp 1:2-6, FinspÃ¥ng;15.7;;Skogforsk;,Pinus sylvestris,
115722;80;Sweden;SkÃ¥ne län (Malmöhus);55.9;Ekebo-Stormhygget, Svalöv;13.1;;Skogforsk;,Pinus sylvestris,
115748;190;Sweden;Jönköpings län;57.6;Ingatorp, Eksjö;15.4;Eksjö;Skogforsk;,Pinus sylvestris,
115749;10;Sweden;Kalmar län;56.4;Värnanäs, Halltorp, Kalmar;16.1;Kalmar;Skogforsk;,Pinus sylvestris,
115750;190;Sweden;Jönköpings län;57.6;Ingatorp, Eksjö;15.4;;Skogforsk;,Pinus sylvestris,
115751;10;Sweden;Kalmar län;56.4;Värnanäs, Halltorp, Kalmar;16.1;;Skogforsk;,Pinus sylvestris,
115765;240;Sweden;Kronobergs län;57.1;Asa Karlgrundsvägen, Växjö;14.7;;Skogforsk;,Pinus sylvestris,
115766;170;Sweden;Älvsborgs län;57.2;Kalv-Arvidstorp, Svenljunga;13;;Skogforsk;,Pinus sylvestris,
115767;240;Sweden;Kronobergs län;57.1;Asa Karlgrundsvägen, Växjö;14.7;;Skogforsk;,Pinus sylvestris,
115768;170;Sweden;Kalmar län;57.7;Gallebo, Södra Vi, Vimmerby;15.7;;Skogforsk;,Pinus sylvestris,
115769;240;Sweden;Kronobergs län;57.1;Asa Karlgrundsvägen, Växjö;14.7;Växjö;Skogforsk;,Pinus sylvestris,
115771;170;Sweden;Kalmar län;57.7;Gallebo, Södra Vi, Vimmerby;15.7;Vimmerby;Skogforsk;,Pinus sylvestris,
115789;150;Sweden;Kalmar län;57.5;Storebro-Sjundekvill, Vimmerby;15.8;;Skogforsk;,Pinus sylvestris,
115790;150;Sweden;Kronobergs län;56.9;Hallsjö, Toftaholm, Ljungby;14;;Skogforsk;,Pinus sylvestris,
116054;165;Sweden;Örebro län;59.5;Striberg;14.9;Nora;Skogforsk;,Pinus sylvestris,
116055;265;Sweden;Värmlands län;59.8;Salungen;12.7;;Skogforsk;,Pinus sylvestris,
116056;120;Sweden;Västmanlands län;59.7;Färna;15.7;;Skogforsk;,Pinus sylvestris,
116057;125;Sweden;Skaraborgs län;58.5;Karlsborg;14.4;;Skogforsk;,Pinus sylvestris,
116058;;Sweden;Västernorrlands län;63.4;GideÃ¥;18.9;;Skogforsk;,Pinus sylvestris,
116059;60;Sweden;Gävleborgs län;0;Friggesund;0;;Skogforsk;,Pinus sylvestris,
116060;200;Sweden;Värmlands län;60.1;Lekvattnet, Torsby;12.6;Torsby;Skogforsk;,Pinus sylvestris,
116061;340;Sweden;Örebro län;59.9;Älvhöjden, Ljusnarsberg;14.7;Ljusnarsberg;Skogforsk;,Pinus sylvestris,
116062;510;Sweden;Värmlands län;60.8;BringsÃ¥storpet, Torsby;12.4;Torsby;Skogforsk;,Pinus sylvestris,
116064;350;Sweden;Värmlands län;60.6;Bograngen, Torsby;12.6;Torsby;Skogforsk;,Pinus sylvestris,
116065;165;Sweden;Älvsborgs län;57.6;MÖLNARED, MARK;13.1;Svenljunga;Skogforsk;,Pinus sylvestris,
116067;125;Sweden;Göteborgs och Bohus län;58.1;MÃ¥röd, Lilla Edet;12;Lilla Edet;Skogforsk;,Pinus sylvestris,
116068;260;Sweden;Örebro län;59.8;Ramsberg (Almhöjden);15.3;Lindesberg;Skogforsk;,Pinus sylvestris,
116069;90;Sweden;Gävleborgs län;60.5;BERGAVALLEN, Ã…RSUNDA;16.8;Sandviken;Skogforsk;,Pinus sylvestris,
116073;85;Sweden;Östergötlands län;58.7;Myrkärret, FinspÃ¥ng;16;FinspÃ¥ng;Skogforsk;,Pinus sylvestris,
116074;120;Sweden;Örebro län;59;Hallsberg;15;Askersund;Skogforsk;,Pinus sylvestris,
116075;100;Sweden;Västmanlands län;60;Rosshyttan, Västerfärnebo;16.3;Sala;Skogforsk;,Pinus sylvestris,
116076;320;Sweden;Värmlands län;60;Axland, Bogen;12.6;Arvika;Skogforsk;,Pinus sylvestris,
116077;305;Sweden;Värmlands län;60.1;Neva, Rämmen;14.1;Filipstad;Skogforsk;,Pinus sylvestris,
116078;175;Sweden;Värmlands län;59.6;Brattforsheden (Filipstad);14;Filipstad;Skogforsk;,Pinus sylvestris,
116079;60;Sweden;Södermanlands län;58.9;Trollesund;17.1;Nyköping;Skogforsk;,Pinus sylvestris,
116080;123;Sweden;Skaraborgs län;58.6;TIVEDEN;14.4;Karlsborg;Skogforsk;,Pinus sylvestris,
116081;245;Sweden;Skaraborgs län;58;HÖKENSÃ…S;14;Tidaholm;Skogforsk;,Pinus sylvestris,
116082;320;Sweden;Kopparbergs län;60;Fredriksberg;14.6;;Skogforsk;,Pinus sylvestris,
116083;375;Sweden;Kopparbergs län;60.3;Äppelbo;13.9;Vansbro;Skogforsk;,Pinus sylvestris,
116087;105;Sweden;Västmanlands län;60;Tärnsjö;16.8;Heby;Skogforsk;,Pinus sylvestris,
116088;275;Sweden;Kopparbergs län;60.5;Ryggen;15.9;Falun;Skogforsk;,Pinus sylvestris,
116091;130;Sweden;Värmlands län;59.9;Sörby;13.5;Hagfors;Skogforsk;,Pinus sylvestris,
116094;215;Sweden;Värmlands län;59.7;Filipstad;14.1;Filipstad;Skogforsk;,Pinus sylvestris,
116095;250;Sweden;Värmlands län;60.3;Stöllet;13.2;Torsby;Skogforsk;,Pinus sylvestris,
116096;130;Sweden;Värmlands län;59.9;Sörby;13.5;Hagfors;Skogforsk;,Pinus sylvestris,
116097;95;Sweden;Värmlands län;59.4;Kärne;13.3;Karlstad;Skogforsk;,Pinus sylvestris,
116099;195;Sweden;Älvsborgs län;57.5;Ljungsarp;13.6;Tranemo;Skogforsk;,Pinus sylvestris,
116100;170;Sweden;Västmanlands län;60;Norberg;15.8;Fagersta;Skogforsk;,Pinus sylvestris,
116101;25;Sweden;Uppsala län;60.5;Älvkarleby;17.4;Älvkarleby;Skogforsk;,Pinus sylvestris,
116102;295;Sweden;Kopparbergs län;61.1;LinÃ¥sen;15.4;Rättvik;Skogforsk;,Pinus sylvestris,
116103;285;Sweden;Gävleborgs län;60.8;HÄLLKNIPPAN,JÄDRAÃ…S;16.3;Ockelbo;Skogforsk;,Pinus sylvestris,
116104;235;Sweden;Gävleborgs län;60.8;HÄSTÃ…SEN,OCKELBO;16.5;Ockelbo;Skogforsk;,Pinus sylvestris,
116105;140;Sweden;Örebro län;58.8;Finnerödja;14.4;LaxÃ¥;Skogforsk;,Pinus sylvestris,
116106;95;Sweden;Västmanlands län;59.9;Västerfärnebo;16.3;Sala;Skogforsk;,Pinus sylvestris,
116107;245;Sweden;Örebro län;59.8;RAMSBERG;15.1;Lindesberg;Skogforsk;,Pinus sylvestris,
116108;120;Sweden;Örebro län;58.9;Rönneshytta;15;Askersund;Skogforsk;,Pinus sylvestris,
116110;340;Sweden;Gävleborgs län;61.7;Stensvallen, Järvsö;16.4;Ljusdal;Skogforsk;,Pinus sylvestris,
116111;220;Sweden;Gävleborgs län;61.4;Lövriset, Voxna;15.4;OvanÃ¥ker;Skogforsk;,Pinus sylvestris,
116116;210;Sweden;Kopparbergs län;61.2;Orsa (Tallhed);14.7;Orsa;Skogforsk;,Pinus sylvestris,
116117;180;Sweden;Värmlands län;60.4;Kristinefors;12.8;Torsby;Skogforsk;,Pinus sylvestris,
116118;200;Sweden;Gävleborgs län;61.3;Voxna;15.6;OvanÃ¥ker;Skogforsk;,Pinus sylvestris,
116119;140;Sweden;Värmlands län;60;RÃ¥da (Steghon), Hagfors;13.5;Hagfors;Skogforsk;,Pinus sylvestris,
116120;460;Sweden;Kopparbergs län;61.1;Sälen (Osanden);13.2;Malung;Skogforsk;,Pinus sylvestris,
116122;80;Sweden;Värmlands län;59.6;Brunsberg;12.9;Arvika;Skogforsk;,Pinus sylvestris,
116123;140;Sweden;Värmlands län;60;RÃ¥da, RÃ¥daheden;13.5;Hagfors;Skogforsk;,Pinus sylvestris,
116124;210;Sweden;Kopparbergs län;61.1;Bäcka, Orsa;14.5;Orsa;Skogforsk;,Pinus sylvestris,
116125;300;Sweden;Kopparbergs län;60;Hällsjön, Ludvika;15.1;Smedjebacken;Skogforsk;,Pinus sylvestris,
116126;270;Sweden;Kopparbergs län;60.6;Van, Vansbro;14.1;Vansbro;Skogforsk;,Pinus sylvestris,
116128;360;Sweden;Värmlands län;60.7;Sysslebäck (Gammelängsberget);12.7;Torsby;Skogforsk;,Pinus sylvestris,
116130;455;Sweden;Kopparbergs län;61.2;Hedbodarna, Älvdalen;13.5;Älvdalen;Skogforsk;,Pinus sylvestris,
116131;220;Sweden;Gävleborgs län;62.1;Ramsjö;15.6;Ljusdal;Skogforsk;,Pinus sylvestris,
116132;290;Sweden;Gävleborgs län;62;Hennan;15.8;Ljusdal;Skogforsk;,Pinus sylvestris,
116133;450;Sweden;Kopparbergs län;60.9;Lima (Örviken);12.9;Malung;Skogforsk;,Pinus sylvestris,
116135;455;Sweden;Kopparbergs län;61.2;HEDBODARNA, ÄLVDALEN;13.5;Älvdalen;Skogforsk;,Pinus sylvestris,
116136;280;Sweden;Gävleborgs län;62;Hennan;15.8;Ljusdal;Skogforsk;,Pinus sylvestris,
116142;145;Sweden;Örebro län;58.8;Stenboda (Ö. Laxsjön), Askersu;14.7;Askersund;Skogforsk;,Pinus sylvestris,
116143;90;Sweden;Skaraborgs län;58.5;RÃ¥da, Lidköping;13;Lidköping;Skogforsk;,Pinus sylvestris,
116144;495;Sweden;Kopparbergs län;61.5;SÄRNSTUGAN SÄRNA;13.3;Älvdalen;Skogforsk;,Pinus sylvestris,
116145;100;Sweden;Gävleborgs län;60.4;Bastfallet;16.7;Sandviken;Skogforsk;,Pinus sylvestris,
116146;220;Sweden;Gävleborgs län;62.1;Ramsjö;15.6;Ljusdal;Skogforsk;,Pinus sylvestris,
116147;355;Sweden;Kopparbergs län;61.4;Bössbo , Älvdalen;14;Älvdalen;Skogforsk;,Pinus sylvestris,
116151;700;Sweden;Kopparbergs län;62;HÄGGSBERGET, IDRE;13.1;Älvdalen;Skogforsk;,Pinus sylvestris,
116154;495;Sweden;Kopparbergs län;61.5;SÄRNSTUGAN, Särna;13.3;Älvdalen;Skogforsk;,Pinus sylvestris,
116155;455;Sweden;Kopparbergs län;61.2;HEDBODARNA, ÄLVDALEN;13.5;Älvdalen;Skogforsk;,Pinus sylvestris,
116158;405;Sweden;Kopparbergs län;61.4;Husvallsgölen;13;Malung;Skogforsk;,Pinus sylvestris,
116159;245;Sweden;Gävleborgs län;62;Hennan;16;Ljusdal;Skogforsk;,Pinus sylvestris,
116160;220;Sweden;Kopparbergs län;61.2;Tallhed, Orsa;14.7;Orsa;Skogforsk;,Pinus sylvestris,
116161;405;Sweden;Kopparbergs län;61.4;Husvallgölen (Husvallsgölen);13;Malung;Skogforsk;,Pinus sylvestris,
116168;115;Sweden;Skaraborgs län;58.4;Ledsjömo, Götene;13.5;Götene;Skogforsk;,Pinus sylvestris,
116169;115;Sweden;Skaraborgs län;58.4;Ledsjömo, Götene;13.5;Götene;Skogforsk;,Pinus sylvestris,
116170;270;Sweden;Kopparbergs län;60.6;Vansbro;14.1;Vansbro;Skogforsk;,Pinus sylvestris,
116171;110;Sweden;Gävleborgs län;60.4;Bastfallet, Österfärnebo;16.7;Sandviken;Skogforsk;,Pinus sylvestris,
116173;80;Sweden;Värmlands län;59.6;Drögsnäs, Brunsberg;12.9;Arvika;Skogforsk;,Pinus sylvestris,
116176;165;Sweden;Värmlands län;60;Gräsmark;12.9;Sunne;Skogforsk;,Pinus sylvestris,
116185;425;Sweden;Värmlands län;60.7;LÃ¥ngberget, Sysslebäck;12.8;Torsby;Skogforsk;,Pinus sylvestris,
116186;380;Sweden;Kopparbergs län;61.3;Bössbo , Älvdalen;14.1;Älvdalen;Skogforsk;,Pinus sylvestris,
116187;240;Sweden;Värmlands län;60.2;Runnsjön, Östmark;12.7;Torsby;Skogforsk;,Pinus sylvestris,
116188;295;Sweden;Kopparbergs län;60.9;Vika, Mora;14.3;Mora;Skogforsk;,Pinus sylvestris,
116192;175;Sweden;Kopparbergs län;60.4;Stjärnsund;16.2;Hedemora;Skogforsk;,Pinus sylvestris,
116193;295;Sweden;Västernorrlands län;62;Krankmyrvägen,Torpshammar;16.5;Hudiksvall;Skogforsk;,Pinus sylvestris,
116194;105;Sweden;Västernorrlands län;62.2;Sörlindsjö;17;Sundsvall;Skogforsk;,Pinus sylvestris,
116195;180;Sweden;Jämtlands län;62.9;ÖsterÃ¥sen, BispgÃ¥rden;16.6;Ragunda;Skogforsk;,Pinus sylvestris,
116196;125;Sweden;Örebro län;59.7;Grimsö , Lindesberg;15.5;Lindesberg;Skogforsk;,Pinus sylvestris,
116197;175;Sweden;Kopparbergs län;60.4;Stjärnsund;16.2;Falun;Skogforsk;,Pinus sylvestris,
116210;130;Sweden;Skaraborgs län;58.6;Karlsborg;14.4;Karlsborg;Skogforsk;,Pinus sylvestris,
116211;195;Sweden;Örebro län;59.5;Striberg , Gyttorp;14.9;Nora;Skogforsk;,Pinus sylvestris,
116212;90;Sweden;Västmanlands län;59.6;Kolsva;15.8;Köping;Skogforsk;,Pinus sylvestris,
116213;185;Sweden;Värmlands län;59.7;Bruksmon , SvartÃ¥na;12.9;Arvika;Skogforsk;,Pinus sylvestris,
116246;365;Sweden;Norrbottens län;66.5;Lenatorp;20.1;;Skogforsk;,Pinus sylvestris,
116247;250;Sweden;Norrbottens län;67.3;Saittarova;22.2;;Skogforsk;,Pinus sylvestris,
116248;350;Sweden;Norrbottens län;67.8;Parkalompolo;22.8;;Skogforsk;,Pinus sylvestris,
116250;204;Sweden;Västerbottens län;64.3;Lillsele;19;;Skogforsk;,Pinus sylvestris,
116251;85;Sweden;Jämtlands län;65;Byske;21;;Skogforsk;,Pinus sylvestris,
116252;155;Sweden;Norrbottens län;66.3;Rimjokk;20.7;;Skogforsk;,Pinus sylvestris,
116253;90;Sweden;Norrbottens län;66.6;Gärdforsberget;22;;Skogforsk;,Pinus sylvestris,
116254;75;Sweden;Västerbottens län;63.9;Bäcksjön;20.3;;Skogforsk;,Pinus sylvestris,
116255;380;Sweden;Västerbottens län;65.1;Sultenträsk;17.4;;Skogforsk;,Pinus sylvestris,
116256;360;Sweden;Norrbottens län;67.1;Dokkas;21.3;;Skogforsk;,Pinus sylvestris,
116257;186;Sweden;Västernorrlands län;63.1;Helgum;16.9;;Skogforsk;,Pinus sylvestris,
116260;560;Sweden;Kopparbergs län;61.3;Bösjön;14.2;;Skogforsk;,Pinus sylvestris,
116261;465;Sweden;Kopparbergs län;61.2;Arnberget;14.4;;Skogforsk;,Pinus sylvestris,
116272;445;Sweden;Västernorrlands län;62.5;Botjärn;15.3;Ã…nge;Skogforsk;,Pinus sylvestris,
116273;325;Sweden;Västernorrlands län;63.9;Tjäl Rönningsberget;17.2;Örnsköldsvik;Skogforsk;,Pinus sylvestris,
116274;300;Sweden;Jämtlands län;63.6;Andviken Föllinge;14.6;Krokom;Skogforsk;,Pinus sylvestris,
116276;35;Sweden;Gävleborgs län;61.6;Hällkrok Hornslandet;17.4;;Skogforsk;,Pinus sylvestris,
116277;150;Sweden;Västernorrlands län;62.4;Nedansjö;16.8;;Skogforsk;,Pinus sylvestris,
116278;280;Sweden;Västernorrlands län;63.5;Ranasjöbodarna;16.5;;Skogforsk;,Pinus sylvestris,
116279;;Sweden;Västerbottens län;64.3;Meselefors Meseleberget;16.7;;Skogforsk;,Pinus sylvestris,
116280;310;Sweden;Västernorrlands län;63.8;Rönningsberget;17.2;;Skogforsk;,Pinus sylvestris,
116281;380;Sweden;Västernorrlands län;63.5;Ovanmo;16.4;SollefteÃ¥;Skogforsk;,Pinus sylvestris,
116287;350;Sweden;Västerbottens län;63.9;Häggsjö;17.8;;Skogforsk;,Pinus sylvestris,
116288;150;Sweden;Västernorrlands län;63;Utanskogs by;18.2;;Skogforsk;,Pinus sylvestris,
116289;300;Sweden;Västernorrlands län;62.7;Hellgums bys fjällskog;17.6;;Skogforsk;,Pinus sylvestris,
116290;;Sweden;Västernorrlands län;62.7;Kväcklingen;16.6;;Skogforsk;,Pinus sylvestris,
116291;400;Sweden;Jämtlands län;62.7;LÃ¥ngmyrberget, Bräcke;15.5;;Skogforsk;,Pinus sylvestris,
116292;220;Sweden;Västernorrlands län;63.7;Degerforsen;17;;Skogforsk;,Pinus sylvestris,
116293;;Sweden;Västernorrlands län;63.5;Västergidsjö;18.8;;Skogforsk;,Pinus sylvestris,
116296;460;Sweden;Jämtlands län;63.4;Björkvattnet;16;;Skogforsk;,Pinus sylvestris,
116297;175;Sweden;Västernorrlands län;63.6;LÃ¥ngstrandsmyren, Björna;18.5;;Skogforsk;,Pinus sylvestris,
116298;370;Sweden;Västerbottens län;63.9;Häggsjömon;17.8;;Skogforsk;,Pinus sylvestris,
116299;350;Sweden;Jämtlands län;63.6;Strömnäs;15.6;;Skogforsk;,Pinus sylvestris,
116321;200;Sweden;Västernorrlands län;63.5;Sundmo Plantskolan;16.6;;Skogforsk;,Pinus sylvestris,
116326;380;Sweden;Västerbottens län;64.5;Börtingtjärn;18.5;;Skogforsk;,Pinus sylvestris,
116327;200;Sweden;Västernorrlands län;63.5;Sundmo Plantskola;16.6;;Skogforsk;,Pinus sylvestris,
116329;380;Sweden;Västerbottens län;64.5;Börtingtjärn;18.5;;Skogforsk;,Pinus sylvestris,
116342;10;Sweden;Västerbottens län;63.9;Sävar;20.5;;Skogforsk;,Pinus sylvestris,
116343;200;Sweden;Västernorrlands län;63.2;Holm;17.6;SollefteÃ¥;Skogforsk;,Pinus sylvestris,
116344;330;Sweden;Västerbottens län;63.3;Skorped;17.6;Örnsköldsvik;Skogforsk;,Pinus sylvestris,
116347;180;Sweden;Västernorrlands län;63.5;Söderfors;16.8;SollefteÃ¥;Skogforsk;,Pinus sylvestris,
116348;320;Sweden;Västernorrlands län;63.5;Grundtjärn;17.4;Örnsköldsvik;Skogforsk;,Pinus sylvestris,
116349;365;Sweden;Västernorrlands län;62.8;Viksjö;17.2;Härnösand;Skogforsk;,Pinus sylvestris,
116352;210;Sweden;Västernorrlands län;62.7;Ljustorp;17.3;TimrÃ¥;Skogforsk;,Pinus sylvestris,
116353;335;Sweden;Västernorrlands län;62.5;Holm;16.6;Sundsvall;Skogforsk;,Pinus sylvestris,
116354;300;Sweden;Västerbottens län;64.3;Vindeln;19.5;Vindeln;Skogforsk;,Pinus sylvestris,
116355;450;Sweden;Västernorrlands län;62.3;Östavall;15.3;Ã…nge;Skogforsk;,Pinus sylvestris,
116356;330;Sweden;Västerbottens län;64.5;Villvattnet;20.1;SkellefteÃ¥;Skogforsk;,Pinus sylvestris,
116358;325;Sweden;Västernorrlands län;63.6;Seltjärn;17.7;Örnsköldsvik;Skogforsk;,Pinus sylvestris,
116359;290;Sweden;Västerbottens län;64.4;Bratten;18.4;Lycksele;Skogforsk;,Pinus sylvestris,
116361;330;Sweden;Västernorrlands län;63.3;Skorped;17.6;Örnsköldsvik;Skogforsk;,Pinus sylvestris,
116362;200;Sweden;Västerbottens län;64;Vännäsby (Kvarnlund);19.8;Vännäs;Skogforsk;,Pinus sylvestris,
116363;300;Sweden;Västernorrlands län;62.7;Lagfors;17.1;TimrÃ¥;Skogforsk;,Pinus sylvestris,
116371;260;Sweden;Västerbottens län;65;Jörn;20.4;SkellefteÃ¥;Skogforsk;,Pinus sylvestris,
116372;240;Sweden;Västerbottens län;63.9;Lillarmsjö;19.3;Bjurholm;Skogforsk;,Pinus sylvestris,
116374;10;Sweden;Västerbottens län;63.8;Sävar (Holmen);20.5;UmeÃ¥;Skogforsk;,Pinus sylvestris,
116383;260;Sweden;Västerbottens län;65;Jörn;20.4;SkellefteÃ¥;Skogforsk;,Pinus sylvestris,
116384;280;Sweden;Västernorrlands län;63.3;Skorped;17.6;Örnsköldsvik;Skogforsk;,Pinus sylvestris,
116385;380;Sweden;Västerbottens län;64;Fredrika;18.6;Ã…sele;Skogforsk;,Pinus sylvestris,
116399;300;Sweden;Västerbottens län;64.7;Rotenträsk;18.8;Lycksele;Skogforsk;,Pinus sylvestris,
116400;335;Sweden;Norrbottens län;66;Harads (Lillberget);20.4;Boden;Skogforsk;,Pinus sylvestris,
116401;10;Sweden;Västerbottens län;63.8;Sävar (Holmen);20.5;UmeÃ¥;Skogforsk;,Pinus sylvestris,
116402;110;Sweden;Norrbottens län;66;Morjärv;22.4;Kalix;Skogforsk;,Pinus sylvestris,
116403;10;Sweden;Västerbottens län;63.8;Sävar (Holmen);20.5;UmeÃ¥;Skogforsk;,Pinus sylvestris,
116404;470;Sweden;Västerbottens län;64.8;Hornsjö;16;Vilhelmina;Skogforsk;,Pinus sylvestris,
116405;350;Sweden;Norrbottens län;65.9;Moskosel;19.3;Arvidsjaur;Skogforsk;,Pinus sylvestris,
116406;355;Sweden;Norrbottens län;65.3;Rönnliden;19.1;Arvidsjaur;Skogforsk;,Pinus sylvestris,
116407;220;Sweden;Norrbottens län;65.2;Klubbfors;20.8;PiteÃ¥;Skogforsk;,Pinus sylvestris,
116408;10;Sweden;Västerbottens län;63.8;Sävar (Holmen);20.5;UmeÃ¥;Skogforsk;,Pinus sylvestris,
116409;220;Sweden;Norrbottens län;65.2;Klubbfors;20.8;PiteÃ¥;Skogforsk;,Pinus sylvestris,
116410;450;Sweden;Västerbottens län;64;Klippen;18;Ã…sele;Skogforsk;,Pinus sylvestris,
116411;350;Sweden;Västerbottens län;64;Fredrika (Fäbodberget);18.5;Ã…sele;Skogforsk;,Pinus sylvestris,
116412;355;Sweden;Norrbottens län;65.3;Rönnliden;19.1;Arvidsjaur;Skogforsk;,Pinus sylvestris,
116420;285;Sweden;Kopparbergs län;61;VENJAN;13.8;Mora;Skogforsk;,Pinus sylvestris,
116421;330;Sweden;Västernorrlands län;63.3;Skorped;17.6;Örnsköldsvik;Skogforsk;,Pinus sylvestris,
116422;155;Sweden;Västernorrlands län;63.1;Storbränna;16.9;SollefteÃ¥;Skogforsk;,Pinus sylvestris,
116423;210;Sweden;Västernorrlands län;62.6;Lagfors;17.1;TimrÃ¥;Skogforsk;,Pinus sylvestris,
116424;265;Sweden;Västernorrlands län;62.4;Alby;15.4;Ã…nge;Skogforsk;,Pinus sylvestris,
116425;10;Sweden;Västerbottens län;63.8;Sävar (Holmen);20.5;UmeÃ¥;Skogforsk;,Pinus sylvestris,
116426;470;Sweden;Kopparbergs län;61.7;Särna;12.8;Älvdalen;Skogforsk;,Pinus sylvestris,
116427;775;Sweden;Kopparbergs län;62;Grövelsjön;12.4;Älvdalen;Skogforsk;,Pinus sylvestris,
116428;550;Sweden;Jämtlands län;62.1;Dalsvallen;13.5;Härjedalen;Skogforsk;,Pinus sylvestris,
116429;210;Sweden;Västernorrlands län;62.6;Lagfors (Mjösjön);17.1;TimrÃ¥;Skogforsk;,Pinus sylvestris,
116430;285;Sweden;Kopparbergs län;61;VENJAN;13.8;Mora;Skogforsk;,Pinus sylvestris,
116437;375;Sweden;Norrbottens län;67.8;Pirttivaara;22;Kiruna;Skogforsk;,Pinus sylvestris,
116438;420;Sweden;Norrbottens län;66.8;Urtimjaur;20.4;Gällivare;Skogforsk;,Pinus sylvestris,
116445;420;Sweden;Västernorrlands län;62.4;Östavall;15.5;Ã…nge;Skogforsk;,Pinus sylvestris,
116446;560;Sweden;Norrbottens län;66.3;Norra Bergnäs;18.3;Arjeplog;Skogforsk;,Pinus sylvestris,
116447;315;Sweden;Norrbottens län;67.5;Keräntöjärvi;23;Pajala;Skogforsk;,Pinus sylvestris,
116448;390;Sweden;Norrbottens län;66.9;Sörberget;19.1;Jokkmokk;Skogforsk;,Pinus sylvestris,
116449;200;Sweden;Norrbottens län;66.4;ÖvertorneÃ¥;23.2;ÖvertorneÃ¥;Skogforsk;,Pinus sylvestris,
116450;490;Sweden;Norrbottens län;67;Ätnarova;20.2;Gällivare;Skogforsk;,Pinus sylvestris,
116466;315;Sweden;Norrbottens län;67.5;Keräntöjärvi;23;;Skogforsk;,Pinus sylvestris,
116467;480;Sweden;Norrbottens län;67;Ätnarova;20.2;;Skogforsk;,Pinus sylvestris,
116479;40;Sweden;Västerbottens län;64.9;Byske;21.1;SkellefteÃ¥;Skogforsk;,Pinus sylvestris,
116480;130;Sweden;Norrbottens län;66.4;ÖvertorneÃ¥ (Poustijokivägen);23.3;ÖvertorneÃ¥;Skogforsk;,Pinus sylvestris,
116481;165;Sweden;Norrbottens län;66.2;Harads;20.9;Boden;Skogforsk;,Pinus sylvestris,
116482;280;Sweden;Västerbottens län;64.9;Lycksele;18.7;Lycksele;Skogforsk;,Pinus sylvestris,
116483;315;Sweden;Norrbottens län;67.5;Keräntöjärvi;23;Pajala;Skogforsk;,Pinus sylvestris,
116484;65;Sweden;Västerbottens län;64;Sävar;20.5;UmeÃ¥;Skogforsk;,Pinus sylvestris,
116485;280;Sweden;Västerbottens län;64.9;Lycksele;18.7;Lycksele;Skogforsk;,Pinus sylvestris,
116486;315;Sweden;Jämtlands län;63.6;Strömsund;15.6;Strömsund;Skogforsk;,Pinus sylvestris,
116487;40;Sweden;Västerbottens län;64.9;Byske;21.1;SkellefteÃ¥;Skogforsk;,Pinus sylvestris,
116488;165;Sweden;Norrbottens län;66.2;Harads;20.9;Boden;Skogforsk;,Pinus sylvestris,
116490;715;Sweden;Kopparbergs län;61.7;Drevdagen, Idre;12.3;;Skogforsk;,Pinus sylvestris,
116491;680;Sweden;Kopparbergs län;61.9;Storfjäten, Idre;13.1;;Skogforsk;,Pinus sylvestris,
116492;505;Sweden;Kopparbergs län;61;MatÃ¥sen, Lima;13.5;;Skogforsk;,Pinus sylvestris,
116493;440;Sweden;Jämtlands län;62.6;Ã…sarna;14;;Skogforsk;,Pinus sylvestris,
116494;280;Sweden;Jämtlands län;62.9;Kälarne;16.1;;Skogforsk;,Pinus sylvestris,
116507;225;Sweden;Västernorrlands län;62.5;Kovland;16.9;Sundsvall;Skogforsk;,Pinus sylvestris,
116508;130;Sweden;Norrbottens län;65.1;PiteÃ¥;21.1;PiteÃ¥;Skogforsk;,Pinus sylvestris,
116509;370;Sweden;Västernorrlands län;62.7;Holm;16.5;Sundsvall;Skogforsk;,Pinus sylvestris,
116510;230;Sweden;Västernorrlands län;63.8;Remmarn;18.3;Örnsköldsvik;Skogforsk;,Pinus sylvestris,
116511;155;Sweden;Västerbottens län;64;Flurkmark;20.2;UmeÃ¥;Skogforsk;,Pinus sylvestris,
116512;235;Sweden;Västerbottens län;63.8;Remmaren;18.3;Örnsköldsvik;Skogforsk;,Pinus sylvestris,
116513;10;Sweden;Västerbottens län;63.6;Hörnefors;19.9;UmeÃ¥;Skogforsk;,Pinus sylvestris,
116523;370;Sweden;Norrbottens län;66.5;Vajmat;19.3;Jokkmokk;Skogforsk;,Pinus sylvestris,
116524;265;Sweden;Västerbottens län;64.8;Röjnoret;20.1;Norsjö;Skogforsk;,Pinus sylvestris,
116525;535;Sweden;Jämtlands län;62.1;Knättberget;14.2;Härjedalen;Skogforsk;,Pinus sylvestris,
116526;395;Sweden;Jämtlands län;62.2;NorderÃ¥sen;14;Härjedalen;Skogforsk;,Pinus sylvestris,
116527;470;Sweden;Norrbottens län;67;Ätnarova;20.3;Gällivare;Skogforsk;,Pinus sylvestris,
116528;5;Sweden;Västerbottens län;63.8;Sävar (Holmen);20.5;UmeÃ¥;Skogforsk;,Pinus sylvestris,
116529;260;Sweden;Västerbottens län;64.5;Kvarnsele (Ã…msele);19.2;Vindeln;Skogforsk;,Pinus sylvestris,
116530;550;Sweden;Västerbottens län;64.3;Siksjö (Lillögda);17.7;Ã…sele;Skogforsk;,Pinus sylvestris,
116531;65;Sweden;Norrbottens län;65.9;Ã…kerby (Harads);21.2;Boden;Skogforsk;,Pinus sylvestris,
116532;470;Sweden;Norrbottens län;67;Ätnarova (Gällivare);20.3;Gällivare;Skogforsk;,Pinus sylvestris,
116535;455;Sweden;Västerbottens län;62.7;Börjestensbodarna;14.3;Berg;Skogforsk;,Pinus sylvestris,
116536;395;Sweden;Jämtlands län;62.8;Flatnor;14.9;Bräcke;Skogforsk;,Pinus sylvestris,
116537;285;Sweden;Jämtlands län;63;Blomkvisttorpet;16.7;Ragunda;Skogforsk;,Pinus sylvestris,
116550;380;Sweden;Västerbottens län;64.3;Gäddträsk;18.7;Lycksele;Skogforsk;,Pinus sylvestris,
116551;15;Sweden;Västerbottens län;63.8;Sävar;20.5;UmeÃ¥;Skogforsk;,Pinus sylvestris,
116552;390;Sweden;Västerbottens län;64.3;Gäddträsk;18.7;Lycksele;Skogforsk;,Pinus sylvestris,
116553;390;Sweden;Västerbottens län;65.4;Sorsele;17.9;Sorsele;Skogforsk;,Pinus sylvestris,
116554;560;Sweden;Norrbottens län;65.6;Gullön;18.3;Arvidsjaur;Skogforsk;,Pinus sylvestris,
116555;470;Sweden;Norrbottens län;67;Ätnarova;20.3;Gällivare;Skogforsk;,Pinus sylvestris,
116556;490;Sweden;Jämtlands län;64.3;Lidsjöberget;15.2;Strömsund;Skogforsk;,Pinus sylvestris,
116590;280;Sweden;Västernorrlands län;63.4;Edsele;16.6;SollefteÃ¥;Skogforsk;,Pinus sylvestris,
116591;260;Sweden;Västernorrlands län;63.7;Junsele;16.6;SollefteÃ¥;Skogforsk;,Pinus sylvestris,
116592;40;Sweden;Västerbottens län;63.4;Saluböle hygge;19.2;Örnsköldsvik;Skogforsk;,Pinus sylvestris,
116593;50;Sweden;Västerbottens län;63.4;Saluböle skärm;19.2;Örnsköldsvik;Skogforsk;,Pinus sylvestris,
116594;520;Sweden;Jämtlands län;62.7;FlÃ¥sjön;13.6;Berg;Skogforsk;,Pinus sylvestris,
116595;460;Sweden;Jämtlands län;62.7;Börtnan;13.9;Berg;Skogforsk;,Pinus sylvestris,
116596;410;Sweden;Västerbottens län;64.4;Idbacka;17.1;Vilhelmina;Skogforsk;,Pinus sylvestris,
116610;480;Sweden;Jämtlands län;61.9;HärjÃ¥sjön;14.2;Härjedalen;Skogforsk;,Pinus sylvestris,
116611;380;Sweden;Västernorrlands län;62.9;Gussjöhöjden;16.8;Sundsvall;Skogforsk;,Pinus sylvestris,
116612;275;Sweden;Västerbottens län;63.9;Stennäs;18.5;Bjurholm;Skogforsk;,Pinus sylvestris,
116692;125;Sweden;Skaraborgs län;58.5;Karlsborg;14.5;;Skogforsk;,Pinus sylvestris,
116693;150;Sweden;Norrbottens län;66.2;Sudok, Ladufors hemman;20.5;Jokkmokk;Skogforsk;,Pinus sylvestris,
116694;35;Sweden;Norrbottens län;65.5;Rosfors;21.4;PiteÃ¥;Skogforsk;,Pinus sylvestris,
116695;550;Sweden;Västerbottens län;65;Bäckstrand;16.4;Vilhelmina;Skogforsk;,Pinus sylvestris,
116696;310;Sweden;Västerbottens län;64.5;Brattfors;18.4;Lycksele;Skogforsk;,Pinus sylvestris,
116697;130;Sweden;Örebro län;58.9;LaxÃ¥;14.6;;Skogforsk;,Pinus sylvestris,
116698;160;Sweden;Gävleborgs län;60.4;Kratte-Masugn, TorsÃ¥ker;16.3;;Skogforsk;,Pinus sylvestris,
116699;400;Sweden;Jämtlands län;63.2;HalÃ¥sen;14.7;;Skogforsk;,Pinus sylvestris,
116700;460;Sweden;Jämtlands län;63.4;Björkvattnet;16;Ragunda;Skogforsk;,Pinus sylvestris,
116712;155;Sweden;Västerbottens län;64;Lilla Flurkmark;20.2;;Skogforsk;,Pinus sylvestris,
116713;245;Sweden;Västerbottens län;64.3;Granö;19.3;;Skogforsk;,Pinus sylvestris,
116714;250;Sweden;;64.5;Villvattnet;20.1;;Skogforsk;,Pinus sylvestris,
116715;250;Sweden;;64.5;Villvattnet, kristall;20.1;;Skogforsk;,Pinus sylvestris,
116716;250;Sweden;;64.5;Villvattnet, näring;20.1;;Skogforsk;,Pinus sylvestris,
116717;275;Sweden;;64.5;Villvattnet, högläggning;20.1;;Skogforsk;,Pinus sylvestris,
116718;270;Sweden;;64.3;Lidsjön, norr;20.2;;Skogforsk;,Pinus sylvestris,
116719;275;Sweden;;64.3;Lidsjön, syd;20.2;;Skogforsk;,Pinus sylvestris,
116720;255;Sweden;;64.1;Vindeln, Tjärnbäck;19.8;;Skogforsk;,Pinus sylvestris,
116721;245;Sweden;;64.6;Manjaurkalven;19.3;;Skogforsk;,Pinus sylvestris,
116722;270;Sweden;;64.5;Petisträsk;19.6;;Skogforsk;,Pinus sylvestris,
116724;;Sweden;;0;Ã…sele;0;;Skogforsk;,Pinus sylvestris,
116725;;Sweden;;0;Sveg;0;;Skogforsk;,Pinus sylvestris,
116726;;Sweden;;0;Bänkerviken;0;;Skogforsk;,Pinus sylvestris,
116728;290;Sweden;Jämtlands län;63.8;Svartön;15.5;;Skogforsk;,Pinus sylvestris,
116729;300;Sweden;Jämtlands län;63.8;Näset;15.5;;Skogforsk;,Pinus sylvestris,
116733;350;Sweden;Jämtlands län;64;Alavattnets skog;15.5;;Skogforsk;,Pinus sylvestris,
116738;200;Sweden;Västernorrlands län;63.5;SvanögÃ¥rden;16.7;;Skogforsk;,Pinus sylvestris,
116761;210;Sweden;Västerbottens län;64.1;Lövbränna, Svartberget;19.4;;Skogforsk;,Pinus sylvestris,
116771;340;Sweden;Västerbottens län;64;Gavsele;17.2;;Skogforsk;,Pinus sylvestris,
116772;245;Sweden;Västerbottens län;64.6;Manjaurkalven;19.3;;Skogforsk;,Pinus sylvestris,
116773;530;Sweden;Västerbottens län;64.4;Vaksjöberget;17.7;;Skogforsk;,Pinus sylvestris,
116774;35;Sweden;Västerbottens län;64.1;Rönnäsvägen;19.6;;Skogforsk;,Pinus sylvestris,
116791;200;Sweden;Västernorrlands län;63.5;Sundmo Plantskolan;16.6;;Skogforsk;,Pinus sylvestris,
116792;245;Sweden;Västerbottens län;64.3;Granö;19.3;;Skogforsk;,Pinus sylvestris,
116793;225;Sweden;Västerbottens län;64.3;Kullsjö II, Vindeln;19.4;;Skogforsk;,Pinus sylvestris,
116794;240;Sweden;Västerbottens län;64.2;Bergmyrberget, Vindeln;19.5;;Skogforsk;,Pinus sylvestris,
116795;235;Sweden;Västerbottens län;64.2;Kullsjö, Vindeln;19.4;;Skogforsk;,Pinus sylvestris,
116796;190;Sweden;Värmlands län;59.7;Bruksmon, Ämtevik;13;;Skogforsk;,Pinus sylvestris,
116797;290;Sweden;Kopparbergs län;60.9;Hattkullen, Siljansfors;14.3;;Skogforsk;,Pinus sylvestris,
116798;260;Sweden;Kopparbergs län;61.2;Vasseln, VÃ¥mhus;14.2;;Skogforsk;,Pinus sylvestris,
116799;410;Sweden;Kopparbergs län;60.9;Venjan;14.1;;Skogforsk;,Pinus sylvestris,
116800;310;Sweden;Kopparbergs län;60.8;Öje, Siljansfors;14;;Skogforsk;,Pinus sylvestris,
116801;405;Sweden;Kopparbergs län;61;Nydalen, Gopshus;14;;Skogforsk;,Pinus sylvestris,
116802;220;Sweden;Västerbottens län;64.2;Renberget, Svartberget;19.7;;Skogforsk;,Pinus sylvestris,
116803;225;Sweden;Västerbottens län;64.2;Renberget, Svartberget;19.7;;Skogforsk;,Pinus sylvestris,
116804;290;Sweden;Kopparbergs län;60.9;Hattkullen, Siljansfors;14.3;;Skogforsk;,Pinus sylvestris,
116805;285;Sweden;Västerbottens län;65.1;Melsträsk;20.4;;Skogforsk;,Pinus sylvestris,
116807;405;Sweden;Västerbottens län;64.1;BeroniussÃ¥dden;18.2;;Skogforsk;,Pinus sylvestris,
116808;300;Sweden;Västerbottens län;64.3;Bäverträsk;18.1;;Skogforsk;,Pinus sylvestris,
116809;280;Sweden;Västerbottens län;64.4;Brännforsliden;19.1;;Skogforsk;,Pinus sylvestris,
116810;280;Sweden;Västerbottens län;64.4;Norsk Hydro;19.1;;Skogforsk;,Pinus sylvestris,
116813;200;Sweden;Norrbottens län;66;Vidsel;20.3;;Skogforsk;,Pinus sylvestris,
116814;210;Sweden;Jämtlands län;62.4;Albacken;16;;Skogforsk;,Pinus sylvestris,
116815;300;Sweden;Jämtlands län;62.4;Bensjö;15.2;;Skogforsk;,Pinus sylvestris,
116816;210;Sweden;Jämtlands län;62.4;Moarna;16;;Skogforsk;,Pinus sylvestris,
116821;300;Sweden;Västerbottens län;65.1;Gargnäs;18;;Skogforsk;,Pinus sylvestris,
116822;250;Sweden;Västerbottens län;64.5;FahlÃ¥ström;18.2;;Skogforsk;,Pinus sylvestris,
116825;210;Sweden;Västernorrlands län;63.2;SANDBACKSMON;18.2;;Skogforsk;,Pinus sylvestris,
116826;320;Sweden;Västerbottens län;64.5;PJÄSÖRN;19.3;;Skogforsk;,Pinus sylvestris,
116827;50;Sweden;Norrbottens län;66.2;Vuollerim;20.3;;Skogforsk;,Pinus sylvestris,
116828;;Sweden;Norrbottens län;0;Sunderbyn;0;;Skogforsk;,Pinus sylvestris,
116829;245;Sweden;Västernorrlands län;63;Graninge;16.5;;Skogforsk;,Pinus sylvestris,
116830;250;Sweden;Kopparbergs län;61.2;Noppikoski;14.5;;Skogforsk;,Pinus sylvestris,
116831;25;Sweden;;59.5;Hakunge-Sotter;18.2;;Skogforsk;,Pinus sylvestris,
116832;370;Sweden;Norrbottens län;65.3;Arvidsjaur;19.1;;Skogforsk;,Pinus sylvestris,
116833;400;Sweden;Norrbottens län;66.2;TÃ¥rrajaure;19.4;;Skogforsk;,Pinus sylvestris,
116834;30;Sweden;Västerbottens län;64;Robertsfors;20.4;;Skogforsk;,Pinus sylvestris,
116835;95;Sweden;Västmanlands län;60;Tärnsjö;16.5;;Skogforsk;,Pinus sylvestris,
116837;70;Sweden;Västmanlands län;60.5;Uppsala Universitet;16.5;;Skogforsk;,Pinus sylvestris,
116838;250;Sweden;Västernorrlands län;63.4;Locksta;18.2;;Skogforsk;,Pinus sylvestris,
116839;220;Sweden;Gävleborgs län;61.2;Voxna;15.2;;Skogforsk;,Pinus sylvestris,
116840;95;Sweden;Gävleborgs län;60.4;Ockelbo;16.4;;Skogforsk;,Pinus sylvestris,
116843;300;Sweden;Jämtlands län;63.4;Strömsund;15.3;;Skogforsk;,Pinus sylvestris,
116844;390;Sweden;Västerbottens län;64.1;Granträsk;18.1;;Skogforsk;,Pinus sylvestris,
116845;140;Sweden;Norrbottens län;67;Kassa Pajala;23.3;;Skogforsk;,Pinus sylvestris,
116846;15;Sweden;Norrbottens län;65.4;Sunderbyn;21.5;;Skogforsk;,Pinus sylvestris,
116847;130;Sweden;Värmlands län;59.4;Ransäter;13.3;;Skogforsk;,Pinus sylvestris,
116848;290;Sweden;Jönköpings län;57.4;Tenhult;14.1;;Skogforsk;,Pinus sylvestris,
116849;110;Sweden;Kalmar län;57.4;Järpekullen;15.4;;Skogforsk;,Pinus sylvestris,
116850;45;Sweden;Västerbottens län;64.2;Vallen;20.5;;Skogforsk;,Pinus sylvestris,
116852;370;Sweden;Västerbottens län;64;Häggsjömon;17.5;;Skogforsk;,Pinus sylvestris,
116854;55;Sweden;Uppsala län;59.5;JärlÃ¥sa;17.1;;Skogforsk;,Pinus sylvestris,
116855;135;Sweden;Kopparbergs län;60.1;Gysinge;16.3;;Skogforsk;,Pinus sylvestris,
116860;170;Sweden;Jönköpings län;57.2;Nissafors;13.3;;Skogforsk;,Pinus sylvestris,
116861;215;Sweden;Västerbottens län;64.2;Hällnäs;19.2;;Skogforsk;,Pinus sylvestris,
116869;475;Sweden;Kopparbergs län;61.2;SÄLEN;13;;Skogforsk;,Pinus sylvestris,
116870;335;Sweden;Norrbottens län;66.5;PAKKO;19.4;;Skogforsk;,Pinus sylvestris,
116871;310;Sweden;Västerbottens län;64;Fredrika;18.1;;Skogforsk;,Pinus sylvestris,
116873;435;Sweden;Gävleborgs län;61.4;Färila;15.3;;Skogforsk;,Pinus sylvestris,
116874;150;Sweden;Värmlands län;60;Hagfors;13.4;;Skogforsk;,Pinus sylvestris,
116875;90;Sweden;Kristianstads län;56.1;Perstorp;13.1;;Skogforsk;,Pinus sylvestris,
116876;60;Sweden;Västmanlands län;60;Styggmossen;16.5;;Skogforsk;,Pinus sylvestris,
116878;330;Sweden;Västerbottens län;64;Ã…SELE;17.3;;Skogforsk;,Pinus sylvestris,
116879;150;Sweden;Värmlands län;59.5;Sundheden;13.4;;Skogforsk;,Pinus sylvestris,
116883;210;Sweden;Kronobergs län;57;Asa;14.5;;Skogforsk;,Pinus sylvestris,
116884;145;Sweden;Jönköpings län;57.2;Vetlanda;15.1;;Skogforsk;,Pinus sylvestris,
116885;170;Sweden;Kopparbergs län;61;Rättvik;14.5;;Skogforsk;,Pinus sylvestris,
116886;200;Sweden;#NAME?;58.5;Ã…LTJÄRNMOSSEN;11.4;;Skogforsk;,Pinus sylvestris,
116888;240;Sweden;Gävleborgs län;62.1;RAMSJÖ;15.3;;Skogforsk;,Pinus sylvestris,
116889;220;Sweden;Värmlands län;59.5;Munkfors;13.3;;Skogforsk;,Pinus sylvestris,
116892;370;Sweden;Värmlands län;60.3;Bjurberget;12.4;;Skogforsk;,Pinus sylvestris,
116893;220;Sweden;Jönköpings län;57.3;Vaggeryd;14;;Skogforsk;,Pinus sylvestris,
116895;120;Sweden;Norrbottens län;66.1;Lakaträsk;21.2;;Skogforsk;,Pinus sylvestris,
116896;350;Sweden;Gävleborgs län;61;Ã…MOT;16.1;;Skogforsk;,Pinus sylvestris,
116899;350;Sweden;Gävleborgs län;61.3;Vallsta;16.1;;Skogforsk;,Pinus sylvestris,
116908;390;Sweden;Jämtlands län;62.2;Östavall;15.3;;Skogforsk;,Pinus sylvestris,
116909;340;Sweden;Västernorrlands län;62.2;Mellansjö;15.4;;Skogforsk;,Pinus sylvestris,
116911;620;Sweden;Jämtlands län;62;Lofsdalen;13.3;;Skogforsk;,Pinus sylvestris,
116913;220;Sweden;Västerbottens län;64.1;Vindeln;19.2;;Skogforsk;,Pinus sylvestris,
116918;135;Sweden;Västmanlands län;59.4;RIDDARHYTTAN;15.3;;Skogforsk;,Pinus sylvestris,
116920;200;Sweden;Örebro län;59.3;NORA;14.4;;Skogforsk;,Pinus sylvestris,
116921;160;Sweden;Jönköpings län;57.1;GISLAVED;13.3;;Skogforsk;,Pinus sylvestris,
116922;180;Sweden;Jönköpings län;57.2;SKILLINGARYD;13.5;;Skogforsk;,Pinus sylvestris,
116930;;Sweden;;0;ÄNGSARVTET;0;;Skogforsk;,Pinus sylvestris,
116931;310;Sweden;Jämtlands län;63;Fansberget;16.4;;Skogforsk;,Pinus sylvestris,
116932;260;Sweden;Norrbottens län;65.4;TSÃ…KASLIDEN;19.5;;Skogforsk;,Pinus sylvestris,
116933;175;Sweden;Norrbottens län;65.4;NATTBERGSHEDEN;20.2;;Skogforsk;,Pinus sylvestris,
116934;245;Sweden;Västernorrlands län;63.3;VÄSTANBÄCKSMON;17.2;;Skogforsk;,Pinus sylvestris,
116935;395;Sweden;Jämtlands län;62;Billingssjön;14;;Skogforsk;,Pinus sylvestris,
116936;75;Sweden;Gävleborgs län;60.1;Kolartorp;17;;Skogforsk;,Pinus sylvestris,
116937;170;Sweden;Jönköpings län;57.2;NISSAFORS;13.3;;Skogforsk;,Pinus sylvestris,
116938;230;Sweden;Gävleborgs län;61.5;BJURÃ…KER;16.3;;Skogforsk;,Pinus sylvestris,
116939;130;Sweden;Östergötlands län;58.4;Medevi;15;;Skogforsk;,Pinus sylvestris,
116940;120;Sweden;Kristianstads län;56.2;Markaryd;13.3;;Skogforsk;,Pinus sylvestris,
116941;315;Sweden;Gävleborgs län;62.1;Ramsjö;15.3;;Skogforsk;,Pinus sylvestris,
116942;230;Sweden;Kronobergs län;56.5;Kosta;15.2;;Skogforsk;,Pinus sylvestris,
116943;200;Sweden;Västerbottens län;64.1;Hednäs;19.2;;Skogforsk;,Pinus sylvestris,
116944;110;Sweden;Värmlands län;59.4;Ransäter;13.3;;Skogforsk;,Pinus sylvestris,
116945;230;Sweden;Kronobergs län;56.5;Alnafyl;15.2;;Skogforsk;,Pinus sylvestris,
116946;240;Sweden;Kronobergs län;56.5;Västra Fly;15.1;;Skogforsk;,Pinus sylvestris,
116947;270;Sweden;Gävleborgs län;62;Furuberg;16.3;;Skogforsk;,Pinus sylvestris,
116949;65;Sweden;Uppsala län;59.5;Altuna;16.5;;Skogforsk;,Pinus sylvestris,
116950;50;Sweden;Stockholms län;59.2;Stäket;17.5;;Skogforsk;,Pinus sylvestris,
116951;80;Sweden;Norrbottens län;66.3;Lansjärv;22.2;;Skogforsk;,Pinus sylvestris,
116952;182;Sweden;Jönköpings län;57.1;Ohs;14.2;;Skogforsk;,Pinus sylvestris,
116953;182;Sweden;Jönköpings län;57.1;Ohs;14.2;;Skogforsk;,Pinus sylvestris,
116954;50;Sweden;Södermanlands län;58.5;Katrineholm;16;;Skogforsk;,Pinus sylvestris,
116955;165;Sweden;Kronobergs län;56.4;Nöttja;13.4;;Skogforsk;,Pinus sylvestris,
116956;150;Sweden;#NAME?;58.5;Dals-Ed;11.5;;Skogforsk;,Pinus sylvestris,
116958;30;Sweden;Uppsala län;59.5;Almunge del A o B;18.1;;Skogforsk;,Pinus sylvestris,
116959;145;Sweden;Kronobergs län;63.1;Unnaryd;13.3;;Skogforsk;,Pinus sylvestris,
116960;50;Sweden;Västerbottens län;64.1;Robertsfors;20.4;;Skogforsk;,Pinus sylvestris,
116961;210;Sweden;Jönköpings län;57.3;Öreryd;13.4;;Skogforsk;,Pinus sylvestris,
164847;189;Sweden;Gävleborgs län;60.8;Jädraås FP;17.33;Ockelbo;SLU;,Pinus sylvestris,
164848;140;Sweden;Västra Götalands län;57.32;Häcksvik;13.16;Svenljunga ;SLU;,Pinus sylvestris,
164849;410;Sweden;Dalarnas län;60.83;Venjan;14.13;Mora;SLU;,Pinus sylvestris,
164852;240;Sweden;Dalarnas län;60.88;Siljansfors FP;14.39;Mora;SLU;,Pinus sylvestris,
164853;200;Sweden;Jönköpings län;57.52;Mölnafältet;14.2;Värnamo;SLU;,Pinus sylvestris,
164855;245;Sweden;Västra Götalands län;57.99;Haboskogen;14.06;Hjo;SLU;,Pinus sylvestris,
164856;365;Sweden;Norrbottens län;65.77;Häggsjöliden;19.5;Arvidsjaur;SLU;,Pinus sylvestris,
164857;285;Sweden;Gävleborgs län;61.5;Ljusbergskil;16.14;Bollnäs;SLU;,Pinus sylvestris,Picea abies,
164875;170;Sweden;Jönköpings län;57.38;Åker;13.99;Skillingaryd;SLU;,Pinus sylvestris,
164876;243;Sweden;Kronobergs län;56.84;Kosta;15.48;Lessebo;SLU;,Pinus sylvestris,
164882;460;Sweden;Dalarnas län;60.78;Sälsjöarna;14.4;Mora;SLU;,Betula pendula,Larix sukaczewii,Picea abies,Pinus contorta,Pinus sylvestris,
164883;350;Sweden;Dalarnas län;60.72;Görsjön;14.32;Mora;SLU;,Betula pendula,Larix sukaczewii,Picea abies,Pinus contorta,Pinus sylvestris,
164887;175;Sweden;Kronobergs län;57.17;Asa FP;14.78;Växjö;SLU;,Picea abies,Pinus sylvestris,
164903;235;Sweden;Kronobergs län;56.99;Linnebjörke;15.16;Växjö;SLU;,Pinus sylvestris,
164904;165;Sweden;Jönköpings län;57.25;Hörle;14.06;Värnamo;SLU;,Pinus sylvestris,
164905;55;Sweden;Skåne län;55.55;Snogeholm;13.7;Sjöbo;SLU;,Acer platanoides,Alnus glutinosa,Betula pendula,Betula pubescens,Carpinus betulus,Fagus sylvatica,Fraxinus excelsior,Larix x eurolepis,Malus silvestris,Picea abies,Pinus sylvestris,Populus x wettsteinii,Populus tremula,Prunus avium,Quercus petraea,Quercus robur,Salix caprea,Sorbus aucuparia,Sorbus intermedia,Taxus baccata,Tilia cordata,Ulmus glabra,
164943;30;Sweden;Östergötlands län;58.52;Rövarborgen;16.08;Norrköping;SLU;,Alnus glutinosa,Betula,Corylus avellana,Picea abies,Pinus sylvestris,Quercus robur,Salix caprea,Salix,Sorbus aucuparia,Sorbus intermedia,
164944;185;Sweden;Jönköpings län;57.3;Trollebo;15.29;Vetlanda;SLU;,Betula,Corylus avellana,Fagus sylvatica,Picea abies,Pinus sylvestris,Populus tremula,Prunus avium,Quercus robur,Salix caprea,Salix,Sorbus intermedia,Sorbus aucuparia,
164945;230;Sweden;Kronobergs län;57.14;Asa;14.83;Växjö;SLU;,Betula,Picea abies,Pinus sylvestris,Populus tremula,Quercus robur,Salix caprea,Salix,Sorbus intermedia,Sorbus aucuparia,
164946;70;Sweden;Gotlands län;57.32;Autsarve;18.35;Gotland;SLU;,Betula,Picea abies,Pinus sylvestris,
164947;100;Sweden;Blekinge län;56.36;Hjortseryd;15.3;Ronneby;SLU;,Betula,Fagus sylvatica,Picea abies,Pinus sylvestris,Quercus robur,Salix caprea,Salix,Sorbus intermedia,Sorbus aucuparia,
164948;150;Sweden;Skåne län;56.44;Lönsboda;14.35;Osby;SLU;,Betula,Fagus sylvatica,Picea abies,Pinus sylvestris,Populus tremula,Salix caprea,Sorbus intermedia,Sorbus aucuparia,
164949;110;Sweden;Västra Götalands län;58.39;Uddevalla;11.78;Uddevalla;SLU;,Betula,Larix,Picea abies,Pinus sylvestris,Prunus avium,Quercus robur,Salix caprea,Salix,Sorbus intermedia,Sorbus aucuparia,
164950;175;Sweden;Västra Götalands län;57.47;Svenljunga;13.15;Svenljunga;SLU;,Betula,Picea abies,Pinus sylvestris,Populus tremula,Quercus robur,Salix caprea,Salix,Sorbus intermedia,Sorbus aucuparia,
164951;70;Sweden;Västra Götalands län;58.67;Leksberg;13.79;Mariestad;SLU;,Betula,Larix,Picea abies,Pinus sylvestris,Quercus robur,Salix caprea,Salix,Sorbus intermedia,Sorbus aucuparia,
164954;120;Sweden;Örebro län;58.95;V Molången;15.31;Hallsberg;SLU;,Betula,Picea abies,Pinus sylvestris,Populus tremula,Salix,Sorbus aucuparia,
164957;285;Sweden;Dalarnas län;60.91;Siljansfors FP;14.37;Mora;SLU;,Picea abies,Pinus sylvestris,
164958;240;Sweden;Västernorrlands län;62.47;Höganäs;15.93;Ånge;SLU;,Betula,Picea abies,Pinus sylvestris,
164959;290;Sweden;Jämtlands län;63.75;Sör-Sporrsjön;15.74;Strömsund;SLU;,Picea abies,Pinus sylvestris,
164960;235;Sweden;Jämtlands län;62.77;Strandåker;16.11;Bräcke;SLU;,Picea abies,Pinus sylvestris,
164961;145;Sweden;Västerbottens län;64.08;Trolltjärnsberg;20.3;Umeå;SLU;,Betula,Picea abies,Pinus sylvestris,
164962;340;Sweden;Västerbottens län;64.57;Orrkulla;18.41;Lycksele;SLU;,Betula,Picea abies,Pinus sylvestris,
164963;230;Sweden;Norrbottens län;67.3;Käryvaara;23.43;Pajala;SLU;,Betula,Picea abies,Pinus sylvestris,
164965;120;Sweden;Hallands län;56.54;Skogaby;13.22;Laholm;SLU;,Picea abies,Pinus sylvestris,
164972;270;Sweden;Västerbottens län;64.27;Lappkuliden;19.66;Vindeln;SLU;,Pinus sylvestris,
164974;420;Sweden;Västerbottens län;64.34;Långbäcken;18.15;Åsele;SLU;,Pinus sylvestris,
164975;435;Sweden;Dalarnas län;61.03;Myckelsjö;14.05;Mora;SLU;,Pinus sylvestris,
164976;125;Sweden;Norrbottens län;65.52;Brännträsket;21.38;Piteå;SLU;,Pinus sylvestris,
164977;10;Sweden;Västerbottens län;63.89;Sävar;20.55;Umeå;SLU;,Pinus sylvestris,
164978;35;Sweden;Norrbottens län;65.89;Björkfors;23.43;Kalix;SLU;,Pinus sylvestris,
164979;20;Sweden;Stockholms län;59.41;Sandvreten;18.18;Vaxholm;SLU;,Pinus sylvestris,
164980;120;Sweden;Skåne län;55.79;V.Stenshult;14.06;Kristianstad;SLU;,Pinus sylvestris,
164983;15;Sweden;Västerbottens län;63.65;Söderbergs;19.91;Umeå;SLU;,Pinus sylvestris,
164984;15;Sweden;Västerbottens län;63.65;Söderbergs;19.91;Umeå;SLU;,Pinus sylvestris,
164985;15;Sweden;Västerbottens län;63.65;Söderbergs;19.91;Umeå;SLU;,Pinus sylvestris,
165000;280;Sweden;Västerbottens län;64.31;Storsandsjö;19.77;Vindeln;SLU;,Pinus sylvestris,
165001;15;Sweden;Västerbottens län;63.65;Söderbergs;19.91;Umeå;SLU;,Pinus sylvestris,
165009;220;Sweden;Västerbottens län;64.25;Renberget;19.8;Vindeln;SLU;,Pinus sylvestris,
165010;270;Sweden;Västerbottens län;64.27;Lappkuliden;19.64;Vindeln;SLU;,Pinus sylvestris,
165011;15;Sweden;Västerbottens län;63.64;Söderbergs;19.91;Umeå;SLU;,Pinus sylvestris,
165012;15;Sweden;Västerbottens län;63.65;Söderbergs;19.91;Umeå;SLU;,Pinus sylvestris,
165013;27;Sweden;Västerbottens län;63.94;Johannesfor;20.58;Umeå;SLU;,Pinus sylvestris,
165015;470;Sweden;Norrbottens län;67.06;Kuosavaara;20.29;Gällivare;SLU;,Pinus sylvestris,
165016;470;Sweden;Norrbottens län;66.77;Stuorsamon;19.73;Jokkmokk;SLU;,Pinus sylvestris,
165017;570;Sweden;Norrbottens län;66.03;Granliden;18.46;Arjeplog;SLU;,Pinus sylvestris,
165018;520;Sweden;Norrbottens län;65.99;Kåtatjärn;18.34;Arjeplog;SLU;,Pinus sylvestris,
165025;480;Sweden;Västerbottens län;65.59;Gippervare;17.19;Sorsele;SLU;,Pinus sylvestris,
165029;55;Sweden;Västernorrlands län;62.53;Svarttjärnen;17.75;Härnösand;SLU;,Pinus sylvestris,
165030;345;Sweden;Västernorrlands län;63.97;Småtjärnarna;16.75;Sollefteå;SLU;,Pinus sylvestris,
165031;490;Sweden;Norrbottens län;65.96;Björnliden;17.19;Arjeplog;SLU;,Pinus sylvestris,
165033;430;Sweden;Dalarnas län;60.98;Rostberget;14.31;Mora;SLU;,Pinus sylvestris,
165035;465;Sweden;Västernorrlands län;62.25;Korpåsen;16.19;Ånge;SLU;,Pinus sylvestris,
165036;350;Sweden;Jämtlands län;62.97;Häbbersjön;16.93;Ragunda;SLU;,Pinus sylvestris,
165037;105;Sweden;Västernorrlands län;63.51;Flisbäcken;19.09;Örnsköldsvik;SLU;,Pinus sylvestris,
165038;390;Sweden;Jämtlands län;64.15;Ringvattnet;15.46;Strömsund;SLU;,Pinus sylvestris,
165039;85;Sweden;Västerbottens län;64.05;Gårdmyran;20.56;Umeå;SLU;,Pinus sylvestris,
165040;420;Sweden;Västerbottens län;64.24;Flakaträsk;18.45;Lycksele;SLU;,Pinus sylvestris,
165045;130;Sweden;Norrbottens län;66.61;Rönsjärv;22.9;Överkalix;SLU;,Pinus sylvestris,
165048;27;Sweden;Västerbottens län;63.94;Johannesfors;20.58;Umeå;SLU;,Pinus sylvestris,
165055;230;Sweden;Kalmar län;57.73;N.Kvill;15.6;Vimmerby;SLU;,Pinus sylvestris,
165056;140;Sweden;Kalmar län;57.73;Fagerdal;15.6;Vimmerby;SLU;,Pinus sylvestris,
165057;;Sweden;Västra Götalands län;58.67;Hultamo;14.49;Karlsborg;SLU;,Pinus sylvestris,
165058;;Sweden;Södermanlands län;0;Vråskogen;0;Katrineholm;SLU;,Pinus sylvestris,
165074;400;Sweden;Västerbottens län;64.31;Nordanås;18.19;Åsele;SLU;,Pinus sylvestris,
165075;125;Sweden;Västra Götalands län;58.47;Närsäter;13.61;Skara;SLU;,Pinus sylvestris,
165076;125;Sweden;Västra Götalands län;58.47;Närsäter;13.61;Skara;SLU;,Pinus sylvestris,
165077;;Sweden;Uppsala län;0;Alunda;0;Östhammar;SLU;,Pinus sylvestris,
165078;215;Sweden;Dalarnas län;60.3;Ljusfallet;16.27;Hedemora;SLU;,Pinus sylvestris,
165079;30;Sweden;Uppsala län;60.55;Stallmon;17.44;Älvkarleby;SLU;,Pinus sylvestris,
165080;;Sweden;Örebro län;0;Finnerödja;0;Laxå;SLU;,Pinus sylvestris,
165084;;Sweden;Uppsala län;60.55;Stallmon;17.43;Älvkarleby;SLU;,Pinus sylvestris,
165086;70;Sweden;Södermanlands län;59;Lyttersta;15.89;Vingåker;SLU;,Pinus sylvestris,
165087;70;Sweden;Södermanlands län;59.02;Ilinge;15.86;Vingåker;SLU;,Pinus sylvestris,
165088;170;Sweden;Dalarnas län;0;S.Förmaks;0;Hedemora;SLU;,Pinus sylvestris,
165089;275;Sweden;Dalarnas län;60.48;N.Förmaks;16.08;Hedemora;SLU;,Pinus sylvestris,
165100;90;Sweden;Norrbottens län;65.78;Brännberg;21.28;Boden ;SLU;,Pinus sylvestris,
165101;180;Sweden;Jämtlands län;63.02;Prästbordet;16.64;Ragunda;SLU;,Picea abies,Pinus sylvestris,
165102;150;Sweden;Norrbottens län;66.14;Kvarnberget;22.24;Luleå;SLU;,Pinus sylvestris,
165103;200;Sweden;Västerbottens län;64.24;Svartbergets FP;19.77;Vindeln;SLU;,Pinus sylvestris,
165104;200;Sweden;Gävleborgs län;61.35;Born;15.58;Ovanåker;SLU;,Pinus sylvestris,
165105;200;Sweden;Gävleborgs län;61.35;Born;15.58;Ovanåker;SLU;,Pinus sylvestris,
165106;200;Sweden;Gävleborgs län;61.36;Born;15.59;Ovanåker;SLU;,Pinus sylvestris,
165107;100;Sweden;Norrbottens län;65.75;Alträsk;21.27;Boden;SLU;,Pinus sylvestris,
165108;60;Sweden;Södermanlands län;58.82;Björkviksdel;16.38;Katrineholm;SLU;,Pinus sylvestris,
165109;295;Sweden;Jämtlands län;63.14;Andersön;14.41;Östersund;SLU;,Pinus sylvestris,
165110;40;Sweden;Södermanlands län;58.86;Björkviksdel;16.4;Katrineholm;SLU;,Pinus sylvestris,
165111;90;Sweden;Västmanlands län;59.7;Dalskogen;16.1;Surahammar;SLU;,Pinus sylvestris,
165112;100;Sweden;Jönköpings län;58.04;Visingsö;14.34;Jönköping;SLU;,Picea abies,Pinus sylvestris,
165113;100;Sweden;Jönköpings län;58.04;Visingsö;14.34;Jönköping;SLU;,Picea abies,Pinus sylvestris,
165114;70;Sweden;Östergötlands län;58.83;Slätmon;16.2;Norrköping;SLU;,Pinus sylvestris,
165115;70;Sweden;Östergötlands län;58.82;Bråtfall;15.64;Finspång;SLU;,Pinus sylvestris,
165119;280;Sweden;Norrbottens län;66.63;Junkarhällan;19.58;Jokkmokk;SLU;,Pinus sylvestris,
165120;145;Sweden;Norrbottens län;66.47;Sucksoive;20.49;Jokkmokk;SLU;,Pinus sylvestris,
165121;420;Sweden;Norrbottens län;65.69;Vaksliden;18.78;Arvidsjaur;SLU;,Pinus sylvestris,
165122;150;Sweden;Norrbottens län;66.14;Kvarnberget;22.24;Luleå;SLU;,Pinus sylvestris,
165124;80;Sweden;Norrbottens län;66.55;Tallberget;22.78;Överkalix;SLU;,Pinus sylvestris,
165125;80;Sweden;Värmlands län;59.39;Eriksberg;13.34;Karlstad;SLU;,Pinus sylvestris,
165126;225;Sweden;Västerbottens län;64.77;Grundträsklid;19.02;Lycksele;SLU;,Pinus sylvestris,
165127;140;Sweden;Västra Götalands län;58.42;Remningstorp;13.63;Skara;SLU;,Pinus sylvestris,
165133;80;Sweden;Gävleborgs län;61.24;Nybruksback;16.88;Söderhamn;SLU;,Pinus sylvestris,
165135;200;Sweden;Västerbottens län;64.57;Bocken;18.72;Lycksele;SLU;,Pinus sylvestris,
165136;60;Sweden;Södermanlands län;58.83;Björkviksdel;16.38;Katrineholm;SLU;,Pinus sylvestris,
165137;120;Sweden;Örebro län;59.04;Hardemo;15.03;Kumla;SLU;,Pinus sylvestris,
165141;60;Sweden;Västmanlands län;59.8;Tomta;16.56;Västerås;SLU;,Pinus sylvestris,
165142;240;Sweden;Gävleborgs län;61.18;Mållongstugan;15.77;Ovanåker;SLU;,Pinus sylvestris,
165143;320;Sweden;Jämtlands län;62.91;Prästbordet;15.17;Bräcke;SLU;,Pinus sylvestris,
165145;240;Sweden;Västernorrlands län;63.86;Hembäcken;18.45;Örnsköldsvik;SLU;,Pinus sylvestris,
165147;340;Sweden;Västernorrlands län;62.88;Gussjö;16.73;Sundsvall;SLU;,Pinus sylvestris,
165148;250;Sweden;Jämtlands län;63.08;Bispgården;16.72;Ragunda;SLU;,Pinus sylvestris,
165149;380;Sweden;Jämtlands län;63.11;Torresjöland;16.64;Ragunda;SLU;,Pinus sylvestris,
165150;360;Sweden;Jämtlands län;62.97;Oxböle;16.74;Ragunda;SLU;,Pinus sylvestris,
165151;300;Sweden;Jämtlands län;63.22;Västerhus;14.5;Östersund;SLU;,Pinus sylvestris,
165152;300;Sweden;Jämtlands län;63.22;Västerhus;14.49;Östersund;SLU;,Pinus sylvestris,
165153;500;Sweden;Jämtlands län;62.47;Rätansbyn;14.48;Berg;SLU;,Pinus sylvestris,
165154;460;Sweden;Jämtlands län;62.48;Rätansbyn;14.45;Berg;SLU;,Pinus sylvestris,
165155;240;Sweden;Västerbottens län;64.36;Sjöbrånet;19.67;Vindeln;SLU;,Pinus sylvestris,
165156;60;Sweden;Västerbottens län;64.19;Edfast Mark;20.89;Robertsfors;SLU;,Pinus sylvestris,
165157;280;Sweden;Norrbottens län;66.46;Murjek;20.92;Jokkmokk;SLU;,Pinus sylvestris,
165162;50;Sweden;Gotlands län;57.66;Halner;18.42;Gotland;SLU;,Pinus sylvestris,
165163;30;Sweden;Gotlands län;57.45;Petarvet;18.25;Gotland;SLU;,Pinus sylvestris,
165164;40;Sweden;Gotlands län;57.32;Bosarvet;18.25;Gotland;SLU;,Pinus sylvestris,
165166;260;Sweden;Västerbottens län;64.37;Örålandet;18.68;Lycksele;SLU;,Pinus sylvestris,
165167;120;Sweden;Västra Götalands län;58.64;Granvik;14.56;Karlsborg;SLU;,Pinus sylvestris,
165168;110;Sweden;Västra Götalands län;58.56;Ö.Kinneskog;13.68;Mariestad;SLU;,Pinus sylvestris,
165172;270;Sweden;Västerbottens län;64.68;Abborrträskliden;18.71;Lycksele;SLU;,Pinus sylvestris,
165173;410;Sweden;Dalarnas län;60.87;Venjan;13.83;Mora;SLU;,Pinus sylvestris,
165174;30;Sweden;Uppsala län;60.26;Österby;17.89;Östhammar;SLU;,Pinus sylvestris,
165175;140;Sweden;Norrbottens län;65.84;Lindviken;20.87;Älvsbyn;SLU;,Pinus sylvestris,
165176;330;Sweden;Jämtlands län;63.36;Faxnälden;14.24;Krokom;SLU;,Pinus sylvestris,
165177;215;Sweden;Jämtlands län;63.82;Fjällsjö;16.3;Strömsund;SLU;,Pinus sylvestris,
165178;180;Sweden;Norrbottens län;66.39;Vuollerim;20.53;Jokkmokk;SLU;,Pinus sylvestris,
165179;250;Sweden;Västernorrlands län;63.62;Västanbäck;17.44;Örnsköldsvik;SLU;,Pinus sylvestris,
165180;165;Sweden;Norrbottens län;66.19;Edefors;21.08;Boden;SLU;,Pinus sylvestris,
165181;250;Sweden;Västernorrlands län;63.62;Seltjärn;17.87;Örnsköldsvik;SLU;,Pinus sylvestris,
165185;270;Sweden;Västerbottens län;64.36;Sjöbrånet;19.82;Vindeln;SLU;,Pinus sylvestris,
165186;145;Sweden;Norrbottens län;65.89;Isliden;20.8;Älvsbyn;SLU;,Pinus sylvestris,
165187;300;Sweden;Norrbottens län;66.66;Ållojaure;19.93;Jokkmokk;SLU;,Pinus sylvestris,
165188;240;Sweden;Norrbottens län;67.48;Kolkonjoki;23.1;Pajala;SLU;,Pinus sylvestris,
165190;280;Sweden;Västernorrlands län;62.4;Haverö;15.14;Ånge;SLU;,Pinus sylvestris,
165191;340;Sweden;Jämtlands län;63.14;Gevåg;16.37;Ragunda;SLU;,Pinus sylvestris,
165192;180;Sweden;Värmlands län;60.13;Ekshärad;13.44;Hagfors;SLU;,Pinus sylvestris,
165194;20;Sweden;Gävleborgs län;60.79;Hille;17.21;Gävle;SLU;,Pinus sylvestris,
165195;320;Sweden;Västerbottens län;65.13;Malå;19.11;Malå;SLU;,Pinus sylvestris,
165197;80;Sweden;Örebro län;59.17;Nysund;14.4;Degerfors;SLU;,Pinus sylvestris,
165198;260;Sweden;Dalarnas län;60.01;Kloten 2;15.3;Smedjebacken;SLU;,Pinus sylvestris,
165199;210;Sweden;Jönköpings län;57.56;Hok;14.24;Jönköping;SLU;,Pinus sylvestris,
165201;80;Sweden;Örebro län;59.11;Dimbo;15.78;Örebro;SLU;,Pinus sylvestris,
165203;170;Sweden;Gävleborgs län;61.92;Sorgmon;15.7;Ljusdal;SLU;,Pinus sylvestris,
165204;200;Sweden;Gävleborgs län;61.86;Delsbo;16.33;Hudiksvall;SLU;,Pinus sylvestris,
165206;330;Sweden;Västerbottens län;64.07;Östernoret, Åsele;17.4;Åsele;SLU;,Pinus sylvestris,
165207;350;Sweden;Jämtlands län;62.75;Revsund;15.24;Bräcke;SLU;,Pinus sylvestris,
165208;140;Sweden;Skåne län;56.39;Vesslarp;14.26;Osby;SLU;,Pinus sylvestris,
165213;340;Sweden;Västernorrlands län;63.47;Ramsele;16.22;Sollefteå;SLU;,Pinus sylvestris,
165214;240;Sweden;Västerbottens län;64.51;Tannsele;18.77;Lycksele;SLU;,Pinus sylvestris,
165215;240;Sweden;Västerbottens län;64.51;Tannsele;18.77;Lycksele;SLU;,Pinus sylvestris,
165216;200;Sweden;Västernorrlands län;63.75;Björna;18.5;Örnsköldsvik;SLU;,Pinus sylvestris,
165218;130;Sweden;Norrbottens län;66.95;Jarhois;23.8;Pajala;SLU;,Pinus sylvestris,
165219;100;Sweden;Norrbottens län;66.72;Ängesån;22.64;Överkalix;SLU;,Pinus sylvestris,
165221;220;Sweden;Dalarnas län;60.63;Stångtjärn;15.56;Falun;SLU;,Pinus sylvestris,
165225;220;Sweden;Jönköpings län;57.89;Aneby;15.02;Aneby;SLU;,Pinus sylvestris,
165226;230;Sweden;Jönköpings län;57.85;Bottnaryd/Mohemmet;13.87;Jönköping;SLU;,Pinus sylvestris,
165227;160;Sweden;Kronobergs län;56.95;Lagan;14;Ljungby;SLU;,Pinus sylvestris,
165229;290;Sweden;Västerbottens län;64.4;Vänjaurbäck;18.58;Lycksele;SLU;,Pinus sylvestris,
165230;160;Sweden;Dalarnas län;60.3;Grangärde;14.96;Ludvika;SLU;,Pinus sylvestris,
165231;200;Sweden;Västra Götalands län;58.35;Grevbäck;14.3;Hjo;SLU;,Pinus sylvestris,
165233;250;Sweden;Dalarnas län;60.01;Kloten 1;15.3;Smedjebacken;SLU;,Pinus sylvestris,
165236;180;Sweden;Jönköpings län;57.34;Klevshult;14.09;Vaggeryd;SLU;,Pinus sylvestris,
165237;160;Sweden;Östergötlands län;57.8;Tidersrum;15.51;Kinda;SLU;,Pinus sylvestris,
165238;160;Sweden;Jönköpings län;57.34;Bellö;14.09;Eksjö;SLU;,Pinus sylvestris,
165244;180;Sweden;Dalarnas län;60.27;Garpenberg;16.18;Hedemora;SLU;,Pinus sylvestris,
165246;300;Sweden;Norrbottens län;65.78;Brännberg;21.21;Boden ;SLU;,Pinus sylvestris,
165248;360;Sweden;Jämtlands län;62.98;Oxböle;16.73;Ragunda;SLU;,Pinus sylvestris,
165249;200;Sweden;Västerbottens län;64.24;Svartbergets FP;19.77;Vindeln;SLU;,Pinus sylvestris,
165250;240;Sweden;Västerbottens län;64.26;Svartbergets FP;19.79;Vindeln;SLU;,Pinus sylvestris,
165251;195;Sweden;Västerbottens län;64.18;Kulbäckslidens FP;19.63;Vindeln;SLU;,Pinus sylvestris,
165252;230;Sweden;Kronobergs län;57.06;Tagel;14.39;Alvesta;SLU;,Pinus sylvestris,
165253;220;Sweden;Kronobergs län;57.06;Tagel;14.39;Alvesta;SLU;,Pinus sylvestris,
165265;160;Sweden;Värmlands län;59.78;Öjerbyn;13.07;Sunne;SLU;,Pinus sylvestris,
165266;260;Sweden;Västerbottens län;64.18;Kulbäckslidens FP;19.59;Vindeln;SLU;,Pinus sylvestris,
165269;340;Sweden;Norrbottens län;65.91;Malmesliden;19.17;Arvidsjaur;SLU;,Pinus sylvestris,
165270;270;Sweden;Dalarnas län;60.9;Siljansfors FP;14.36;Mora;SLU;,Pinus sylvestris,
165271;260;Sweden;Dalarnas län;60.89;Siljansfors FP;14.36;Mora;SLU;,Pinus sylvestris,
165273;190;Sweden;Dalarnas län;60.35;Knivsjöheden;14.93;Ludvika;SLU;,Pinus sylvestris,
165275;370;Sweden;Västernorrlands län;63.5;Grundtjärn;17.31;Örnsköldsvik;SLU;,Pinus sylvestris,
165278;240;Sweden;Västerbottens län;64.9;Vormsele;18.73;Lycksele;SLU;,Pinus sylvestris,
165280;55;Sweden;Norrbottens län;65.74;Älvsbyn;20.96;Älvsbyn;SLU;,Pinus sylvestris,
165281;65;Sweden;Norrbottens län;65.7;Radiohemmanet;20.97;Älvsbyn;SLU;,Pinus sylvestris,
165282;300;Sweden;Jämtlands län;62.71;Bensjö;15.45;Bräcke;SLU;,Pinus sylvestris,
165283;230;Sweden;Västerbottens län;64.46;Djupsund;19.41;Vindeln;SLU;,Pinus sylvestris,
165286;85;Sweden;Västmanlands län;60.06;Kroksbo;16.88;Enåker;SLU;,Pinus sylvestris,
165288;170;Sweden;Gävleborgs län;61.44;Växbo;16.5;Bollnäs;SLU;,Pinus sylvestris,
165289;360;Sweden;Västernorrlands län;63.5;Grundtjärn;17.31;Sollefteå;SLU;,Pinus sylvestris,
165290;410;Sweden;Jämtlands län;62.42;Viken;13.63;Hede;SLU;,Pinus sylvestris,
165291;30;Sweden;Norrbottens län;65.91;Töre;22.69;Kalix;SLU;,Pinus sylvestris,
165292;250;Sweden;Norrbottens län;67.44;Junosuando;22.29;Junosuando;SLU;,Pinus sylvestris,
165294;175;Sweden;Norrbottens län;65.88;Storbrännan;20.08;Arvidsjaur;SLU;,Pinus sylvestris,
165295;310;Sweden;Norrbottens län;67.14;Gällivare;20.95;Gällivare;SLU;,Pinus sylvestris,
165296;310;Sweden;Norrbottens län;67.14;Gällivare;20.92;Gällivare;SLU;,Pinus sylvestris,
165297;135;Sweden;Västmanlands län;59.9;Västanfors;15.82;Fagersta;SLU;,Pinus sylvestris,
165298;165;Sweden;Kalmar län;57.44;Stensryd;15.75;Hultsfred;SLU;,Pinus sylvestris,
165299;300;Sweden;Jämtlands län;63.3;Halåsen;14.72;Krokom;SLU;,Pinus sylvestris,
165302;155;Sweden;Kronobergs län;56.7;;14.83;Hamneda;SLU;,Pinus sylvestris,
165305;105;Sweden;Dalarnas län;60.2;Avesta;16.1;Avesta;SLU;,Pinus sylvestris,
165306;215;Sweden;Västerbottens län;64.81;Rusksele;18.85;Lycksele;SLU;,Pinus sylvestris,
165308;150;Sweden;Värmlands län;60.04;Hagfors;13.59;Hagfors;SLU;,Pinus sylvestris,
165309;205;Sweden;Örebro län;59.81;Ramsberg;15.26;Lindesberg;SLU;,Pinus sylvestris,
165310;140;Sweden;Dalarnas län;60.17;Garpenberg;16.19;Hedemora;SLU;,Pinus sylvestris,
165311;445;Sweden;Jämtlands län;62.41;Hede;13.71;Härjedalen;SLU;,Pinus sylvestris,
165312;210;Sweden;Kalmar län;56.77;Fiskesjö;15.55;Emmaboda;SLU;,Pinus sylvestris,
165313;245;Sweden;Östergötlands län;57.72;S.Bråta;15.44;Ydre;SLU;,Pinus sylvestris,
165314;30;Sweden;Västerbottens län;64.79;Skellefteå;20.78;Skellefteå;SLU;,Pinus sylvestris,
165315;55;Sweden;Stockholms län;59.69;Skederid;18.48;Norrtälje;SLU;,Pinus sylvestris,
165316;20;Sweden;Uppsala län;60.58;Västanå;17.43;Älvkarleby;SLU;,Pinus sylvestris,
165320;130;Sweden;Kalmar län;57.79;Nafstad;15.75;Södra Vi;SLU;,Pinus sylvestris,
165322;165;Sweden;Värmlands län;59.06;S.Kolviken;13.05;Säffle;SLU;,Pinus sylvestris,
165323;95;Sweden;Västmanlands län;59.86;Virsbo;16.02;Ramnäs;SLU;,Pinus sylvestris,
165325;190;Sweden;Dalarnas län;60.37;Husby;16.17;Hedemora;SLU;,Pinus sylvestris,
165326;350;Sweden;Jämtlands län;62.77;Finnäs;14.95;Bräcke;SLU;,Pinus sylvestris,
165330;125;Sweden;Värmlands län;59.97;Lakene;13.5;N.Råda;SLU;,Pinus sylvestris,
165331;10;Sweden;Västerbottens län;63.61;Hörnefors;19.88;Nordmaling;SLU;,Pinus sylvestris,
165333;225;Sweden;Västerbottens län;64.65;Lyckan;18.64;Lycksele;SLU;,Pinus sylvestris,
165335;195;Sweden;Västerbottens län;64.38;Söderby;20.61;Burträsk;SLU;,Pinus sylvestris,
165336;265;Sweden;Västerbottens län;64.13;Andersliden;20.36;Bygdeå;SLU;,Pinus sylvestris,
165337;245;Sweden;Norrbottens län;67.44;Junosuando;22.28;Junosuando;SLU;,Pinus sylvestris,
165338;155;Sweden;Jönköpings län;57.26;Nennesmo;13.54;Gislaved;SLU;,Pinus sylvestris,
165340;180;Sweden;Kalmar län;56.86;Orrefors;15.71;Nybro;SLU;,Pinus sylvestris,
165341;540;Sweden;Jämtlands län;62.19;Nybodarna;13.56;Härjedalen;SLU;,Pinus sylvestris,
165342;440;Sweden;Jämtlands län;62.14;Linsell;13.46;Linsell;SLU;,Pinus sylvestris,
165345;130;Sweden;Västra Götalands län;58.78;Älgarås;14.22;Töreboda;SLU;,Pinus sylvestris,
165346;70;Sweden;Gävleborgs län;60.52;Tierpstorp;16.93;Sandviken;SLU;,Pinus sylvestris,
165349;210;Sweden;Östergötlands län;57.72;Österås;15.31;Ydre;SLU;,Pinus sylvestris,
165350;65;Sweden;Gävleborgs län;60.17;Nässja;16.48;Sandviken;SLU;,Pinus sylvestris,
165351;235;Sweden;Västerbottens län;64.4;Skatan;19.46;Vindeln;SLU;,Pinus sylvestris,
165353;145;Sweden;Kronobergs län;56.79;Össjö;14.02;Ljungby;SLU;,Pinus sylvestris,
165357;40;Sweden;Stockholms län;59.67;Braheberg;18.18;Vallentuna;SLU;,Pinus sylvestris,
165447;140;Sweden;Kalmar län;57.78;Nässtad;15.73;Vimmerby;SLU;,Pinus sylvestris,
165448;180;Sweden;Kronobergs län;56.74;Ulvahult;15.03;Växjö;SLU;,Pinus sylvestris,
165449;140;Sweden;Kalmar län;57.78;Nafstad;15.76;Vimmerby;SLU;,Pinus sylvestris,
165450;175;Sweden;Kronobergs län;56.75;Finnsjö;15.03;Växjö;SLU;,Pinus sylvestris,
165451;305;Sweden;Västerbottens län;64.37;Haraliden;18.8;Lycksele;SLU;,Pinus sylvestris,
165452;420;Sweden;Dalarnas län;61.49;Hamra Sky;14.45;Orsa;SLU;,Pinus sylvestris,
165453;185;Sweden;Norrbottens län;66.08;Ljuså;21.4;Boden;SLU;,Pinus sylvestris,
165454;340;Sweden;Jämtlands län;63.14;Fillsta;14.54;Östersund;SLU;,Pinus sylvestris,
165455;280;Sweden;Västernorrlands län;63.84;Gultjäl;17.17;Sollefteå;SLU;,Pinus sylvestris,
165456;230;Sweden;Jämtlands län;63.82;Svartberget;16.31;Strömsund;SLU;,Pinus sylvestris,
165463;330;Sweden;Västernorrlands län;63.47;Håsjö;16.22;Sollefteå;SLU;,Pinus sylvestris,
165464;415;Sweden;Västernorrlands län;62.34;Malsjöbodar;15.38;Ånge;SLU;,Pinus sylvestris,
165465;355;Sweden;Jämtlands län;63.14;Fillsta;14.54;Östersund;SLU;,Pinus sylvestris,
165466;550;Sweden;Västerbottens län;64.14;Storsjö;17.62;Åsele;SLU;,Pinus sylvestris,
165470;375;Sweden;Västerbottens län;64.86;Bodan;19.38;Norsjö;SLU;,Pinus sylvestris,
165474;425;Sweden;Västerbottens län;64.86;Bodan;19.37;Norsjö;SLU;,Pinus sylvestris,
165475;410;Sweden;Norrbottens län;66.49;Görjeån;19.82;Jokkmokk;SLU;,Pinus sylvestris,
165476;75;Sweden;Östergötlands län;58.78;Myckelmossa;16.11;Norrköping;SLU;,Pinus sylvestris,Picea abies,
165477;80;Sweden;Östergötlands län;58.76;Rippestorpsvägen;15.97;Finspång;SLU;,Pinus sylvestris,Picea abies,
165478;480;Sweden;Jämtlands län;62.71;Brynje;14.56;Berg;SLU;,Pinus sylvestris,Picea abies,
165482;330;Sweden;Västerbottens län;64.25;Laiksjö;16.56;Dorotea;SLU;,Pinus sylvestris,
165484;220;Sweden;Norrbottens län;66.23;Kloten;20.74;Boden;SLU;,Pinus sylvestris,
165487;370;Sweden;Västernorrlands län;63.98;Övra;16.74;Sollefteå;SLU;,Pinus sylvestris,
165492;220;Sweden;Jönköpings län;57.47;Sandsjö;14.77;Nässjö;SLU;,Pinus sylvestris,
165493;10;Sweden;Skåne län;55.98;Vanneberga;14.36;Kristianstad;SLU;,Pinus sylvestris,
165494;355;Sweden;Jämtlands län;63.14;Fillsta;14.54;Östersund;SLU;,Pinus sylvestris,
165497;20;Sweden;Västernorrlands län;62.52;Norrberge;17.41;Timrå;SLU;,Pinus sylvestris,
165499;250;Sweden;Norrbottens län;66.67;Storlandet;21.83;Gällivare;SLU;,Pinus sylvestris,
165500;100;Sweden;Västra Götalands län;58.95;Delebäck;14.18;Gullspång;SLU;,Pinus sylvestris,
165501;350;Sweden;Jämtlands län;63.72;Kakuåsen;15.07;Strömsund;SLU;,Pinus sylvestris,
165502;230;Sweden;Kalmar län;56.8;Högaskog;15.52;Emmaboda;SLU;,Pinus sylvestris,
165503;325;Sweden;Västerbottens län;64.24;Älgsjösågen;17.55;Åsele;SLU;,Pinus sylvestris,
165506;480;Sweden;Jämtlands län;63.05;Fugelstad;15.77;Bräcke;SLU;,Pinus sylvestris,
165508;400;Sweden;Västernorrlands län;63.9;Stuguvattnet;16.62;Sollefteå;SLU;,Pinus sylvestris,
165509;200;Sweden;Västerbottens län;64.18;Kulbäckslidens FP;19.61;Vindeln;SLU;,Pinus sylvestris,
165513;380;Sweden;Västerbottens län;65.3;Malå;18.75;Malå;SLU;,Pinus sylvestris,
165514;100;Sweden;Östergötlands län;58.36;Solberga;15.19;Mjölby;SLU;,Pinus sylvestris,
165534;80;Sweden;Hallands län;56.8;Susegården;12.81;Halmstad;SLU;,Abies alba,Abies grandis,Larix decidua,Larix kaempferi,Picea abies,Picea omorika,Picea sitchensis,Pinus contorta,Pinus sylvestris,
165537;80;Sweden;Gävleborgs län;60.5;Främlingshem;16.91;Sandviken;SLU;,Picea abies,Pinus sylvestris,
165538;510;Sweden;Norrbottens län;65.98;Lilla Laxsjön;18.36;Arjeplog;SLU;,Picea abies,Pinus sylvestris,
165539;260;Sweden;Dalarnas län;60.88;Siljansfors FP;14.39;Mora;SLU;,Pinus sylvestris,
165540;325;Sweden;Dalarnas län;60.88;Siljansfors FP;14.36;Mora;SLU;,Pinus sylvestris,
165541;250;Sweden;Dalarnas län;60.9;Siljansfors FP;14.36;Mora;SLU;,Pinus sylvestris,
165542;240;Sweden;Dalarnas län;60.9;Siljansfors FP;14.35;Mora;SLU;,Pinus sylvestris,
165543;240;Sweden;Dalarnas län;60.88;Siljansfors FP;14.37;Mora;SLU;,Pinus sylvestris,
165544;260;Sweden;Dalarnas län;60.88;Siljansfors FP;14.34;Mora;SLU;,Pinus sylvestris,
165545;280;Sweden;Dalarnas län;60.88;Siljansfors FP;14.33;Mora;SLU;,Pinus sylvestris,
165546;330;Sweden;Dalarnas län;60.89;Siljansfors FP;14.35;Mora;SLU;,Pinus sylvestris,
165547;320;Sweden;Dalarnas län;60.89;Siljansfors FP;14.35;Mora;SLU;,Pinus sylvestris,
165548;320;Sweden;Dalarnas län;60.89;Siljansfors FP;14.34;Mora;SLU;,Pinus sylvestris,
165550;240;Sweden;Dalarnas län;60.9;Siljansfors FP;14.33;Mora;SLU;,Pinus sylvestris,
165551;260;Sweden;Dalarnas län;60.88;Siljansfors FP;14.34;Mora;SLU;,Pinus sylvestris,
165552;280;Sweden;Dalarnas län;60.89;Siljansfors FP;14.33;Mora;SLU;,Pinus sylvestris,
165554;310;Sweden;Dalarnas län;60.88;Siljansfors FP;14.34;Mora;SLU;,Pinus sylvestris,
165555;300;Sweden;Dalarnas län;60.88;Siljansfors FP;14.34;Mora;SLU;,Pinus sylvestris,
165557;220;Sweden;Dalarnas län;60.9;Siljansfors FP;14.38;Mora;SLU;,Pinus sylvestris,
165558;220;Sweden;Dalarnas län;60.9;Siljansfors FP;14.33;Mora;SLU;,Pinus sylvestris,
165559;260;Sweden;Dalarnas län;60.87;Siljansfors FP;14.37;Mora;SLU;,Pinus sylvestris,
165562;260;Sweden;Dalarnas län;60.87;Siljansfors FP;14.38;Mora;SLU;,Pinus sylvestris,
165563;230;Sweden;Dalarnas län;60.9;Siljansfors FP;14.32;Mora;SLU;,Pinus sylvestris,
165564;280;Sweden;Dalarnas län;60.88;Siljansfors FP;14.35;Mora;SLU;,Pinus sylvestris,
165565;290;Sweden;Dalarnas län;60.88;Siljansfors FP;14.35;Mora;SLU;,Pinus sylvestris,
165566;300;Sweden;Dalarnas län;60.88;Siljansfors FP;14.35;Mora;SLU;,Pinus sylvestris,
165567;250;Sweden;Dalarnas län;60.9;Siljansfors FP;14.04;Mora;SLU;,Pinus sylvestris,
165568;235;Sweden;Dalarnas län;60.9;Siljansfors FP;14.36;Mora;SLU;,Pinus sylvestris,
165569;250;Sweden;Dalarnas län;60.87;Siljansfors FP;14.35;Mora;SLU;,Pinus sylvestris,
165571;270;Sweden;Dalarnas län;60.87;Siljansfors FP;14.38;Mora;SLU;,Pinus sylvestris,
165572;240;Sweden;Dalarnas län;60.9;Siljansfors FP;14.36;Mora;SLU;,Pinus sylvestris,
165575;250;Sweden;Dalarnas län;60.88;Siljansfors FP;14.38;Mora;SLU;,Pinus sylvestris,
165576;250;Sweden;Dalarnas län;60.88;Siljansfors FP;14.38;Mora;SLU;,Pinus sylvestris,
165577;250;Sweden;Dalarnas län;60.88;Siljansfors FP;14.38;Mora;SLU;,Pinus sylvestris,
165578;250;Sweden;Dalarnas län;60.88;Siljansfors FP;14.38;Mora;SLU;,Pinus sylvestris,
165580;260;Sweden;Dalarnas län;60.88;Siljansfors FP;14.39;Mora;SLU;,Pinus sylvestris,
165581;260;Sweden;Dalarnas län;60.88;Siljansfors FP;14.39;Mora;SLU;,Pinus sylvestris,
165588;270;Sweden;Dalarnas län;60.91;Siljansfors FP;14.36;Mora;SLU;,Pinus sylvestris,
165589;280;Sweden;Dalarnas län;60.87;Siljansfors FP;14.37;Mora;SLU;,Pinus sylvestris,
165590;240;Sweden;Dalarnas län;60.9;Siljansfors FP;14.35;Mora;SLU;,Pinus sylvestris,
165591;280;Sweden;Dalarnas län;60.89;Siljansfors FP;14.36;Mora;SLU;,Pinus sylvestris,
165593;240;Sweden;Dalarnas län;60.9;Siljansfors FP;14.33;Mora;SLU;,Pinus sylvestris,
165594;220;Sweden;Dalarnas län;60.89;Siljansfors FP;14.39;Mora;SLU;,Pinus sylvestris,
165595;240;Sweden;Dalarnas län;60.88;Siljansfors FP;14.39;Mora;SLU;,Pinus sylvestris,
165596;280;Sweden;Dalarnas län;60.89;Siljansfors FP;14.35;Mora;SLU;,Pinus sylvestris,
165597;220;Sweden;Dalarnas län;60.89;Siljansfors FP;14.39;Mora;SLU;,Pinus sylvestris,
165598;220;Sweden;Dalarnas län;60.89;Siljansfors FP;14.39;Mora;SLU;,Pinus sylvestris,
165599;290;Sweden;Dalarnas län;60.89;Siljansfors FP;14.34;Mora;SLU;,Pinus sylvestris,
165601;305;Sweden;Dalarnas län;60.91;Siljansfors FP;14.38;Mora;SLU;,Pinus sylvestris,
165604;350;Sweden;Dalarnas län;60.91;Siljansfors FP;14.38;Mora;SLU;,Pinus sylvestris,
165605;270;Sweden;Dalarnas län;60.89;Siljansfors FP;14.42;Mora;SLU;,Pinus sylvestris,
165606;240;Sweden;Dalarnas län;60.88;Siljansfors FP;14.38;Mora;SLU;,Pinus sylvestris,Picea abies,Betula pubescens,
165607;225;Sweden;Dalarnas län;60.9;Siljansfors FP;14.37;Mora;SLU;,Pinus sylvestris,
165608;260;Sweden;Dalarnas län;60.88;Siljansfors FP;14.36;Mora;SLU;,Pinus sylvestris,
165609;270;Sweden;Dalarnas län;60.91;Siljansfors FP;14.36;Mora;SLU;,Pinus sylvestris,
165610;240;Sweden;Dalarnas län;60.9;Siljansfors FP;14.37;Mora;SLU;,Pinus sylvestris,
165611;270;Sweden;Dalarnas län;60.89;Siljansfors FP;14.37;Mora;SLU;,Pinus sylvestris,
165612;280;Sweden;Dalarnas län;60.87;Siljansfors FP;14.38;Mora;SLU;,Pinus sylvestris,
165613;250;Sweden;Dalarnas län;60.89;Siljansfors FP;14.41;Mora;SLU;,Pinus sylvestris,
165614;280;Sweden;Dalarnas län;60.89;Siljansfors FP;14.34;Mora;SLU;,Pinus sylvestris,
165615;250;Sweden;Dalarnas län;60.88;Siljansfors FP;14.39;Mora;SLU;,Pinus sylvestris,
165616;260;Sweden;Dalarnas län;60.88;Siljansfors FP;14.4;Mora;SLU;,Pinus sylvestris,
165617;240;Sweden;Dalarnas län;60.9;Siljansfors FP;14.37;Mora;SLU;,Pinus sylvestris,
165619;230;Sweden;Dalarnas län;60.9;Siljansfors FP;14.34;Mora;SLU;,Pinus sylvestris,
165620;220;Sweden;Dalarnas län;60.9;Siljansfors FP;14.4;Mora;SLU;,Pinus sylvestris,
165621;230;Sweden;Dalarnas län;60.9;Siljansfors FP;14.36;Mora;SLU;,Pinus sylvestris,
165623;225;Sweden;Dalarnas län;60.89;Siljansfors FP;14.39;Mora;SLU;,Pinus sylvestris,
165624;235;Sweden;Dalarnas län;60.9;Siljansfors FP;14.36;Mora;SLU;,Pinus sylvestris,
165625;250;Sweden;Dalarnas län;60.9;Siljansfors FP;14.37;Mora;SLU;,Pinus sylvestris,
165626;225;Sweden;Dalarnas län;60.9;Siljansfors FP;14.36;Mora;SLU;,Pinus sylvestris,
165627;225;Sweden;Dalarnas län;60.89;Siljansfors FP;14.37;Mora;SLU;,Pinus sylvestris,
165629;255;Sweden;Dalarnas län;60.88;Siljansfors FP;14.39;Mora;SLU;,Pinus sylvestris,
165632;220;Sweden;Dalarnas län;60.9;Siljansfors FP;14.39;Mora;SLU;,Pinus sylvestris,
165645;250;Sweden;Dalarnas län;60.88;Siljansfors FP;14.4;Mora;SLU;,Pinus sylvestris,
165648;260;Sweden;Dalarnas län;60.87;Siljansfors FP;14.38;Mora;SLU;,Betula,Picea abies,Pinus sylvestris,
165653;410;Sweden;Dalarnas län;60.91;Siljansfors FP;14.39;Mora;SLU;,Picea abies,Pinus sylvestris,
165657;250;Sweden;Dalarnas län;60.9;Siljansfors FP;14.35;Mora;SLU;,Betula pendula,Picea abies,Pinus sylvestris,
165658;360;Sweden;Dalarnas län;60.91;Siljansfors FP;14.38;Mora;SLU;,Betula pendula,Betula pubescens,Larix decidua,Larix sukaczewii,Picea abies,Pinus sylvestris,
165661;215;Sweden;Dalarnas län;60.9;Siljansfors FP;14.37;Mora;SLU;,Pinus sylvestris,
165662;220;Sweden;Dalarnas län;60.9;Siljansfors FP;14.38;Mora;SLU;,Pinus sylvestris,
165670;70;Sweden;Hallands län;56.68;Tönnersjöhedens FP;13.08;Halmstad;SLU;,Pinus sylvestris,
165671;90;Sweden;Hallands län;56.7;Tönnersjöhedens FP;13.12;Halmstad;SLU;,Pinus sylvestris,
165672;100;Sweden;Hallands län;56.7;Tönnersjöhedens FP;13.13;Halmstad;SLU;,Pinus sylvestris,Betula,
165674;60;Sweden;Hallands län;56.68;Tönnersjöhedens FP;13.07;Halmstad;SLU;,Pinus sylvestris,
165677;80;Sweden;Hallands län;56.69;Tönnersjöhedens FP;13.1;Halmstad;SLU;,Pinus sylvestris,
165692;65;Sweden;Hallands län;56.68;Tönnersjöhedens FP;13.08;Halmstad;SLU;,Pinus sylvestris,
165693;70;Sweden;Hallands län;56.69;Tönnersjöhedens FP;13.07;Halmstad;SLU;,Pinus sylvestris,
165696;75;Sweden;Hallands län;56.69;Tönnersjöhedens FP;13.11;Halmstad;SLU;,Pinus sylvestris,
165744;65;Sweden;Hallands län;56.68;Tönnersjöhedens FP;13.07;Halmstad;SLU;,Pinus sylvestris,
165745;60;Sweden;Hallands län;56.68;Tönnersjöhedens FP;13.07;Halmstad;SLU;,Pinus sylvestris,
165747;70;Sweden;Hallands län;56.69;Tönnersjöhedens FP;13.09;Halmstad;SLU;,Pinus sylvestris,
165754;90;Sweden;Hallands län;56.69;Tönnersjöhedens FP;13.11;Halmstad;SLU;,Abies alba,Abies grandis,Betula,Larix,Picea abies,Picea sitchensis,Pinus contorta,Pinus sylvestris,Pseudotsuga menziesii,
165758;60;Sweden;Hallands län;56.69;Tönnersjöhedens FP;13.08;Halmstad;SLU;,Pinus sylvestris,
165781;90;Sweden;Hallands län;56.69;Tönnersjöhedens FP;13.11;Halmstad;SLU;,Pinus sylvestris,Picea abies,
165788;75;Sweden;Hallands län;56.69;Tönnersjöhedens FP;13.11;Halmstad;SLU;,Pinus sylvestris,
165789;270;Sweden;Västerbottens län;64.58;Bocken;18.75;Lycksele;SLU;,Pinus sylvestris,
165790;120;Sweden;Norrbottens län;65.77;Alträsk;21.33;Boden;SLU;,Pinus sylvestris,
165791;40;Sweden;Uppsala län;60.04;Ramningshult;17.92;Uppsala;SLU;,Pinus sylvestris,
165792;270;Sweden;Jämtlands län;63.36;Horkaskogen;14.86;Östersund;SLU;,Pinus sylvestris,
165793;175;Sweden;Västerbottens län;64.23;Svartbergets FP;19.79;Vindeln;SLU;,Pinus sylvestris,
165794;165;Sweden;Jönköpings län;57.64;Hässelby;15.55;Eksjö;SLU;,Pinus sylvestris,
165795;280;Sweden;Gävleborgs län;60.75;Ovansjö;16.38;Sandviken;SLU;,Pinus sylvestris,
165796;575;Sweden;Dalarnas län;61.43;Bunkris;13.47;Älvdalen;SLU;,Pinus sylvestris,
165797;340;Sweden;Jämtlands län;62.97;Oxböle;16.73;Ragunda;SLU;,Pinus sylvestris,
165798;310;Sweden;Jämtlands län;63.21;Västbyn;14.47;Östersund;SLU;,Pinus sylvestris,
165806;125;Sweden;Västra Götalands län;58.45;Närsäter;13.6;Skara;SLU;,Pinus sylvestris,
165807;125;Sweden;Västra Götalands län;58.47;Närsäter;13.62;Skara;SLU;,Pinus sylvestris,
165808;125;Sweden;Västra Götalands län;58.47;Närsäter;13.62;Skara;SLU;,Pinus sylvestris,
165809;125;Sweden;Västra Götalands län;58.47;Närsäter;13.62;Skara;SLU;,Pinus sylvestris,
165810;125;Sweden;Västra Götalands län;58.47;Närsäter;13.62;Skara;SLU;,Pinus sylvestris,
165811;280;Sweden;Dalarnas län;60.64;L.Götjärn;14.39;Vansbro;SLU;,Pinus sylvestris,
165813;155;Sweden;Östergötlands län;58.12;Gustafssjö;15.22;Boxholm;SLU;,Pinus sylvestris,
165814;195;Sweden;Jönköpings län;57.42;Upplanda;15.14;Vetlanda;SLU;,Pinus sylvestris,
165815;125;Sweden;Västra Götalands län;58.47;Närsäter;13.62;Skara;SLU;,Pinus sylvestris,
165816;370;Sweden;Dalarnas län;61.08;Högståsen;14.98;Orsa;SLU;,Pinus sylvestris,
165817;460;Sweden;Jämtlands län;63.12;Torresjöland;16.68;Ragunda;SLU;,Pinus sylvestris,
165818;10;Sweden;Kalmar län;57.28;Rosendal;17.02;Borgholm;SLU;,Pinus sylvestris,
165819;15;Sweden;Stockholms län;59.23;Bornsjön;17.77;Salem;SLU;,Pinus sylvestris,
165820;130;Sweden;Östergötlands län;58.8;Jakobshytta;15.16;Finspång;SLU;,Pinus sylvestris,
165821;335;Sweden;Dalarnas län;60.89;Garsjöbäcken;14.23;Mora;SLU;,Pinus sylvestris,
165822;55;Sweden;Skåne län;55.61;Gyllebo;14.25;Simrishamn;SLU;,Pinus sylvestris,
165823;10;Sweden;Kalmar län;57.32;Grankulla;17.12;Borgholm;SLU;,Pinus sylvestris,
165824;125;Sweden;Hallands län;56.94;Kobbebor;13.19;Hylte ;SLU;,Pinus sylvestris,
165825;15;Sweden;Hallands län;56.87;Boberg;12.58;Falkenberg;SLU;,Pinus sylvestris,
165826;225;Sweden;Jönköpings län;57.59;Eckersholm;14.22;Jönköping;SLU;,Pinus sylvestris,
165827;50;Sweden;Södermanlands län;58.97;Stora Malm;16.39;Katrineholm;SLU;,Pinus sylvestris,
165828;130;Sweden;Västra Götalands län;58.45;Munkedal;11.76;Munkedal;SLU;,Pinus sylvestris,
165829;25;Sweden;Stockholms län;59.41;Bogesund;18.19;Vaxholm;SLU;,Pinus sylvestris,
165830;325;Sweden;Dalarnas län;60.07;Gravendal;14.54;Ludvika;SLU;,Pinus sylvestris,
165831;20;Sweden;Uppsala län;60.54;Marmaskj.fä;17.47;Älvkarleby;SLU;,Pinus sylvestris,
165832;365;Sweden;Dalarnas län;61.08;Högståsen;14.97;Orsa;SLU;,Pinus sylvestris,
165833;595;Sweden;Dalarnas län;61.43;Bunkris;13.48;Älvdalen;SLU;,Pinus sylvestris,
165834;15;Sweden;Västernorrlands län;62.2;Brämön;17.69;Sundsvall;SLU;,Pinus sylvestris,
165835;525;Sweden;Jämtlands län;63.18;Vallbogården;13.1;Åre;SLU;,Pinus sylvestris,
165836;460;Sweden;Jämtlands län;63.12;Torresjölandet;16.67;Ragunda;SLU;,Pinus sylvestris,
165837;200;Sweden;Västerbottens län;64.24;Svartbergets FP;19.79;Vindeln;SLU;,Pinus sylvestris,
165838;40;Sweden;Västerbottens län;64.16;Johanneslund;20.87;Robertsfors;SLU;,Pinus sylvestris,
165839;350;Sweden;Jämtlands län;64.31;Harrsjön;15.33;Strömsund;SLU;,Pinus sylvestris,
165840;455;Sweden;Västerbottens län;64.56;Storberget;18.25;Lycksele;SLU;,Pinus sylvestris,
165841;470;Sweden;Västerbottens län;65.16;Långsjöby;16.57;Storuman;SLU;,Pinus sylvestris,
165842;60;Sweden;Norrbottens län;65.64;Asplövberg;21.12;Älvsbyn;SLU;,Pinus sylvestris,
165843;435;Sweden;Norrbottens län;66.28;Rahaberget;19.9;Jokkmokk;SLU;,Pinus sylvestris,
165844;200;Sweden;Norrbottens län;66.94;Ohtanajärvi;23.19;Pajala;SLU;,Pinus sylvestris,
165845;470;Sweden;Norrbottens län;67.25;Linalombolo;20.47;Gällivare;SLU;,Pinus sylvestris,
165846;390;Sweden;Norrbottens län;67.85;Kauppinen;20.45;Kiruna;SLU;,Pinus sylvestris,
165847;55;Sweden;Gotlands län;57.65;Skogsholm;18.37;Gotland;SLU;,Pinus sylvestris,
165848;475;Sweden;Norrbottens län;67.25;Linalombolo;20.48;Gällivare;SLU;,Pinus sylvestris,
165850;125;Sweden;Västra Götalands län;58.47;Närsäter;13.62;Skara;SLU;,Pinus sylvestris,
165851;125;Sweden;Västra Götalands län;58.47;Remningstor;13.62;Skara;SLU;,Pinus sylvestris,
165852;125;Sweden;Västra Götalands län;58.47;Remningstorp;13.62;Skara;SLU;,Pinus sylvestris,
165854;80;Sweden;Värmlands län;60.04;Rävtallheden;13.58;Hagfors;SLU;,Pinus sylvestris,
165855;100;Sweden;Östergötlands län;58.35;Sya;15.19;Mjölby;SLU;,Pinus sylvestris,
165856;185;Sweden;Jönköpings län;57.45;Skillingaryd;14.1;Vaggeryd;SLU;,Pinus sylvestris,
165857;45;Sweden;Stockholms län;59.23;Bornsjön;17.78;Botkyrka;SLU;,Pinus sylvestris,
165858;260;Sweden;Dalarnas län;61.03;Ickberg;14.91;Mora;SLU;,Pinus sylvestris,
165859;210;Sweden;Dalarnas län;60.21;Finngården;15.74;Hedemora;SLU;,Pinus sylvestris,
165860;260;Sweden;Dalarnas län;61.03;Ickberg;14.91;Mora;SLU;,Pinus sylvestris,
165861;275;Sweden;Dalarnas län;60.99;Tammeråsen;14.9;Rättvik;SLU;,Pinus sylvestris,
165867;454;Sweden;Jämtlands län;63.06;Lövåsen;14.69;Östersund;SLU;,Pinus contorta,Pinus sylvestris,
165870;125;Sweden;Västra Götalands län;58.47;Remningstorp;13.59;Skara;SLU;,Pinus contorta,Pinus sylvestris,
165872;240;Sweden;Dalarnas län;60.88;Siljansfors FP;14.39;Mora;SLU;,Pinus contorta,Pinus sylvestris,
165875;20;Sweden;Stockholms län;59.42;Bogesund;18.18;Vaxholm;SLU;,Pinus sylvestris,
165876;10;Sweden;Stockholms län;59.41;Bogesund;18.2;Vaxholm;SLU;,Pinus sylvestris,
165881;135;Sweden;Kalmar län;57.73;Norra Kvill;15.59;Vimmerby;SLU;,Pinus sylvestris,
165897;70;Sweden;Västra Götalands län;57.94;Östad;12.39;Alingsås;SLU;,Pinus sylvestris,
165898;85;Sweden;Västra Götalands län;57.95;Anneberg;12.37;Alingsås;SLU;,Pinus sylvestris,
165899;70;Sweden;Västra Götalands län;57.95;Enern;12.39;Alingsås;SLU;,Pinus sylvestris,
165900;120;Sweden;Västra Götalands län;58.47;Kullsjö;13.57;Skara;SLU;,Pinus sylvestris,
165910;100;Sweden;Örebro län;59.09;Skagershult;14.57;Laxå;SLU;,Pinus sylvestris,
165911;90;Sweden;Örebro län;59.09;Skagershult;14.58;Laxå;SLU;,Pinus sylvestris,
165912;80;Sweden;Örebro län;59.04;Skagershult;14.64;Laxå;SLU;,Pinus sylvestris,
165913;310;Sweden;Norrbottens län;67.13;Kavaheden;20.8;Gällivare;SLU;,Pinus sylvestris,
165914;320;Sweden;Jämtlands län;63.37;Faxnälden;14.25;Krokom;SLU;,Pinus sylvestris,
165915;330;Sweden;Jämtlands län;63.05;Hackåsen;14.37;Oviken;SLU;,Pinus sylvestris,
165916;330;Sweden;Jämtlands län;63.14;Fillsta;14.55;Östersund;SLU;,Pinus sylvestris,
165917;110;Sweden;Västerbottens län;64.62;Brännvattslid;20.78;Skellefteå;SLU;,Pinus sylvestris,
165919;450;Sweden;Västernorrlands län;63.92;Brattforsmon;17.11;Sollefteå;SLU;,Pinus sylvestris,
165920;335;Sweden;Västerbottens län;64.25;Ullsjöberg;16.56;Dorotea;SLU;,Pinus sylvestris,
165921;230;Sweden;Jämtlands län;63.83;Svartberget;16.3;Strömsund;SLU;,Pinus sylvestris,
165922;240;Sweden;Västernorrlands län;62.58;Sodalen;16.82;Sundsvall;SLU;,Pinus sylvestris,
165923;310;Sweden;Västernorrlands län;63.27;Lilltannsjö;17.75;Örnsköldsvik;SLU;,Pinus sylvestris,
165924;305;Sweden;Västernorrlands län;63.27;Lilltannsjö;17.75;Örnsköldsvik;SLU;,Pinus sylvestris,
165925;185;Sweden;Dalarnas län;60.28;Fransbo;16.22;Hedemora;SLU;,Pinus sylvestris,Picea abies,
165926;180;Sweden;Dalarnas län;60.28;Fransbo;16.22;Hedemora;SLU;,Pinus sylvestris,Picea abies,
165928;185;Sweden;Dalarnas län;60.58;Hornsjön;16.15;Hedemora;SLU;,Pinus sylvestris,
165929;185;Sweden;Dalarnas län;60.58;Hornsjön;16.15;Hedemora;SLU;,Pinus sylvestris,
165932;140;Sweden;Dalarnas län;60.49;Grabbo;16.26;Hedemora;SLU;,Pinus sylvestris,
165933;200;Sweden;Dalarnas län;60.28;Fransbo;16.23;Hedemora;SLU;,Pinus sylvestris,Pinus contorta,
165934;200;Sweden;Dalarnas län;60.28;Fransbo;16.23;Hedemora;SLU;,Pinus sylvestris,
165935;397;Sweden;Jämtlands län;62.25;Vemborren;14.13;Härjedalen;SLU;,Pinus sylvestris,Pinus contorta,
165939;210;Sweden;Dalarnas län;60.28;Flygfältet;16.24;Hedemora;SLU;,Pinus sylvestris,Betula,
165946;70;Sweden;Västra Götalands län;57.95;Östad;12.38;Alingsås;SLU;,Pinus sylvestris,Picea abies,Betula,
165953;260;Sweden;Västerbottens län;64.39;Norrliden;19.77;Vindeln;SLU;,Pinus sylvestris,
165954;260;Sweden;Västerbottens län;64.39;Norrliden;19.77;Vindeln;SLU;,Pinus sylvestris,
165955;260;Sweden;Västerbottens län;64.39;Norrliden;19.77;Vindeln;SLU;,Pinus sylvestris,
165956;260;Sweden;Västerbottens län;64.39;Norrliden;19.77;Vindeln;SLU;,Pinus sylvestris,
165957;250;Sweden;Västerbottens län;64.25;Svartberget;19.78;Vindeln;SLU;,Pinus sylvestris,
165958;95;Sweden;Västerbottens län;64.19;Hällmyren;20.77;Robertsfors;SLU;,Pinus sylvestris,Picea abies,Betula pubescens,
165959;;Sweden;Jönköpings län;57.68;Granarps mosse;14.13;Jönköping;SLU;,Pinus sylvestris,
165960;37;Sweden;Uppsala län;60.18;Oxmossen;17.44;Uppsala;SLU;,Pinus sylvestris,Picea abies,
165961;37;Sweden;Uppsala län;60.18;Oxmossen;17.44;Uppsala;SLU;,Pinus sylvestris,Picea abies,
165962;325;Sweden;Västernorrlands län;62.45;Stormyran;16.84;Sundsvall;SLU;,Pinus sylvestris,Pinus contorta,Betula pendula,
165963;100;Sweden;Västmanlands län;59.88;Myckelmossen;16.25;Sala;SLU;,Pinus sylvestris,Pinus contorta,
165964;320;Sweden;Västerbottens län;64.87;Totjärnmyran;19.38;Norsjö;SLU;,Pinus sylvestris,Pinus contorta,
165965;180;Sweden;Norrbottens län;66.96;Suolavuoma;23.47;Pajala;SLU;,Pinus sylvestris,Pinus contorta,Betula pendula,
165966;165;Sweden;Hallands län;56.72;Hillesjömosse;13.32;Halmstad;SLU;,Pinus sylvestris,Picea abies,Pinus contorta,Betula pendula,
165967;;Sweden;Hallands län;56.6;Egernahult;13.38;Laholm;SLU;,Pinus sylvestris,Picea abies,Larix,
165968;65;Sweden;Värmlands län;60.28;Flakmossen;13.25;Karlstad;SLU;,Pinus sylvestris,
165970;;Sweden;Gävleborgs län;61.77;Näsmyran;15.67;Ljusdal;SLU;,Pinus sylvestris,Picea abies,Pinus contorta,Picea mariana,Larix,
165971;;Sweden;Gävleborgs län;61.91;Skråttmyran;15.75;Ljusdal;SLU;,Pinus sylvestris,Picea abies,Pinus contorta,Picea mariana,Larix,
165976;220;Sweden;Kronobergs län;57.02;Vretsvägen;14.37;Alvesta;SLU;,Pinus sylvestris,
165979;220;Sweden;Kronobergs län;57.03;Norregölsmossen;14.38;Alvesta;SLU;,Pinus sylvestris,
165984;220;Sweden;Kronobergs län;57.01;Lunden;14.38;Alvesta;SLU;,Pinus sylvestris,
165989;220;Sweden;Kronobergs län;57.02;Kullarna;14.38;Alvesta;SLU;,Pinus sylvestris,Picea abies,
165991;220;Sweden;Kronobergs län;57.04;Simonsäng;14.4;Alvesta;SLU;,Pinus sylvestris,Picea abies,Pinus contorta,Betula,
165995;220;Sweden;Kronobergs län;57.01;Fridungen;14.38;Alvesta;SLU;,Picea abies,Pinus sylvestris,
165996;220;Sweden;Kronobergs län;57.02;Kvarntorpet;14.39;Alvesta;SLU;,Pinus sylvestris,
166006;220;Sweden;Kronobergs län;57.01;Fridungen;14.38;Alvesta;SLU;,Pinus sylvestris,
166010;220;Sweden;Kronobergs län;57.05;Mon;14.39;Alvesta;SLU;,Pinus sylvestris,Picea abies,
166011;250;Sweden;Dalarnas län;60.89;Siljansfors FP;14.41;Mora;SLU;,Pinus sylvestris,
166013;125;Sweden;Värmlands län;59.04;Skogskärr;14.43;Degerfors;SLU;,Pinus sylvestris,Picea abies,
166014;370;Sweden;Norrbottens län;66.92;Akkajärvi;20.99;Gällivare;SLU;,Pinus sylvestris,Picea abies,
166016;180;Sweden;Norrbottens län;66.6;Bönträsk;21.97;Gällivare;SLU;,Pinus sylvestris,
166017;290;Sweden;Västerbottens län;64.65;Ö.Kråkträsk;18.82;Lycksele;SLU;,Pinus sylvestris,
166018;260;Sweden;Västerbottens län;64.19;Kulbäckslidens FP;19.59;Vindeln;SLU;,Pinus sylvestris,
166019;240;Sweden;Gävleborgs län;62;Rappavägen;15.8;Ljusdal;SLU;,Pinus sylvestris,Picea abies,
166020;140;Sweden;Kalmar län;57.76;Ydrehammar;15.56;Vimmerby;SLU;,Pinus sylvestris,
166021;180;Sweden;Dalarnas län;60.19;Dräcken;15.95;Hedemora;SLU;,Pinus sylvestris,
166025;15;Sweden;Norrbottens län;65.41;Kopparnäs;21.46;Piteå;SLU;,Pinus sylvestris,
166026;410;Sweden;Jämtlands län;62.73;Kvisslevägen;15.73;Bräcke;SLU;,Pinus sylvestris,
166027;270;Sweden;Dalarnas län;60.36;Lövsjön;14.78;Ludvika;SLU;,Pinus sylvestris,
166028;50;Sweden;Uppsala län;60.34;Ormdalen;17.46;Tierp;SLU;,Pinus sylvestris,
166031;215;Sweden;Dalarnas län;60.28;Garpenberg;16.25;Hedemora;SLU;,Pinus sylvestris,
166033;230;Sweden;Dalarnas län;60.2;Vännebo;14.75;Ludvika;SLU;,Pinus sylvestris,
166034;75;Sweden;Norrbottens län;65.41;Yttersta;20.99;Piteå;SLU;,Pinus sylvestris,
166035;250;Sweden;Västerbottens län;64.07;Gammliden;19.36;Bjurholm;SLU;,Pinus sylvestris,Pinus contorta,
166036;340;Sweden;Västernorrlands län;62.46;Göransåsen;15.64;Ånge;SLU;,Pinus sylvestris,Pinus contorta,
166037;300;Sweden;Gävleborgs län;61.84;Klampenborg;15.42;Ljusdal;SLU;,Pinus sylvestris,Pinus contorta,
166038;320;Sweden;Västerbottens län;64.3;Korsseleber.;16.35;Dorotea;SLU;,Pinus sylvestris,Pinus contorta,
166039;400;Sweden;Dalarnas län;60.86;Kvarnstensb;14.38;Mora;SLU;,Pinus sylvestris,Pinus contorta,
166040;160;Sweden;Hallands län;56.84;Grävlingsön;13.33;Hylte;SLU;,Pinus sylvestris,
166049;10;Sweden;Kalmar län;57.11;Träsken;16.51;Mönsterås;SLU;,Betula,Populus,Quercus,Fraxinus,Larix,Pseudotsuga menziesii,Picea abies,Pinus sylvestris,
166050;200;Sweden;Gävleborgs län;61.14;Håkanbo;16.61;Bollnäs;SLU;,Pinus sylvestris,
166051;130;Sweden;Västra Götalands län;58.47;Kullsjö;13.61;Skara;SLU;,Pinus sylvestris,
166052;225;Sweden;Västerbottens län;64.25;Renberget;19.8;Vindeln;SLU;,Pinus sylvestris,
166053;210;Sweden;Gävleborgs län;60.88;Tallås;16.38;Ockelbo;SLU;,Pinus sylvestris,
166054;180;Sweden;Dalarnas län;59.96;Kopparbo;15.47;Smedjebac.;SLU;,Pinus sylvestris,
166055;170;Sweden;Dalarnas län;59.98;Källan;15.41;Smedjebac.;SLU;,Pinus sylvestris,
166056;180;Sweden;Dalarnas län;59.92;Malingsboås.;15.46;Smedjebac.;SLU;,Pinus sylvestris,
166057;190;Sweden;Dalarnas län;59.91;Polacktorpsv.;15.42;Smedjebac.;SLU;,Pinus sylvestris,
166058;270;Sweden;Dalarnas län;59.88;Sågarkojan;15.38;Smedjebac.;SLU;,Pinus sylvestris,
166059;135;Sweden;Östergötlands län;58.17;Talltorpet;16.02;Åtvidaberg;SLU;,Pinus sylvestris,Picea abies,
166063;50;Sweden;Södermanlands län;58.95;Ekenäs;16.56;Flen;SLU;,Pinus sylvestris,
166065;40;Sweden;Södermanlands län;58.95;Ekenäs;16.59;Flen;SLU;,Pinus sylvestris,
166075;460;Sweden;Jämtlands län;62.56;Klövsjö;14.16;Berg;SLU;,Pinus sylvestris,
166076;;Sweden;Kronobergs län;0;Kosta;0;Lessebo;SLU;,Pinus sylvestris,
166078;;Sweden;Östergötlands län;0;Kolbyttemon;0;Linköping;SLU;,Pinus sylvestris,
166081;65;Sweden;Värmlands län;59.43;Flakmossen;13.31;Karlstad;SLU;,Pinus sylvestris,
166082;227;Sweden;Dalarnas län;60.35;Risfallet;16.22;Hedemora;SLU;,Pinus sylvestris,
166083;340;Sweden;Örebro län;60;Masbybäcken;15.16;Lindesberg;SLU;,Pinus sylvestris,Picea abies,
166085;370;Sweden;Gävleborgs län;62;N.Kullarna;16.55;Hudiksvall;SLU;,Pinus sylvestris,Picea abies,
166086;380;Sweden;Gävleborgs län;62;Ö.Kullarna;16.56;Hudiksvall;SLU;,Pinus sylvestris,Picea abies,
166088;315;Sweden;Dalarnas län;60.88;Siljansfors FP;14.36;Mora;SLU;,Pinus sylvestris,
166089;175;Sweden;Örebro län;59.57;Bohyttan;14.9;Nora;SLU;,Pinus sylvestris,
166095;;Sweden;Gävleborgs län;0;Iggesund;0;Iggesund;SLU;,Picea abies,Pinus sylvestris,
166096;150;Sweden;Gävleborgs län;61.45;Lindesjön;16.87;Trönö;SLU;,Pinus sylvestris,
166099;450;Sweden;Dalarnas län;61.22;Lövnäs;13.37;Älvdalen;SLU;,Pinus sylvestris,
166100;440;Sweden;Dalarnas län;61.22;Bleckstugan;13.37;Älvdalen;SLU;,Pinus sylvestris,
166102;80;Sweden;Gävleborgs län;60.48;Lisselbo;16.95;Gävle;SLU;,Pinus sylvestris,
166103;80;Sweden;Gävleborgs län;60.48;Lisselbo;16.95;Gävle;SLU;,Pinus sylvestris,
166104;80;Sweden;Gävleborgs län;60.48;Lisselbo;16.95;Gävle;SLU;,Pinus sylvestris,
166106;185;Sweden;Gävleborgs län;60.82;Jädraås FP;16.51;Ockelbo;SLU;,Pinus sylvestris,
166107;185;Sweden;Gävleborgs län;60.82;Jädraås FP;16.51;Ockelbo;SLU;,Pinus sylvestris,
166112;240;Sweden;Dalarnas län;60.9;Siljansfors FP;14.38;Mora;SLU;,Pinus sylvestris,
166115;400;Sweden;Norrbottens län;66.66;;20.74;Jokkmokk;SLU;,Pinus sylvestris,
166119;200;Sweden;Västerbottens län;63.96;;19.14;Robertsfors;SLU;,Pinus sylvestris,
166121;400;Sweden;Västerbottens län;64.16;;17.44;Åsele;SLU;,Pinus sylvestris,
166123;420;Sweden;Västernorrlands län;63.83;Lägsta;18.05;Sollefteå;SLU;,Pinus sylvestris,
166124;200;Sweden;Västernorrlands län;63.3;;16.73;Sollefteå;SLU;,Pinus sylvestris,
166125;280;Sweden;Norrbottens län;66.5;Pålkem;22.09;Gällivare;SLU;,Pinus contorta,Pinus sylvestris,
166127;350;Sweden;Gävleborgs län;62;;15.43;Ljusdal;SLU;,Pinus sylvestris,
166131;350;Sweden;Dalarnas län;60.72;Lilla Läber;14.31;Orsa;SLU;,Pinus sylvestris,
166132;250;Sweden;Gävleborgs län;60.55;;16.05;Gävle;SLU;,Pinus sylvestris,
166134;300;Sweden;Värmlands län;59.97;;13.93;Hagfors;SLU;,Pinus sylvestris,
166143;200;Sweden;Västerbottens län;64.08;Storsandsjö;19.14;Bjurholm;SLU;,Pinus sylvestris,
166144;190;Sweden;Norrbottens län;66.25;Onatjärn;20.97;Boden;SLU;,Pinus sylvestris,
166147;430;Sweden;Jämtlands län;63.56;Föllinge;14.6;Krokom;SLU;,Pinus sylvestris,
166154;210;Sweden;Jönköpings län;57.56;Västermon;14.24;Jönköping;SLU;,Pinus sylvestris,
166155;145;Sweden;Örebro län;59.47;Soptippsvägen;15.07;Nora;SLU;,Pinus sylvestris,
166157;400;Sweden;Norrbottens län;67.02;Ätnarova FP;20.24;Gällivare;SLU;,Picea abies,Pinus sylvestris,
166162;325;Sweden;Västerbottens län;64.39;Barjasen;18.16;Lycksele;SLU;,Picea abies,Pinus contorta,Pinus sylvestris,
166163;375;Sweden;Jämtlands län;63.23;Selkroksredden;15.13;Östersund;SLU;,Picea abies,Pinus sylvestris,Pinus contorta,
166164;155;Sweden;Västerbottens län;64.03;Åliden;20.1;Robertsfors;SLU;,Picea abies,Pinus sylvestris,
166165;520;Sweden;Västerbottens län;64.53;Sutme;14.51;Dorotea;SLU;,Picea abies,Pinus sylvestris,Pinus contorta,
166166;375;Sweden;Norrbottens län;66.05;Piellovare;19.52;Jokkmokk;SLU;,Pinus sylvestris,
166167;195;Sweden;Östergötlands län;57.48;Kråkrödjan;15.33;Ydre;SLU;,Picea abies,Pinus sylvestris,
166174;300;Sweden;Västerbottens län;64.32;Granö;19.03;Vindeln;SLU;,Pinus sylvestris,
166176;35;Sweden;Skåne län;55.86;Borrestad;14.03;Kristianstad;SLU;,Pinus sylvestris,
166177;185;Sweden;Västerbottens län;64.3;Mesele;19.69;Vindeln;SLU;,Pinus sylvestris,
166180;300;Sweden;Dalarnas län;60.37;Parlahöjd, Grangärde;14.97;Ludvika;SLU;,Pinus sylvestris,
166181;270;Sweden;Västerbottens län;64.68;Lyckan;18.51;Lycksele;SLU;,Pinus sylvestris,
166182;240;Sweden;Kronobergs län;56.88;Kosta;15.39;Lessebo;SLU;,Pinus sylvestris,
166185;190;Sweden;Västerbottens län;64.29;Lund;19.6;Vindeln;SLU;,Pinus sylvestris,
166186;145;Sweden;Västerbottens län;64.12;Rödålund;19.91;Robertsfors;SLU;,Pinus sylvestris,
166190;415;Sweden;Norrbottens län;67.03;Ätnarova FP;20.43;Gällivare;SLU;,Pinus sylvestris,
166191;240;Sweden;Dalarnas län;60.9;Siljansfors FP;14.38;Mora;SLU;,Pinus sylvestris,
166192;300;Sweden;Västerbottens län;64.15;Kulbäckslidens FP;19.6;Vindeln;SLU;,Pinus sylvestris,
166194;;Sweden;Norrbottens län;0;;0;Arjeplog;SLU;,Pinus sylvestris,Picea abies,
166195;;Sweden;Norrbottens län;0;;0;Arjeplog;SLU;,Pinus sylvestris,Picea abies,
166196;460;Sweden;Norrbottens län;67.06;Ätnarova FP;20.3;Gällivare;SLU;,Pinus sylvestris,Picea abies,Pinus contorta,Larix sibirica,Picea mariana,
166197;450;Sweden;Norrbottens län;67.08;Ätnarova FP;20.37;Gällivare;SLU;,Pinus sylvestris,Picea abies,Pinus contorta,Larix sibirica,Picea mariana,
166199;420;Sweden;Västerbottens län;64.66;Norrvik;17.72;Vilhelmina;SLU;,Pinus sylvestris,
166200;250;Sweden;Västerbottens län;64.68;Brännforsliden;19.37;Vindeln;SLU;,Pinus sylvestris,
166201;250;Sweden;Västerbottens län;64.68;Brännforsliden;19.37;Vindeln;SLU;,Pinus sylvestris,
166202;240;Sweden;Västerbottens län;64.27;;18.83;Långsele;SLU;,Pinus sylvestris,
166203;250;Sweden;Västernorrlands län;63.97;Motjärn;18.29;Örnsköldsvik;SLU;,Pinus sylvestris,
166204;240;Sweden;Västernorrlands län;63.92;Flärken;18.26;Örnsköldsvik;SLU;,Pinus sylvestris,
166205;250;Sweden;Västernorrlands län;63.86;Aspsele;18.45;Örnsköldsvik;SLU;,Pinus sylvestris,
166206;390;Sweden;Västernorrlands län;63.76;Rötjärn;18.34;Örnsköldsvik;SLU;,Pinus sylvestris,
166207;175;Sweden;Västernorrlands län;63.57;Klocken;17.8;Örnsköldsvik;SLU;,Pinus sylvestris,
166217;400;Sweden;Värmlands län;60.5;Filphus;12.86;Torsby;SLU;,Pinus contorta,Pinus sylvestris,
166218;50;Sweden;Västernorrlands län;62.95;Öds skog;17.77;Kramfors;SLU;,Pinus contorta,Pinus sylvestris,
166219;420;Sweden;Jämtlands län;62.62;Bensjön;15.47;Bräcke;SLU;,Pinus contorta,Pinus sylvestris,
166221;300;Sweden;Gävleborgs län;61.84;Klampenborg;15.42;Ljusdal;SLU;,Pinus contorta,Pinus sylvestris,
166226;120;Sweden;Örebro län;59.14;Skäggebol;14.47;Degerfors;SLU;,Pinus contorta,Pinus sylvestris,
166227;95;Sweden;Örebro län;59.07;Pålsboda;15.32;Kumla;SLU;,Pinus contorta,Pinus sylvestris,
166236;370;Sweden;Jämtlands län;64.58;Kycklingvattnet;14.14;Strömsund;SLU;,Pinus contorta,Pinus sylvestris,
166239;450;Sweden;Jämtlands län;63.43;Björkvattnet;16.06;Strömsund;SLU;,Pinus contorta,Pinus sylvestris,
166240;215;Sweden;Värmlands län;60.15;Noreberg;13.52;Hagfors;SLU;,Pinus contorta,Pinus sylvestris,
166241;110;Sweden;Östergötlands län;58.72;Elsebo;16.26;Norrköping;SLU;,Pinus contorta,Pinus sylvestris,
166242;215;Sweden;Jönköpings län;57.59;Mokvarn;14.22;Vaggeryd;SLU;,Pinus contorta,Pinus sylvestris,
166243;400;Sweden;Värmlands län;60.5;Filphus;12.86;Torsby;SLU;,Pinus contorta,Pinus sylvestris,
166244;400;Sweden;Värmlands län;60.5;Filphus;12.86;Torsby;SLU;,Pinus contorta,Pinus sylvestris,
166247;30;Sweden;Västerbottens län;63.56;Bärmyran;19.63;Nordmaling;SLU;,Pinus sylvestris,
166249;150;Sweden;Kronobergs län;56.87;Förarp 1;14.1;Ljungby;SLU;,Pinus sylvestris,
166250;150;Sweden;Kronobergs län;56.86;Förarp 2;14.09;Ljungby;SLU;,Pinus sylvestris,
166251;170;Sweden;Kronobergs län;56.54;Karsemåla;14.56;Värnamo;SLU;,Pinus sylvestris,
166268;90;Sweden;Västerbottens län;63.64;Toböle;19.28;Nordmaling;SLU;,Pinus contorta,Pinus sylvestris,
166279;485;Sweden;Värmlands län;60.82;Knarten;13.02;Torsby;SLU;,Pinus sylvestris,
166280;470;Sweden;Västernorrlands län;62.43;Aspåsen;15.78;Ånge;SLU;,Pinus sylvestris,
166281;400;Sweden;Västernorrlands län;62.33;Stormörtsjökullen;16.13;Sundsvall;SLU;,Pinus sylvestris,
166283;270;Sweden;Västerbottens län;64.14;Kulbäckslidens FP;19.59;Vindeln;SLU;,Pinus contorta,Pinus sylvestris,
166284;510;Sweden;Västerbottens län;65.59;Gippervare;17.19;Sorsele;SLU;,Picea abies,Abies lasiocarpa,Abies sibirica,Picea mariana,Pinus sylvestris,Pinus contorta,
166293;175;Sweden;Jönköpings län;57.39;Stensmossen;13.12;Värnamo;SLU;,Pinus contorta,Pinus sylvestris,Picea mariana,
166346;360;Sweden;Norrbottens län;67.37;Gällivare, Skaulo;21.27;Gällivare;SLU;,Pinus sylvestris,
166347;430;Sweden;Norrbottens län;66.12; Varjisåvattnet;19.48;Arvidsjaur;SLU;,Pinus sylvestris,
166348;450;Sweden;Norrbottens län;65.76;Balkesåive;19.28;Arvidsjaur;SLU;,Pinus sylvestris,
166351;460;Sweden;Västerbottens län;65.59;Gruddnaliden;16.92;Sorsele;SLU;,Pinus sylvestris,
166352;500;Sweden;Västerbottens län;64.97;Gunnarn, Jovan;17.45;Stensele;SLU;,Pinus sylvestris,
166357;520;Sweden;Jämtlands län;63.04;Häggsåsen;14.03;Berg;SLU;,Pinus sylvestris,
166360;245;Sweden;Västernorrlands län;63.65;Tällvattensmon;17.97;Örnsköldsvik;SLU;,Pinus sylvestris,Picea abies,
166361;140;Sweden;Västerbottens län;64.16;Rosinedal;19.83;Vindeln;SLU;,Pinus sylvestris,
166366;440;Sweden;Jämtlands län;62.53;Östbodarna;14.36;Berg;SLU;,Pinus contorta,Pinus sylvestris,Picea abies,
166368;65;Sweden;Östergötlands län;58.99;Lyttersta;15.89;Finspång;SLU;,Pinus sylvestris,
166369;135;Sweden;Östergötlands län;58.68;Fläda;15.04;Finspång;SLU;,Pinus sylvestris,
166370;135;Sweden;Östergötlands län;58.68;Fläda;15.04;Finspång;SLU;,Picea abies,Pinus sylvestris,
166371;135;Sweden;Östergötlands län;58.68;Fläda;15.04;Finspång;SLU;,Picea abies,Pinus sylvestris,
166376;80;Sweden;Västerbottens län;63.93;Spöland;19.86;Vännäs;SLU;,Abies sibirica,Betula pendula,Larix sukaczewii,Picea abies,Picea glauca,Pinus contorta,Pinus sylvestris,Populus,
166377;300;Sweden;Västerbottens län;64.26;Svartbergets FP;19.79;Vindeln;SLU;,Abies lasiocarpa,Abies sibirica,Betula pendula,Larix sukaczewii,Picea abies,Picea glauca,Picea mariana,Pinus banksiana,Pinus contorta,Pinus sylvestris,
166378;10;Sweden;Västerbottens län;63.88;Sävar;20.54;Umeå;SLU;,Abies sibirica,Betula pendula,Larix sukaczewii,Picea abies,Picea glauca,Pinus contorta,Pinus sylvestris,Populus,
166379;300;Sweden;Västerbottens län;64.69;Manjaur;19.3;Åmsele;SLU;,Abies lasiocarpa,Abies sibirica,Betula pendula,Larix sukaczewii,Picea abies,Picea glauca,Picea mariana,Pinus banksiana,Pinus contorta,Pinus sylvestris,
166381;195;Sweden;Dalarnas län;60.31;Garpenberg;16.29;Hedemora;SLU;,Betula pendula,Larix x eurolepis,Larix sukaczewii,Picea abies,Picea glauca,Picea mariana,Pinus contorta,Pinus sylvestris,Pseudotsuga menziesii,
166384;278;Sweden;Kronobergs län;57.08;Asa FP A035;14.46;Växjö;SLU;,Betula pendula,Larix x eurolepis,Picea abies,Picea glauca,Picea mariana,Pinus contorta,Pinus sylvestris,Pseudotsuga menziesii,
166390;285;Sweden;Norrbottens län;66.03;Solberget;20.27;Jokkmokk;SLU;,Picea abies,Pinus sylvestris,Betula,
166393;340;Sweden;Västerbottens län;65.25;Fågelmyrkölen;19.11;Malå;SLU;,Picea abies,Pinus sylvestris,Betula,
166394;450;Sweden;Västerbottens län;65.05;Rävliden;18.47;Lycksele;SLU;,Picea abies,Pinus sylvestris,Betula,
166396;320;Sweden;Västernorrlands län;63.31;Stenbittjärn;17.66;Örnsköldsvik;SLU;,Picea abies,Pinus sylvestris,Betula,
166397;285;Sweden;Västernorrlands län;63.17;Svartnäsudden;18.08;Örnsköldsvik;SLU;,Picea abies,Pinus sylvestris,Betula,
166398;390;Sweden;Gävleborgs län;62.29;Ensjöreservatet;15.54;Ljusdal;SLU;,Picea abies,Pinus sylvestris,Betula,
166399;405;Sweden;Gävleborgs län;62.3;Ensjöreservatet;15.54;Ljusdal;SLU;,Picea abies,Pinus sylvestris,Betula,
166400;315;Sweden;Gävleborgs län;62.2;Brassberget;15.72;Ljusdal;SLU;,Picea abies,Pinus sylvestris,Betula,
166401;310;Sweden;Dalarnas län;61.29;Gåsberget;15.35;Rättvik;SLU;,Picea abies,Pinus sylvestris,Betula,
166402;200;Sweden;Västerbottens län;64.24;Svartbergets FP;19.8;Vindeln;SLU;,Pinus sylvestris,
166403;210;Sweden;Västerbottens län;64.14;Svartbergets FP;19.46;Vindeln;SLU;,Pinus sylvestris,
166404;205;Sweden;Västerbottens län;64.24;Svartbergets FP;19.81;Vindeln;SLU;,Pinus sylvestris,
166405;230;Sweden;Västerbottens län;64.16;Björkl.Mickelstr.;20.11;Robertsfors;SLU;,Pinus sylvestris,Picea abies,Betula,Pinus contorta,
166407;300;Sweden;Västerbottens län;64.17;Kulbäckslidens FP;19.6;Vindeln;SLU;,Pinus sylvestris,Picea abies,
166408;145;Sweden;Västerbottens län;64.16;Rosinedal;19.83;Vindeln;SLU;,Pinus sylvestris,
166409;170;Sweden;Västerbottens län;64.03;Kvarnlund;19.84;Vindeln;SLU;,Pinus sylvestris,Betula pubescens,
166411;380;Sweden;Västerbottens län;65.3;Mellanl;18.76;Malå;SLU;,Pinus sylvestris,
166414;187;Sweden;Västerbottens län;64.22;Mulltjälen, mjäla;19.76;Vindeln;SLU;,Pinus sylvestris,
166415;255;Sweden;Västerbottens län;64.25;Renberget, morän;19.8;Vindeln;SLU;,Pinus sylvestris,
166418;200;Sweden;Västerbottens län;64.24;Renberget;19.8;Vindeln;SLU;,Pinus sylvestris,
166419;420;Sweden;Norrbottens län;66.83;Ätnarova FP;21.23;Gällivare;SLU;,Pinus sylvestris,Pinus contorta,
166420;190;Sweden;Västerbottens län;64.18;Kulbäckslidens FP;19.61;Vindeln;SLU;,Pinus sylvestris,Picea abies,
166421;174;Sweden;Västerbottens län;64.23;Svartbergets FP;19.81;Vindeln;SLU;,Pinus sylvestris,
166426;300;Sweden;Västerbottens län;64.15;Kulbäckslidens FP ;19.59;Vindeln;SLU;,Pinus sylvestris,
166427;298;Sweden;Västerbottens län;64.15;Kulbäckslidens FP ;19.59;Vindeln;SLU;,Pinus sylvestris,
166429;260;Sweden;Västerbottens län;64.26;Svartbergets FP;19.79;Vindeln;SLU;,Pinus sylvestris,
166430;295;Sweden;Västerbottens län;64.16;Kulbäckslidens FP ;19.58;Vindeln;SLU;,Pinus sylvestris,
166431;280;Sweden;Västerbottens län;64.17;Kulbäckslidens FP ;19.54;Vindeln;SLU;,Pinus sylvestris,
166432;290;Sweden;Västerbottens län;64.16;Kulbäckslidens FP ;19.56;Vindeln;SLU;,Pinus sylvestris,
166433;210;Sweden;Västerbottens län;64.14;Kulbäckslidens FP ;19.68;Vindeln;SLU;,Pinus sylvestris,
166434;210;Sweden;Västerbottens län;64.14;Kulbäckslidens FP ;19.68;Vindeln;SLU;,Pinus sylvestris,
166436;290;Sweden;Västerbottens län;64.35;Kulbäckslidens FP ;19.95;Vindeln;SLU;,Pinus sylvestris,
166437;270;Sweden;Västerbottens län;64.15;Kulbäckslidens FP ;19.61;Vindeln;SLU;,Pinus sylvestris,
166438;270;Sweden;Västerbottens län;64.14;Kulbäckslidens FP ;19.61;Vindeln;SLU;,Pinus sylvestris,
166439;270;Sweden;Västerbottens län;64.14;Kulbäckslidens FP ;19.6;Vindeln;SLU;,Pinus sylvestris,
166441;290;Sweden;Västerbottens län;64.16;Kulbäckslidens FP ;19.56;Vindeln;SLU;,Pinus sylvestris,
166443;280;Sweden;Västerbottens län;64.16;Kulbäckslidens FP ;19.56;Vindeln;SLU;,Pinus sylvestris,
166444;290;Sweden;Västerbottens län;64.16;Kulbäckslidens FP ;19.58;Vindeln;SLU;,Pinus sylvestris,
166446;320;Sweden;Västerbottens län;64.23;Svartbergets FP;19.87;Vindeln;SLU;,Pinus sylvestris,
166454;295;Sweden;Västerbottens län;64.15;Kulbäckslidens FP ;19.59;Vindeln;SLU;,Pinus sylvestris,
166458;400;Sweden;Norrbottens län;66.15;Kåbdalis;20.14;Jokkmokk;SLU;,Pinus sylvestris,
166461;290;Sweden;Norrbottens län;67.06;Ätnarova FP;20.3;Gällivare;SLU;,Pinus sylvestris,Betula,
166462;300;Sweden;Västerbottens län;64.16;Kulbäckslidens FP ;19.58;Vindeln;SLU;,Pinus sylvestris,
166463;300;Sweden;Västerbottens län;0;Kulbäckslidens FP ;0;Vindeln;SLU;,Picea abies,Pinus sylvestris,
166466;285;Sweden;Västerbottens län;64.16;Kulbäckslidens FP ;19.58;Vindeln;SLU;,Pinus sylvestris,
166467;280;Sweden;Västerbottens län;64.16;Kulbäckslidens FP ;19.58;Vindeln;SLU;,Pinus sylvestris,
166468;270;Sweden;Västerbottens län;64.14;Kulbäckslidens FP ;19.61;Vindeln;SLU;,Pinus sylvestris,
166469;280;Sweden;Västerbottens län;64.16;Kulbäckslidens FP ;19.58;Vindeln;SLU;,Pinus sylvestris,
166470;180;Sweden;Västerbottens län;64.23;Svartbergets FP;19.8;Vindeln;SLU;,Pinus sylvestris,
166471;260;Sweden;Västerbottens län;64.26;Svartbergets FP;19.79;Vindeln;SLU;,Pinus sylvestris,
166474;185;Sweden;Gävleborgs län;60.81;Jädraås FP;16.51;Ockelbo;SLU;,Pinus sylvestris,Picea abies,
166475;249;Sweden;Dalarnas län;60.88;Siljansfors FP;14.38;Mora;SLU;,Pinus sylvestris,Picea abies,
166476;;Sweden;Västerbottens län;0;Svartbergets FP;0;Vindeln;SLU;,Pinus sylvestris,Picea abies,
166477;;Sweden;Norrbottens län;0;Ätnarova FP;0;Gällivare;SLU;,Pinus sylvestris,Picea abies,
166482;220;Sweden;Kronobergs län;57.15;Asa FP;14.77;Växjö;SLU;,Acer platanoides,Alnus glutinosa,Alnus incana,Betula pendula,Betula pubescens,Carpinus betulus,Fagus sylvatica,Fraxinus excelsior,Malus silvestris,Picea abies,Pinus sylvestris,Populus tremula,Prunus avium,Prunus padus,Quercus robur,Salix caprea,Sorbus aucuparia,Sorbus intermedia,Tilia cordata,Ulmus glabra,
166488;160;Sweden;Norrbottens län;66.87;Ruttirova;21.94;Gällivare;SLU;,Pinus sylvestris,
166507;220;Sweden;Kronobergs län;57.06;Mon;14.39;Alvesta;SLU;,Pinus sylvestris,Picea abies,
166508;50;Sweden;Södermanlands län;58.95;Ekenäs;16.56;Flen;SLU;,Pinus sylvestris,
166531;;Sweden;Hallands län;56.7;Tönnersjöheden;13.13;Halmstad;SLU;,Quercus robur,Betula pendula,Picea abies,Pinus sylvestris,
166550;;Sweden;Hallands län;56.7;Eriksköp;13.13;Halmstad;SLU;,Populus tremula,Betula pendula,Picea abies,Fagus sylvatica,Quercus robur,Pinus sylvestris,