nro;altitude;country;county;latitude;localname;abs(longitude);municipality;res_org;treespecies
115087;70;Sweden;SkÃ¥ne län (Malmöhus);55.9;Källstorp;13.1;;Skogforsk;,Picea abies,
115088;80;Sweden;SkÃ¥ne län (Malmöhus);55.9;Karatofta, Svalöv;13.1;;Skogforsk;,Picea abies,
115091;310;Sweden;Jönköpings län;57.9;Margreteholm, Mullsjö;13.8;;Skogforsk;,Picea abies,
115092;80;Sweden;SkÃ¥ne län (Malmöhus);55.9;Källstorp, Svalöv;13.1;;Skogforsk;,Picea abies,
115098;81;Sweden;SkÃ¥ne län (Malmöhus);55.9;Skognäbben;13.1;;Skogforsk;,Picea abies,
115099;70;Sweden;Hallands län;56.6;Tönnersjö;13;;Skogforsk;,Picea abies,
115100;225;Sweden;Jönköpings län;57.4;Gettinge;15.1;;Skogforsk;,Picea abies,
115102;190;Sweden;Hallands län;56.3;Ekered, Hasslöv, Laholm;12.9;Laholm;Skogforsk;,Picea abies,
115103;325;Sweden;Jönköpings län;57.5;Fredriksdal-Hulthag, Nässjö;14.6;Nässjö;Skogforsk;,Picea abies,
115105;140;Sweden;Kronobergs län;56.7;Stensnäs-Ã…viken, Ryssby, Ljung;14.1;Ljungby;Skogforsk;,Picea abies,
115107;105;Sweden;SkÃ¥ne län (Malmöhus);56;Knutstorp-Byröd, Svalöv;13.1;Svalöv;Skogforsk;,Picea abies,
115108;35;Sweden;Kalmar län;56.9;Strömsrum-HÃ¥lkärret/Idhult, M;16.2;MönsterÃ¥s;Skogforsk;,Picea abies,
115110;55;Sweden;Södermanlands län;59;Ramsjötorp, Katrineholm;16.3;Katrineholm;Skogforsk;,Picea abies,
115111;65;Sweden;Södermanlands län;59;Vallmotorp, Katrineholm;16.2;Katrineholm;Skogforsk;,Picea abies,
115121;145;Sweden;SkÃ¥ne län (Malmöhus);56;Knutstorp-Västra Ã…sskogen, Sva;13.1;;Skogforsk;,Picea abies,
115125;90;Sweden;SkÃ¥ne län (Malmöhus);55.9;Ekebo-Skognäbben, Svalöv;13.1;Svalöv;Skogforsk;,Picea abies,
115128;155;Sweden;SkÃ¥ne län (Malmöhus);55.9;Ekeröd, Hörby;13.7;Hörby;Skogforsk;,Picea abies,
115130;95;Sweden;SkÃ¥ne län (Malmöhus);55.9;Häggenäs, Hörby;13.6;;Skogforsk;,Picea abies,
115131;165;Sweden;SkÃ¥ne län (Malmöhus);56;GÃ¥larp, Dragesholm, Svalöv;13.1;;Skogforsk;,Picea abies,
115133;55;Sweden;Hallands län;56.6;Tönnersjö, Halmstad;13;Halmstad;Skogforsk;,Picea abies,
115135;85;Sweden;SkÃ¥ne län (Malmöhus);55.9;Ekebo, Svalöv;13.1;;Skogforsk;,Picea abies,
115137;80;Sweden;SkÃ¥ne län (Malmöhus);55.9;Ekebo, Svalöv;13.1;;Skogforsk;,Picea abies,
115140;185;Sweden;Jönköpings län;57.5;Övrarp, Mariannelund, Eksjö;15.6;;Skogforsk;,Picea abies,
115156;270;Sweden;Östergötlands län;57.7;Västra Ryd, Ydre;15.2;Ydre;Skogforsk;,Picea abies,
115159;270;Sweden;Östergötlands län;57.7;Västra Ryd, Ydre;15.2;Ydre;Skogforsk;,Picea abies,
115160;140;Sweden;Kronobergs län;56.5;Ã…lshult, Tingsryd;14.6;Tingsryd;Skogforsk;,Picea abies,
115161;55;Sweden;Södermanlands län;58.9;Ängtorp, Katrineholm;16.1;Katrineholm;Skogforsk;,Picea abies,
115162;80;Sweden;SkÃ¥ne län (Malmöhus);55.9;Sofielund, Svalöv;13;Svalöv;Skogforsk;,Picea abies,
115163;80;Sweden;SkÃ¥ne län (Malmöhus);55.9;Ekebo-Nils Bengtssons, Svalöv;13.1;Svalöv;Skogforsk;,Picea abies,
115168;125;Sweden;Skaraborgs län;58.4;Remningstorp, Skara;13.6;Skara;Skogforsk;,Picea abies,
115169;270;Sweden;Jönköpings län;57.7;Hult SödergÃ¥rd, SmÃ¥l. Anneber;14.8;Nässjö;Skogforsk;,Picea abies,
115170;100;Sweden;SkÃ¥ne län (Kristianstad);56;Brönnestad, Hässleholm;13.6;Hässleholm;Skogforsk;,Picea abies,
115171;80;Sweden;SkÃ¥ne län (Malmöhus);55.9;Ekebo, Svalöv;13.1;Svalöv;Skogforsk;,Picea abies,
115177;95;Sweden;SkÃ¥ne län (Malmöhus);55.9;Källstorps gÃ¥rd, Svalöv;13.1;;Skogforsk;,Picea abies,
115178;180;Sweden;Kronobergs län;57.1;Asa, Växjö;14.8;Svalöv;Skogforsk;,Picea abies,
115180;50;Sweden;Östergötlands län;58.6;Ragnetorp, FinspÃ¥ng;15.9;FinspÃ¥ng;Skogforsk;,Picea abies,
115181;95;Sweden;Hallands län;56.6;Tönnersjö-Sandtagsv. , Halmsta;13.1;Halmstad;Skogforsk;,Picea abies,
115192;270;Sweden;Östergötlands län;57.7;Västra Ryd, Ydre;15.2;;Skogforsk;,Picea abies,
115193;270;Sweden;Östergötlands län;57.7;Västra Ryd, Ydre;15.2;;Skogforsk;,Picea abies,
115194;270;Sweden;Östergötlands län;57.7;Västra Ryd, Ydre;15.2;;Skogforsk;,Picea abies,
115196;110;Sweden;Värmlands län;59.7;Bergaskogen;13.1;;Skogforsk;,Picea abies,
115198;95;Sweden;Värmlands län;59.6;Brunsberg;12.6;;Skogforsk;,Picea abies,
115200;;Sweden;Värmlands län;0;Skogsberg;0;;Skogforsk;,Picea abies,
115202;90;Sweden;Värmlands län;59.5;Grimstad, Högboda;13;;Skogforsk;,Picea abies,
115236;170;Sweden;SkÃ¥ne län (Kristianstad);55.8;Huaröd, Kristianstad;13.9;Kristianstad;Skogforsk;,Picea abies,
115243;40;Sweden;Uppsala län;60.3;Tierp;17.5;;Skogforsk;,Picea abies,
115255;150;Sweden;Västernorrlands län;63.5;PÃ¥ltorp;16.8;SollefteÃ¥;Skogforsk;,Picea abies,
115256;450;Sweden;Jämtlands län;64.4;MuruÃ¥sen;14;Strömsund;Skogforsk;,Picea abies,
115257;400;Sweden;Jämtlands län;63.5;Bränndalsbodarna;15.1;;Skogforsk;,Picea abies,
115267;200;Sweden;Västernorrlands län;63.5;Borinstorpet;16.7;SollefteÃ¥;Skogforsk;,Picea abies,
115268;225;Sweden;Västernorrlands län;63.4;BureÃ¥borg;17.7;Örnsköldsvik;Skogforsk;,Picea abies,
115280;50;Sweden;Västernorrlands län;62.7;Hemsön (Sanna-hagen);18;Härnösand;Skogforsk;,Picea abies,
115288;160;Sweden;Västernorrlands län;62.5;Ovansjö;15.5;;Skogforsk;,Picea abies,
115292;25;Sweden;Västernorrlands län;62.5;SörÃ¥ker;17.5;TimrÃ¥;Skogforsk;,Picea abies,
115296;50;Sweden;Västernorrlands län;62.1;Galtström;17.4;Sundsvall;Skogforsk;,Picea abies,
115297;150;Sweden;Västernorrlands län;63.1;Storbränna;17;SollefteÃ¥;Skogforsk;,Picea abies,
115298;200;Sweden;Västernorrlands län;63.5;Borinstorpet;16.7;SollefteÃ¥;Skogforsk;,Picea abies,
115299;390;Sweden;Västernorrlands län;63.9;Slättbränna;16.8;SollefteÃ¥;Skogforsk;,Picea abies,
115301;440;Sweden;Jämtlands län;63.4;Björkvattnet;16;Ragunda;Skogforsk;,Picea abies,
115302;75;Sweden;Västernorrlands län;63.2;Hjälta;17.1;SollefteÃ¥;Skogforsk;,Picea abies,
115303;200;Sweden;Västernorrlands län;63.5;Forsnäset;16.6;SollefteÃ¥;Skogforsk;,Picea abies,
115309;325;Sweden;Jämtlands län;64;Tannsjön (Rossön);16.6;;Skogforsk;,Picea abies,
115316;310;Sweden;Jämtlands län;63;BispgÃ¥rden;16.6;;Skogforsk;,Picea abies,
115319;10;Sweden;Västerbottens län;63.9;Sävar;20.5;;Skogforsk;,Picea abies,
115332;10;Sweden;Västerbottens län;63.9;Sävar;20.5;UmeÃ¥;Skogforsk;,Picea abies,
115339;10;Sweden;Västerbottens län;63.9;Sävar;20.5;;Skogforsk;,Picea abies,
115351;490;Sweden;Norrbottens län;65.8;Mader;19;Arvidsjaur;Skogforsk;,Picea abies,
115352;500;Sweden;Norrbottens län;65.8;Mader;19;Arvidsjaur;Skogforsk;,Picea abies,
115353;500;Sweden;Norrbottens län;65.8;Mader;19;Arvidsjaur;Skogforsk;,Picea abies,
115354;10;Sweden;Västerbottens län;63.9;Sävar;20.5;UmeÃ¥;Skogforsk;,Picea abies,
115355;265;Sweden;Västerbottens län;64.1;Kluddtjärn;20;UmeÃ¥;Skogforsk;,Picea abies,
115358;65;Sweden;Västerbottens län;63.9;Risträsk;20.6;UmeÃ¥;Skogforsk;,Picea abies,
115360;265;Sweden;Västernorrlands län;63;Östergraninge;17.2;Kramfors;Skogforsk;,Picea abies,
115361;10;Sweden;Västerbottens län;63.9;Sävar;20.5;UmeÃ¥;Skogforsk;,Picea abies,
115363;65;Sweden;Hallands län;56;Tönnersjö, Halmstad;13;Svalöv;Skogforsk;,Picea abies,
115364;180;Sweden;Kronobergs län;56.4;Hermanstorp, Växjö;15;Tingsryd;Skogforsk;,Picea abies,
115365;75;Sweden;SkÃ¥ne län (Malmöhus);55.5;Knutstorp, Svalöv;13.1;Svedala;Skogforsk;,Picea abies,
115366;75;Sweden;SkÃ¥ne län (Malmöhus);56;Knutstorp, Svalöv;13;Svalöv;Skogforsk;,Picea abies,
115367;10;Sweden;SkÃ¥ne län (Malmöhus);55.5;Lilla Hörstad, Landskrona;12.5;;Skogforsk;,Picea abies,
115368;135;Sweden;Skaraborgs län;58.3;Tiveden, Töreboda;14.1;Hjo;Skogforsk;,Picea abies,
115369;60;Sweden;Örebro län;59.3;Jönsarbo, Skinnskatteberg;15.4;Örebro;Skogforsk;,Picea abies,
115370;60;Sweden;Örebro län;59.3;Jönsarbo, Skinnskatteberg;15.5;Örebro;Skogforsk;,Picea abies,
115371;280;Sweden;Gävleborgs län;61;Kopparfors, Ã…mot;16.1;Bollnäs;Skogforsk;,Picea abies,
115372;215;Sweden;Jönköpings län;57.7;Jönköping;13.8;Tranemo;Skogforsk;,Picea abies,
115374;50;Sweden;SkÃ¥ne län (Malmöhus);56;Boserup, Bjuv;12.9;;Skogforsk;,Picea abies,
115375;50;Sweden;SkÃ¥ne län (Malmöhus);56;Boserup, Bjuv;12.9;;Skogforsk;,Picea abies,
115376;40;Sweden;Södermanlands län;59;Mälarskog, Ã…rdala, Flen;16.8;Flen;Skogforsk;,Picea abies,
115377;45;Sweden;Örebro län;59.6;Jönsarbo, Skinnskatteberg;15.9;Örebro;Skogforsk;,Picea abies,
115378;80;Sweden;Örebro län;59.6;Jönsarbo, Skinnskatteberg;15.8;Örebro;Skogforsk;,Picea abies,
115379;75;Sweden;Örebro län;59.6;Jönsarbo, Skinnskatteberg;15.9;Örebro;Skogforsk;,Picea abies,
115381;60;Sweden;SkÃ¥ne län (Malmöhus);56;Boserup, Bjuv;13;Bjuv;Skogforsk;,Picea abies,
115382;170;Sweden;Kalmar län;56.4;Läen, Emmaboda;15.2;Ronneby;Skogforsk;,Picea abies,
115383;230;Sweden;Gävleborgs län;61;Kopparfors, Ã…mot;16.3;Ockelbo;Skogforsk;,Picea abies,
115384;100;Sweden;Örebro län;59.4;Jönsarbo, Skinnskatteberg;15.5;Lindesberg;Skogforsk;,Picea abies,
115385;85;Sweden;SkÃ¥ne län (Kristianstad);56.1;Rössjöholm-Äspenäs, Ängelho;13;Ã…storp;Skogforsk;,Picea abies,
115386;85;Sweden;SkÃ¥ne län (Kristianstad);56.1;Rössjöholm-Äspenäs, Ängelho;13;Ã…storp;Skogforsk;,Picea abies,
115387;75;Sweden;SkÃ¥ne län (Kristianstad);56.1;Rössjöholm-Äspenäs, Ängelho;13;Ã…storp;Skogforsk;,Picea abies,
115388;75;Sweden;SkÃ¥ne län (Kristianstad);56.1;Rössjöholm-Äspenäs, Ängelho;13;Ã…storp;Skogforsk;,Picea abies,
115389;65;Sweden;SkÃ¥ne län (Malmöhus);56;Boserup, Bjuv;13;Bjuv;Skogforsk;,Picea abies,
115390;65;Sweden;SkÃ¥ne län (Malmöhus);56;Boserup, Bjuv;13;Bjuv;Skogforsk;,Picea abies,
115391;150;Sweden;Kronobergs län;56.3;Hult, Tingsryd;15;Ronneby;Skogforsk;,Picea abies,
115392;150;Sweden;Kronobergs län;56.3;Hult, Tingsryd;15;Ronneby;Skogforsk;,Picea abies,
115393;230;Sweden;Kronobergs län;56.5;Dalen, Kosta;15.2;Tingsryd;Skogforsk;,Picea abies,
115394;230;Sweden;Kronobergs län;56.5;Dalen, Kosta;15.2;Tingsryd;Skogforsk;,Picea abies,
115395;75;Sweden;Västmanlands län;59.4;Bubbarsbo, Skinnskatteberg;15.4;Örebro;Skogforsk;,Picea abies,
115396;75;Sweden;Västmanlands län;59.4;Bubbarsbo, Skinnskatteberg;15.4;Örebro;Skogforsk;,Picea abies,
115397;75;Sweden;Västmanlands län;59.4;Bubbarsbo, Skinnskatteberg;15.4;Örebro;Skogforsk;,Picea abies,
115398;75;Sweden;Västmanlands län;59.4;Bubbarsbo, Skinnskatteberg;15.4;Örebro;Skogforsk;,Picea abies,
115399;75;Sweden;Västmanlands län;59.4;Bubbarsbo, Skinnskatteberg;15.4;Örebro;Skogforsk;,Picea abies,
115400;75;Sweden;Västmanlands län;59.4;Bubbarsbo, Skinnskatteberg;15.4;Örebro;Skogforsk;,Picea abies,
115401;75;Sweden;Västmanlands län;59.4;Bubbarsbo, Skinnskatteberg;15.4;Örebro;Skogforsk;,Picea abies,
115402;75;Sweden;Västmanlands län;59.4;Bubbarsbo, Skinnskatteberg;15.4;Örebro;Skogforsk;,Picea abies,
115403;250;Sweden;Jönköpings län;57.4;Bottnaryd-Jära, Jönköping;13.5;Gislaved;Skogforsk;,Picea abies,
115404;250;Sweden;Jönköpings län;57.4;Bottnaryd-Jära, Jönköping;13.5;Gislaved;Skogforsk;,Picea abies,
115405;190;Sweden;Värmlands län;60.1;Billerud-Uddeholm, Ekshärad, Ha;13.3;Hagfors;Skogforsk;,Picea abies,
115406;190;Sweden;Värmlands län;60.1;Billerud-Uddeholm, Ekshärad, Ha;13.3;Hagfors;Skogforsk;,Picea abies,
115407;115;Sweden;Gävleborgs län;60.5;Kopparfors, Ã…mot;16.3;Hofors;Skogforsk;,Picea abies,
115408;115;Sweden;Gävleborgs län;60.5;Kopparfors, Ã…mot;16.3;Hofors;Skogforsk;,Picea abies,
115409;115;Sweden;Gävleborgs län;60.5;Kopparfors, Ã…mot;16.3;Hofors;Skogforsk;,Picea abies,
115410;115;Sweden;Gävleborgs län;60.5;Kopparfors, Ã…mot;16.3;Hofors;Skogforsk;,Picea abies,
115411;75;Sweden;Västmanlands län;59.4;Bubbarsbo, Skinnskatteberg;15.4;Örebro;Skogforsk;,Picea abies,
115412;75;Sweden;Örebro län;59.3;Jönsarbo, Byskogen;15.4;;Skogforsk;,Picea abies,
115413;120;Sweden;SkÃ¥ne län (Kristianstad);56.1;Rössjöholm-Högentorp, Ängelh;13;Klippan;Skogforsk;,Picea abies,
115414;75;Sweden;SkÃ¥ne län (Malmöhus);56;Boserup, Bjuv;13;Bjuv;Skogforsk;,Picea abies,
115415;70;Sweden;Värmlands län;59.3;Deje;13.2;Karlstad;Skogforsk;,Picea abies,
115416;70;Sweden;Värmlands län;59.3;Deje;13.2;Karlstad;Skogforsk;,Picea abies,
115417;70;Sweden;Värmlands län;59.3;Deje;13.2;Karlstad;Skogforsk;,Picea abies,
115418;150;Sweden;Kronobergs län;56.3;Hult, Tingsryd;15;Ronneby;Skogforsk;,Picea abies,
115419;75;Sweden;Västmanlands län;59.4;Bubbarsbo(Jönsarbo);15.4;Örebro;Skogforsk;,Picea abies,
115420;75;Sweden;Västmanlands län;59.4;Bubbarsbo(Jönsarbo);15.4;Örebro;Skogforsk;,Picea abies,
115421;75;Sweden;Västmanlands län;59.4;Bubbarsbo(Jönsarbo);15.4;Örebro;Skogforsk;,Picea abies,
115422;230;Sweden;Kronobergs län;56.5;Dalen, Kosta;15.2;Tingsryd;Skogforsk;,Picea abies,
115423;200;Sweden;Gävleborgs län;60.5;Lingbo (Ockelbo);16.3;Hofors;Skogforsk;,Picea abies,
115425;95;Sweden;Hallands län;57;Okome, Falkenberg;12.4;Varberg;Skogforsk;,Picea abies,
115426;95;Sweden;Hallands län;57;Okome, Falkenberg;12.4;Varberg;Skogforsk;,Picea abies,
115427;95;Sweden;Hallands län;57;Okome, Falkenberg;12.4;Varberg;Skogforsk;,Picea abies,
115428;140;Sweden;SkÃ¥ne län (Malmöhus);55.5;Attarp, Hörby;13.4;Lund;Skogforsk;,Picea abies,
115429;140;Sweden;SkÃ¥ne län (Malmöhus);55.5;Attarp, Hörby;13.4;Lund;Skogforsk;,Picea abies,
115430;140;Sweden;SkÃ¥ne län (Malmöhus);55.5;Attarp, Hörby;13.4;Lund;Skogforsk;,Picea abies,
115431;155;Sweden;Kronobergs län;57;FlÃ¥ren, Lagan, Ljungby;14;Ljungby;Skogforsk;,Picea abies,
115432;155;Sweden;Kronobergs län;57;FlÃ¥ren, Lagan, Ljungby;14;Ljungby;Skogforsk;,Picea abies,
115433;155;Sweden;Kronobergs län;57;FlÃ¥ren, Lagan, Ljungby;14;Ljungby;Skogforsk;,Picea abies,
115434;225;Sweden;Kronobergs län;56.5;Dalen, Kosta;15.2;Tingsryd;Skogforsk;,Picea abies,
115435;225;Sweden;Kronobergs län;56.5;Dalen, Kosta;15.2;Tingsryd;Skogforsk;,Picea abies,
115436;125;Sweden;Värmlands län;59.4;Brännvinstorp-Deje;13.2;Karlstad;Skogforsk;,Picea abies,
115437;125;Sweden;Värmlands län;59.4;Brännvinstorp-Deje;13.2;Karlstad;Skogforsk;,Picea abies,
115438;75;Sweden;Västmanlands län;59.4;Bubbarsbo;15.4;Örebro;Skogforsk;,Picea abies,
115439;75;Sweden;Västmanlands län;59.4;Bubbarsbo;15.4;Örebro;Skogforsk;,Picea abies,
115440;75;Sweden;Västmanlands län;59.4;Bubbarsbo;15.4;Örebro;Skogforsk;,Picea abies,
115441;75;Sweden;Västmanlands län;59.4;Bubbarsbo;15.4;Örebro;Skogforsk;,Picea abies,
115442;75;Sweden;Västmanlands län;59.4;Bubbarsbo;15.4;Örebro;Skogforsk;,Picea abies,
115443;75;Sweden;Västmanlands län;59.4;Bubbarsbo;15.4;Örebro;Skogforsk;,Picea abies,
115444;70;Sweden;Västmanlands län;59.3;Nibbarsbo;15.4;Örebro;Skogforsk;,Picea abies,
115445;70;Sweden;Västmanlands län;59.3;Nibbarsbo;15.4;Örebro;Skogforsk;,Picea abies,
115446;175;Sweden;Gävleborgs län;60.4;Ny Fäboskogen-Kopparfors;16.3;Hofors;Skogforsk;,Picea abies,
115447;175;Sweden;Gävleborgs län;60.4;Ny Fäboskogen-Kopparfors;16.3;Hofors;Skogforsk;,Picea abies,
115448;175;Sweden;Gävleborgs län;60.4;Ny Fäboskogen-kopparfors;16.3;Hofors;Skogforsk;,Picea abies,
115449;175;Sweden;Gävleborgs län;60.4;Ny Fäboskogen-Kopparfors;16.3;Hofors;Skogforsk;,Picea abies,
115450;175;Sweden;Gävleborgs län;60.4;Ny Fäboskogen-Kopparfors;16.3;Hofors;Skogforsk;,Picea abies,
115451;175;Sweden;Gävleborgs län;60.4;Ny Fäboskogen-Kopparfors;16.3;Hofors;Skogforsk;,Picea abies,
115452;175;Sweden;Gävleborgs län;60.4;Ny Fäboskogen-Kopparfors;16.3;Hofors;Skogforsk;,Picea abies,
115453;175;Sweden;Gävleborgs län;60.4;Ny Fäboskogen-Kopparfors;16.3;Hofors;Skogforsk;,Picea abies,
115454;75;Sweden;Västmanlands län;59.3;Bubbarsbo;15.4;Örebro;Skogforsk;,Picea abies,
115455;75;Sweden;Västmanlands län;59.3;Bubbarsbo;15.4;Örebro;Skogforsk;,Picea abies,
115456;55;Sweden;Örebro län;59.3;Jönsarbo;15.4;Örebro;Skogforsk;,Picea abies,
115457;55;Sweden;Örebro län;59.3;Jönsarbo;15.4;Örebro;Skogforsk;,Picea abies,
115458;55;Sweden;Örebro län;59.3;Jönsarbo;15.4;Örebro;Skogforsk;,Picea abies,
115460;80;Sweden;SkÃ¥ne län (Malmöhus);55.9;Ekebo-Skognäbben, Svalöv;13.1;Svalöv;Skogforsk;,Picea abies,
115461;175;Sweden;SkÃ¥ne län (Malmöhus);55.7;Bjälkhult, Fränninge, Sjöbo;13.7;Hörby;Skogforsk;,Picea abies,
115462;25;Sweden;Blekinge län;56.2;Johannishus, Ronneby;15.4;Ronneby;Skogforsk;,Picea abies,
115463;60;Sweden;Hallands län;56.9;Hjuleberg-Holmia, Falkenberg;12.7;Falkenberg;Skogforsk;,Picea abies,
115464;220;Sweden;Kronobergs län;56.8;Engaholm, Alvesta;14.3;Alvesta;Skogforsk;,Picea abies,
115465;10;Sweden;Kalmar län;56.8;Strömsrum, MönsterÃ¥s;16.4;MönsterÃ¥s;Skogforsk;,Picea abies,
115466;100;Sweden;Kalmar län;57.7;Ytterbo, Vimmerby;16.1;Vimmerby;Skogforsk;,Picea abies,
115467;225;Sweden;Jönköpings län;57.4;Nissafors, Gnosjö;13.6;Gnosjö;Skogforsk;,Picea abies,
115468;140;Sweden;Östergötlands län;58.2;Boxholm;15;Boxholm;Skogforsk;,Picea abies,
115469;125;Sweden;Göteborgs och Bohus län;58.4;Hensbacka, Munkedal;11.7;Munkedal;Skogforsk;,Picea abies,
115470;60;Sweden;Älvsborgs län;57.9;Östad, AlingsÃ¥s;12.3;AlingsÃ¥s;Skogforsk;,Picea abies,
115471;50;Sweden;Älvsborgs län;58.7;Upperud, Mellerud;12.4;Mellerud;Skogforsk;,Picea abies,
115472;115;Sweden;Skaraborgs län;58.7;Hova, GullspÃ¥ng;14.1;Töreboda;Skogforsk;,Picea abies,
115473;205;Sweden;Örebro län;59.7;Hällefors;14.4;Hällefors;Skogforsk;,Picea abies,
115474;55;Sweden;Södermanlands län;59;Skenäs, VingÃ¥ker;15.9;VingÃ¥ker;Skogforsk;,Picea abies,
115475;15;Sweden;Uppsala län;60;Harg, Östhammar;18.4;Östhammar;Skogforsk;,Picea abies,
115476;30;Sweden;Uppsala län;59.6;"Hagalund; Enköping";17.1;Enköping;Skogforsk;,Picea abies,
115477;40;Sweden;Uppsala län;60.2;Tierp;17.3;Tierp;Skogforsk;,Picea abies,
115478;165;Sweden;Värmlands län;59.8;Treskog, Arvika;12.6;Arvika;Skogforsk;,Picea abies,
115479;180;Sweden;Västernorrlands län;63.4;Yttergundsjö;18.6;Örnsköldsvik;Skogforsk;,Picea abies,
115480;430;Sweden;Västerbottens län;64.1;Vargträsk;18.7;Lycksele;Skogforsk;,Picea abies,
115482;75;Sweden;Värmlands län;59.6;Skogsberg, plantskolan;12.9;;Skogforsk;,Picea abies,
115483;195;Sweden;Hallands län;56.3;Ekered, Hasslöv, Laholm;12.9;Laholm;Skogforsk;,Picea abies,
115484;190;Sweden;Hallands län;56.3;Ekered, Hasslöv, Laholm;12.9;Laholm;Skogforsk;,Picea abies,
115485;160;Sweden;Östergötlands län;58;Aspanäs (Birgittahagen), Boxhol;15.3;Boxholm;Skogforsk;,Picea abies,
115488;205;Sweden;Värmlands län;60;RÃ…DAHÖJDEN, UDDEHOLM;13.3;;Skogforsk;,Picea abies,
115489;15;Sweden;Stockholms län;60;FORSBOL HALLSTAVIK;18.2;Uppsala;Skogforsk;,Picea abies,
115492;;Sweden;Värmlands län;0;Skogsberg;0;;Skogforsk;,Picea abies,
115510;105;Sweden;Skaraborgs län;58.9;GULLSPÃ…NG;14.1;;Skogforsk;,Picea abies,
115511;240;Sweden;Östergötlands län;57.8;Sund, Ydre;15.2;;Skogforsk;,Picea abies,
115512;155;Sweden;Kronobergs län;57;Toftaholm, Ljungby;14;;Skogforsk;,Picea abies,
115513;125;Sweden;SkÃ¥ne län (Kristianstad);56.2;Skärsnäs, Kristianstad;14.3;;Skogforsk;,Picea abies,
115514;5;Sweden;Uppsala län;59.6;LUGNET;17.5;;Skogforsk;,Picea abies,
115515;190;Sweden;Västmanlands län;60.1;NORBERG;15.7;;Skogforsk;,Picea abies,
115550;230;Sweden;Jönköpings län;57.4;Upplanda, Vetlanda;15.1;Vetlanda;Skogforsk;,Picea abies,
115552;90;Sweden;Hallands län;56.6;Tönnersjö, Halmstad;13;Halmstad;Skogforsk;,Picea abies,
115553;155;Sweden;SkÃ¥ne län (Malmöhus);55.9;Ekeröd, Hörby;13.7;Hörby;Skogforsk;,Picea abies,
115554;230;Sweden;Jönköpings län;57.4;Upplanda, Vetlanda;15.1;Vetlanda;Skogforsk;,Picea abies,
115556;90;Sweden;Hallands län;56.6;Tönnersjö, Halmstad;13;Halmstad;Skogforsk;,Picea abies,
115557;155;Sweden;SkÃ¥ne län (Malmöhus);55.9;Ekeröd, Hörby;13.7;Hörby;Skogforsk;,Picea abies,
115558;150;Sweden;SkÃ¥ne län (Kristianstad);56.4;Duvhult, Lönsboda, Osby;14.3;Osby;Skogforsk;,Picea abies,
115559;100;Sweden;SkÃ¥ne län (Kristianstad);56.3;Nyteboda, Lönsboda, Osby;14.4;Olofström;Skogforsk;,Picea abies,
115578;125;Sweden;SkÃ¥ne län (Kristianstad);56.1;TÃ¥geröd, Tyringe, Hässleholm;13.6;;Skogforsk;,Picea abies,
115579;120;Sweden;SkÃ¥ne län (Kristianstad);56.4;Hästhagen, Visseltofta, Osby;13.8;;Skogforsk;,Picea abies,
115581;140;Sweden;Kronobergs län;56.5;Ã…lshult, Tingsryd;14.6;Tingsryd;Skogforsk;,Picea abies,
115582;55;Sweden;Hallands län;56.6;Tönnersjö, Halmstad;13;Halmstad;Skogforsk;,Picea abies,
115583;165;Sweden;SkÃ¥ne län (Malmöhus);55.8;RÃ¥set, Äspinge, Hörby;13.8;Hörby;Skogforsk;,Picea abies,
115584;190;Sweden;Älvsborgs län;57.5;Vännebo, Svenljunga;12.9;Mark;Skogforsk;,Picea abies,
115607;230;Sweden;Kronobergs län;56.8;Sköna Lyckorna, Kosta, Lessebo;15.3;Uppvidinge;Skogforsk;,Picea abies,
115608;110;Sweden;Hallands län;56.7;SusegÃ¥rden, Kvibille, Halmstad;12.8;Halmstad;Skogforsk;,Picea abies,
115609;165;Sweden;SkÃ¥ne län (Malmöhus);55.8;RÃ¥set-Dybergs väg, Äspinge, H;13.8;Hörby;Skogforsk;,Picea abies,
115611;10;Sweden;Kalmar län;57;Kronobäck, MönsterÃ¥s;16.4;MönsterÃ¥s;Skogforsk;,Picea abies,
115612;95;Sweden;SkÃ¥ne län (Malmöhus);55.9;Häggenäs, Hörby;13.6;;Skogforsk;,Picea abies,
115614;10;Sweden;Kalmar län;57;Kronobäck, MönsterÃ¥s;16.4;;Skogforsk;,Picea abies,
115616;95;Sweden;SkÃ¥ne län (Malmöhus);55.9;Häggenäs, Hörby;13.6;Hörby;Skogforsk;,Picea abies,
115617;175;Sweden;Hallands län;56.8;Munkabol, Hylte;13;Hylte;Skogforsk;,Picea abies,
115618;230;Sweden;Kronobergs län;56.9;Kosta (Sköna Lyckorna), Lessebo;15.3;Uppvidinge;Skogforsk;,Picea abies,
115619;10;Sweden;Kalmar län;57;MönsterÃ¥s (Kronobäck);16.4;MönsterÃ¥s;Skogforsk;,Picea abies,
115658;60;Sweden;Hallands län;56.9;Hjuleberg, Falkenberg;12.7;Falkenberg;Skogforsk;,Picea abies,
115659;270;Sweden;Östergötlands län;57.7;Västra Ryd, Ydre;15.2;Ydre;Skogforsk;,Picea abies,
115660;55;Sweden;Kalmar län;56.6;Tvärskog, Kalmar;16;Kalmar;Skogforsk;,Picea abies,
115661;50;Sweden;Södermanlands län;59;Ã…rdala, Flen;16.7;Flen;Skogforsk;,Picea abies,
115662;60;Sweden;Hallands län;56.9;Hjuleberg, Falkenberg;12.7;Falkenberg;Skogforsk;,Picea abies,
115663;270;Sweden;Östergötlands län;57.7;Västra Ryd, Ydre;15.2;Ydre;Skogforsk;,Picea abies,
115664;55;Sweden;Kalmar län;56.6;Tvärskog, Kalmar;16;Kalmar;Skogforsk;,Picea abies,
115665;60;Sweden;Södermanlands län;59;Ã…rdala, Flen;16.7;Flen;Skogforsk;,Picea abies,
115672;155;Sweden;Kronobergs län;56.7;Nöbbele (Hassleslätt), Växjö;15;Växjö;Skogforsk;,Picea abies,
115673;110;Sweden;SkÃ¥ne län (Malmöhus);55.8;Hörby;13.6;Hörby;Skogforsk;,Picea abies,
115674;125;Sweden;Skaraborgs län;58.4;Remningstorp, Kullsjö, Skara;13.5;Skara;Skogforsk;,Picea abies,
115675;235;Sweden;Östergötlands län;57.8;Sund (Hjälmseryd), Ydre;15.2;Ydre;Skogforsk;,Picea abies,
115676;155;Sweden;Kronobergs län;56.7;Nöbbele (Hassleslätt), Växjö;15;Växjö;Skogforsk;,Picea abies,
115677;110;Sweden;SkÃ¥ne län (Malmöhus);55.8;Hörby;13.6;Hörby;Skogforsk;,Picea abies,
115678;125;Sweden;Skaraborgs län;58.4;Remningstorp, Kullsjö, Skara;13.5;Skara;Skogforsk;,Picea abies,
115679;235;Sweden;Östergötlands län;57.8;Sund (Hjälmseryd), Ydre;15.2;Ydre;Skogforsk;,Picea abies,
115680;155;Sweden;Kronobergs län;56.7;Nöbbele (Hassleslätt), Växjö;15;Växjö;Skogforsk;,Picea abies,
115681;110;Sweden;SkÃ¥ne län (Malmöhus);55.8;Hörby;13.6;Hörby;Skogforsk;,Picea abies,
115682;125;Sweden;Skaraborgs län;58.4;Remningstorp, Kullsjö, Skara;13.5;Skara;Skogforsk;,Picea abies,
115683;235;Sweden;Östergötlands län;57.8;Sund (Hjälmseryd), Ydre;15.2;Ydre;Skogforsk;,Picea abies,
115684;155;Sweden;Kronobergs län;56.7;Nöbbele (Hassleslätt), Växjö;15;Växjö;Skogforsk;,Picea abies,
115685;110;Sweden;SkÃ¥ne län (Malmöhus);55.8;Hörby;13.6;Hörby;Skogforsk;,Picea abies,
115686;125;Sweden;Skaraborgs län;58.4;Remningstorp, Kullsjö, Skara;13.5;Skara;Skogforsk;,Picea abies,
115687;235;Sweden;Östergötlands län;57.8;Sund (Hjälmseryd), Ydre;15.2;Ydre;Skogforsk;,Picea abies,
115690;160;Sweden;Jönköpings län;57.4;Alseda 10:1, Vetlanda;15.2;Vetlanda;Skogforsk;,Picea abies,
115691;175;Sweden;Östergötlands län;57.9;Torpa, Ydre;15.1;Ydre;Skogforsk;,Picea abies,
115692;80;Sweden;SkÃ¥ne län (Malmöhus);55.9;Ekebo, Svalöv;13.1;Svalöv;Skogforsk;,Picea abies,
115693;160;Sweden;Jönköpings län;57.4;Alseda 10:1, Vetlanda;15.2;Vetlanda;Skogforsk;,Picea abies,
115694;175;Sweden;Östergötlands län;57.9;Torpa, Ydre;15.1;Ydre;Skogforsk;,Picea abies,
115695;80;Sweden;SkÃ¥ne län (Malmöhus);55.9;Ekebo, Svalöv;13.1;Svalöv;Skogforsk;,Picea abies,
115696;160;Sweden;Jönköpings län;57.4;Alseda 10:1, Vetlanda;15.2;Vetlanda;Skogforsk;,Picea abies,
115697;175;Sweden;Östergötlands län;57.9;Torpa, Ydre;15.1;Ydre;Skogforsk;,Picea abies,
115698;80;Sweden;SkÃ¥ne län (Malmöhus);55.9;Ekebo, Svalöv;13.1;Svalöv;Skogforsk;,Picea abies,
115699;160;Sweden;Jönköpings län;57.4;Alseda 10:1, Vetlanda;15.2;Vetlanda;Skogforsk;,Picea abies,
115700;175;Sweden;Östergötlands län;57.9;Torpa, Ydre;15.1;Ydre;Skogforsk;,Picea abies,
115701;80;Sweden;SkÃ¥ne län (Malmöhus);55.9;Ekebo, Svalöv;13.1;Svalöv;Skogforsk;,Picea abies,
115702;125;Sweden;SkÃ¥ne län (Kristianstad);56.3;Verum, Hässleholm;13.7;Hässleholm;Skogforsk;,Picea abies,
115703;125;Sweden;SkÃ¥ne län (Kristianstad);56.3;Verum, Hässleholm;13.7;Hässleholm;Skogforsk;,Picea abies,
115704;125;Sweden;SkÃ¥ne län (Kristianstad);56.3;Verum, Hässleholm;13.7;Hässleholm;Skogforsk;,Picea abies,
115705;125;Sweden;SkÃ¥ne län (Kristianstad);56.3;Verum, Hässleholm;13.7;Hässleholm;Skogforsk;,Picea abies,
115710;50;Sweden;Hallands län;56.9;Hjuleberg, Falkenberg;12.6;Falkenberg;Skogforsk;,Picea abies,
115711;100;Sweden;SkÃ¥ne län (Kristianstad);56;Brönnestad, Hässleholm;13.6;Hässleholm;Skogforsk;,Picea abies,
115712;270;Sweden;Jönköpings län;57.7;Hult SödergÃ¥rd, SmÃ¥l. Anneber;14.8;Nässjö;Skogforsk;,Picea abies,
115713;50;Sweden;Hallands län;56.9;Hjuleberg, Falkenberg;12.6;Falkenberg;Skogforsk;,Picea abies,
115714;100;Sweden;SkÃ¥ne län (Kristianstad);56;Brönnestad, Hässleholm;13.6;Hässleholm;Skogforsk;,Picea abies,
115715;270;Sweden;Jönköpings län;57.7;Hult SödergÃ¥rd, SmÃ¥l. Anneber;14.8;Nässjö;Skogforsk;,Picea abies,
115716;50;Sweden;Hallands län;56.9;Hjuleberg, Falkenberg;12.6;Falkenberg;Skogforsk;,Picea abies,
115717;100;Sweden;SkÃ¥ne län (Kristianstad);56;Brönnestad, Hässleholm;13.6;Hässleholm;Skogforsk;,Picea abies,
115718;270;Sweden;Jönköpings län;57.7;Hult SödergÃ¥rd, SmÃ¥l. Anneber;14.8;Nässjö;Skogforsk;,Picea abies,
115719;125;Sweden;Skaraborgs län;58.4;Remningstorp, Skara;13.6;Skara;Skogforsk;,Picea abies,
115720;125;Sweden;Skaraborgs län;58.4;Remningstorp, Skara;13.6;Skara;Skogforsk;,Picea abies,
115721;125;Sweden;Skaraborgs län;58.4;Remningstorp, Skara;13.6;Skara;Skogforsk;,Picea abies,
115723;150;Sweden;Skaraborgs län;58.7;Sätra, Karlsborg;14.3;Karlsborg;Skogforsk;,Picea abies,
115724;190;Sweden;Jönköpings län;57.5;Övrarp, Mariannelund, Eksjö;15.6;Eksjö;Skogforsk;,Picea abies,
115725;50;Sweden;Hallands län;56.9;Hjuleberg, Falkenberg;12.7;Falkenberg;Skogforsk;,Picea abies,
115729;225;Sweden;Jönköpings län;57.6;Höreda, Eksjö;15;Eksjö;Skogforsk;,Picea abies,
115730;155;Sweden;SkÃ¥ne län (Malmöhus);56.7;Erikstorp, Tollarp, Kristianstad;13.8;Ljungby;Skogforsk;,Picea abies,
115731;65;Sweden;Södermanlands län;58.7;VirÃ¥ Bruk (A), Vänjanhygget;16.4;Katrineholm;Skogforsk;,Picea abies,
115732;50;Sweden;Hallands län;56.9;Hjuleberg (Hästhagen), Falkenbe;12.7;Falkenberg;Skogforsk;,Picea abies,
115733;145;Sweden;Skaraborgs län;58.7;Sätra, Karlsborg;14.3;Karlsborg;Skogforsk;,Picea abies,
115734;110;Sweden;Örebro län;59.6;Lindesberg (SpÃ¥ruddsvägen), Ö;15.4;Lindesberg;Skogforsk;,Picea abies,
115741;175;Sweden;Kronobergs län;56.7;Huseby (Bondetorp), Alvesta;14.6;Alvesta;Skogforsk;,Picea abies,
115742;190;Sweden;Jönköpings län;57.6;Ingatorp, Eksjö;15.4;Eksjö;Skogforsk;,Picea abies,
115743;110;Sweden;Värmlands län;59.7;V. Ämtervik (Bergaskogen), Karl;13.1;Sunne;Skogforsk;,Picea abies,
115754;160;Sweden;SkÃ¥ne län (Kristianstad);55.9;Linderöd, Kristianstad;13.8;Kristianstad;Skogforsk;,Picea abies,
115755;165;Sweden;Kronobergs län;56.9;Härlöv, Alvesta;14.6;Alvesta;Skogforsk;,Picea abies,
115756;180;Sweden;Östergötlands län;57.9;Torpa, Ydre;15.1;Ydre;Skogforsk;,Picea abies,
115757;170;Sweden;Kronobergs län;56.9;Unnaryd, Hylte;13.5;Hylte;Skogforsk;,Picea abies,
115772;185;Sweden;Värmlands län;59.9;BORTAN, GUNNARSKOG;12.5;Bengtsfors;Skogforsk;,Picea abies,
115773;160;Sweden;Västmanlands län;59.9;DAGARN, FAGERSTA;15.7;Fagersta;Skogforsk;,Picea abies,
115774;235;Sweden;Kronobergs län;56.8;Björneke 3:1, HerrÃ¥kra, Uppvid;15.2;Uppvidinge;Skogforsk;,Picea abies,
115775;115;Sweden;Skaraborgs län;58.4;Remningstorp 56-27, Skara;13.6;Götene;Skogforsk;,Picea abies,
115776;25;Sweden;Östergötlands län;58.5;Vallerstad 1:1, Furingstad, Norr;16.3;Norrköping;Skogforsk;,Picea abies,
115777;20;Sweden;Stockholms län;59.5;ÖSTANÃ…, Ã…KERSBERGA;18.6;ÖsterÃ¥ker;Skogforsk;,Picea abies,
115778;285;Sweden;Kopparbergs län;60.2;BRÄDBERGET, GRANGÄRDE;15;Ludvika;Skogforsk;,Picea abies,
115779;150;Sweden;Gävleborgs län;61.1;KATTBACKEN, KILAFORS;16.6;Bollnäs;Skogforsk;,Picea abies,
115780;50;Sweden;SkÃ¥ne län (Malmöhus);55.5;Nötabo, Häckeberga, Lund;13.3;Lund;Skogforsk;,Picea abies,
115781;175;Sweden;SkÃ¥ne län (Kristianstad);56.3;Salomonhög 23:1, Grevie, BÃ¥sta;12.8;BÃ¥stad;Skogforsk;,Picea abies,
115788;185;Sweden;Värmlands län;59.9;BORTAN, GUNNARSKOG;12.5;Bengtsfors;Skogforsk;,Picea abies,
115808;130;Sweden;Kalmar län;57.5;Storebro-Sjundekvill, Vimmerby;15.8;;Skogforsk;,Picea abies,
115809;150;Sweden;Kronobergs län;56.9;Hallsjö Toftaholm, Ljungby;14;;Skogforsk;,Picea abies,
115810;65;Sweden;Hallands län;56.7;Tönnersjö-Ã…samöllevägen, Ha;13;;Skogforsk;,Picea abies,
115811;275;Sweden;Kronobergs län;57.1;Asa-Anderstorp, Växjö;14.7;;Skogforsk;,Picea abies,
115812;105;Sweden;Älvsborgs län;57.4;Hajom, Mark;12.5;;Skogforsk;,Picea abies,
115813;250;Sweden;Östergötlands län;57.8;LövÃ¥sa, Ydre;15.3;;Skogforsk;,Picea abies,
115816;110;Sweden;SkÃ¥ne län (Malmöhus);55.8;Ekeröd, Hörby;13.7;Hörby;Skogforsk;,Picea abies,
115817;145;Sweden;Kronobergs län;56.8;Lästad, Blädinge, Alvesta;14.5;Alvesta;Skogforsk;,Picea abies,
115818;120;Sweden;SkÃ¥ne län (Kristianstad);56.4;Hästhagen, Visseltofta, Osby;13.8;Osby;Skogforsk;,Picea abies,
115819;165;Sweden;SkÃ¥ne län (Malmöhus);56;GÃ¥larp, Dragesholm, Svalöv;13.1;Svalöv;Skogforsk;,Picea abies,
115820;145;Sweden;Kronobergs län;56.8;Lästad, Blädinge, Alvesta;14.5;Alvesta;Skogforsk;,Picea abies,
115864;230;Sweden;Kronobergs län;56.8;Sköna Lyckorna, Kosta, Lessebo;15.3;Uppvidinge;Skogforsk;,Picea abies,
115865;175;Sweden;Hallands län;56.8;Munkabol, Hylte;13;Hylte;Skogforsk;,Picea abies,
115866;160;Sweden;SkÃ¥ne län (Malmöhus);56;GÃ¥larp, Dragesholm, Svalöv;13.1;Svalöv;Skogforsk;,Picea abies,
115868;10;Sweden;Kalmar län;57;Kronobäck, MönsterÃ¥s;16.4;MönsterÃ¥s;Skogforsk;,Picea abies,
115877;110;Sweden;Kronobergs län;56.4;Halseryd, Hallaryd, Älmhult;13.8;Älmhult;Skogforsk;,Picea abies,
115878;110;Sweden;Kronobergs län;56.4;Halseryd, Hallaryd, Älmhult;13.8;Älmhult;Skogforsk;,Picea abies,
115879;145;Sweden;Kronobergs län;56.6;Askenäs, Göteryd, Älmhult;13.8;Älmhult;Skogforsk;,Picea abies,
115880;125;Sweden;Kalmar län;57.7;Toverum, Locknevi, Vimmerby;16;Vimmerby;Skogforsk;,Picea abies,
115881;90;Sweden;SkÃ¥ne län (Kristianstad);56.3;Maglaröd, Osby;13.8;Hässleholm;Skogforsk;,Picea abies,
115882;195;Sweden;Jönköpings län;57.5;Fluxerum, Karlstorp, Vetlanda;15.5;Vetlanda;Skogforsk;,Picea abies,
115883;190;Sweden;Kronobergs län;56.7;Slätthult, Lessebo;15.3;Lessebo;Skogforsk;,Picea abies,
115884;240;Sweden;Kronobergs län;57.1;Asa avd 148, Växjö;14.7;Växjö;Skogforsk;,Picea abies,
115885;190;Sweden;Kronobergs län;57;Slätthög Moheda, Alvesta;14.5;Alvesta;Skogforsk;,Picea abies,
115886;180;Sweden;Älvsborgs län;57.4;Bullsäng, Svenljunga;13.1;Svenljunga;Skogforsk;,Picea abies,
115887;195;Sweden;Jönköpings län;57.5;Fluxerum, Karlstorp, Vetlanda;15.5;Vetlanda;Skogforsk;,Picea abies,
115888;190;Sweden;Kronobergs län;56.7;Slätthult, Lessebo;15.3;Lessebo;Skogforsk;,Picea abies,
115889;240;Sweden;Kronobergs län;57.1;Asa avd 148, Växjö;14.7;Växjö;Skogforsk;,Picea abies,
115890;190;Sweden;Kronobergs län;57;Slätthög Moheda, Alvesta;14.5;Alvesta;Skogforsk;,Picea abies,
115891;155;Sweden;Kronobergs län;56.8;Förarp, Ljungby;14;Ljungby;Skogforsk;,Picea abies,
115892;115;Sweden;SkÃ¥ne län (Kristianstad);55.6;Tunbyholm, Tomelilla;14.1;Tomelilla;Skogforsk;,Picea abies,
115893;120;Sweden;Kalmar län;56.5;Vissefjärda, Emmaboda;15.5;Emmaboda;Skogforsk;,Picea abies,
115894;130;Sweden;SkÃ¥ne län (Malmöhus);55.9;Knutstorp, Svalöv;13.1;Svalöv;Skogforsk;,Picea abies,
115895;60;Sweden;Hallands län;56.6;Tönnersjö (heden), Halmstad;13;Halmstad;Skogforsk;,Picea abies,
115896;150;Sweden;Kronobergs län;56.8;Förarp, Ljungby;14;Ljungby;Skogforsk;,Picea abies,
115897;60;Sweden;Hallands län;56.6;Tönnersjö (heden), Halmstad;13;Halmstad;Skogforsk;,Picea abies,
115898;120;Sweden;Kalmar län;56.5;Vissefjärda, Emmaboda;15.5;Emmaboda;Skogforsk;,Picea abies,
115899;130;Sweden;SkÃ¥ne län (Malmöhus);55.9;Knutstorp, Svalöv;13.1;Svalöv;Skogforsk;,Picea abies,
115900;195;Sweden;Jönköpings län;57.5;Fluxerum, Karlstorp, Vetlanda;15.5;Vetlanda;Skogforsk;,Picea abies,
115901;115;Sweden;SkÃ¥ne län (Kristianstad);55.6;Tunbyholm, Tomelilla;14.1;Tomelilla;Skogforsk;,Picea abies,
115902;60;Sweden;Hallands län;56.6;Tönnersjöheden, Halmstad;13;Halmstad;Skogforsk;,Picea abies,
115903;130;Sweden;SkÃ¥ne län (Malmöhus);55.9;Knutstorp, Svalöv;13.1;Svalöv;Skogforsk;,Picea abies,
115904;190;Sweden;Kronobergs län;57;Slätthög Moheda, Alvesta;14.5;Alvesta;Skogforsk;,Picea abies,
115905;190;Sweden;Kronobergs län;56.7;Slätthult, Lessebo;15.3;Lessebo;Skogforsk;,Picea abies,
115906;195;Sweden;Jönköpings län;57.5;Fluxerum, Karlstorp, Vetlanda;15.5;Vetlanda;Skogforsk;,Picea abies,
115907;155;Sweden;Kronobergs län;56.8;Förarp, Ljungby;14;Ljungby;Skogforsk;,Picea abies,
115908;130;Sweden;SkÃ¥ne län (Malmöhus);55.9;Knutstorp, Svalöv;13.1;Svalöv;Skogforsk;,Picea abies,
115909;175;Sweden;Kronobergs län;56.8;Öjaböke, Lidhult, Ljungby;13.4;Ljungby;Skogforsk;,Picea abies,
115910;80;Sweden;SkÃ¥ne län (Malmöhus);55.9;Sofielund, Svalöv;13;Svalöv;Skogforsk;,Picea abies,
115911;75;Sweden;Göteborgs och Bohus län;57.9;Ramsdalen 1:9, Stenungsund;11.9;Stenungsund;Skogforsk;,Picea abies,
115912;55;Sweden;Södermanlands län;58.9;Ängtorp, Katrineholm;16.1;Katrineholm;Skogforsk;,Picea abies,
115913;75;Sweden;Blekinge län;56.2;Tararp, Asarum, Karlshamn;14.8;Karlshamn;Skogforsk;,Picea abies,
115914;50;Sweden;SkÃ¥ne län (Kristianstad);56.1;Svartingstorp, Finja, Hässlehol;13.6;Hässleholm;Skogforsk;,Picea abies,
115915;150;Sweden;SkÃ¥ne län (Malmöhus);55.9;Ullstorps skogsvÃ¥rdsgÃ¥rd, HöÃ;13.5;Höör;Skogforsk;,Picea abies,
115916;140;Sweden;Hallands län;56.6;Egernahult, Laholm;13.3;Laholm;Skogforsk;,Picea abies,
115917;225;Sweden;Jönköpings län;57.2;Trollebo KursgÃ¥rd, Nye, Vetland;15.3;Vetlanda;Skogforsk;,Picea abies,
115918;70;Sweden;Blekinge län;56.3;Gammalstorp, Sölvesborg;15.3;Ronneby;Skogforsk;,Picea abies,
115919;180;Sweden;Kronobergs län;57.1;Asa skogsbruksgÃ¥rd, Växjö;14.8;Växjö;Skogforsk;,Picea abies,
115920;215;Sweden;Kronobergs län;57;Klasentorp, Slätthög, Alvesta;14.5;Alvesta;Skogforsk;,Picea abies,
115921;260;Sweden;Kronobergs län;56.9;Hökaskruv Ã…matorp 1, Lenhovda,;15.3;Uppvidinge;Skogforsk;,Picea abies,
115922;175;Sweden;Kronobergs län;56.7;Hjortseryd, VrÃ¥, Ljungby;13.3;Ljungby;Skogforsk;,Picea abies,
115923;160;Sweden;Kronobergs län;56.9;Ottarp, Ryssby, Ljungby;14.1;Ljungby;Skogforsk;,Picea abies,
115924;150;Sweden;Kronobergs län;56.6;Vedkärr, Nöbbele, Växjö;15;Växjö;Skogforsk;,Picea abies,
115925;150;Sweden;Kronobergs län;56.6;Vare, Virestad, Älmhult;14.3;Älmhult;Skogforsk;,Picea abies,
115926;180;Sweden;Kronobergs län;57.1;Asa, Växjö;14.8;Växjö;Skogforsk;,Picea abies,
115927;195;Sweden;Jönköpings län;57.5;Fluxerum, Karlstorp, Vetlanda;15.5;Vetlanda;Skogforsk;,Picea abies,
115928;140;Sweden;Kronobergs län;56.5;Ã…lshult, Tingsryd;14.6;Tingsryd;Skogforsk;,Picea abies,
115929;70;Sweden;SkÃ¥ne län (Malmöhus);56;Boserup, Bjuv;12.9;Bjuv;Skogforsk;,Picea abies,
115930;175;Sweden;Kronobergs län;56.8;Öjaböke, Lidhult, Ljungby;13.4;Ljungby;Skogforsk;,Picea abies,
115931;225;Sweden;Jönköpings län;57.5;Karlstorp (Bölö), Vetlanda;15.6;Vetlanda;Skogforsk;,Picea abies,
115932;130;Sweden;SkÃ¥ne län (Malmöhus);55.9;Kongalund, Svalöv;13.1;Svalöv;Skogforsk;,Picea abies,
115933;225;Sweden;Jönköpings län;57.5;Bölö, Karlstorp, Vetlanda;15.6;Vetlanda;Skogforsk;,Picea abies,
115934;270;Sweden;Östergötlands län;57.7;Västra Ryd, Ydre;15.2;Ydre;Skogforsk;,Picea abies,
115935;75;Sweden;SkÃ¥ne län (Malmöhus);55.9;Sofielund, Svalöv;13;Svalöv;Skogforsk;,Picea abies,
115936;110;Sweden;SkÃ¥ne län (Malmöhus);56;Vinterhusvägen, KÃ¥geröd, Sval;13;Svalöv;Skogforsk;,Picea abies,
115937;60;Sweden;Hallands län;56.9;Hjuleberg, Falkenberg;12.7;Falkenberg;Skogforsk;,Picea abies,
115938;225;Sweden;Jönköpings län;57.5;Bölö, Karlstorp, Vetlanda;15.6;Vetlanda;Skogforsk;,Picea abies,
115939;270;Sweden;Östergötlands län;57.7;Västra Ryd, Ydre;15.2;Ydre;Skogforsk;,Picea abies,
115940;110;Sweden;SkÃ¥ne län (Malmöhus);56;Mittvägen, KÃ¥geröd, Svalöv;13;Svalöv;Skogforsk;,Picea abies,
115941;40;Sweden;Södermanlands län;59;Ã…rdala, Flen;16.7;Flen;Skogforsk;,Picea abies,
115942;40;Sweden;Södermanlands län;59;Ã…rdala, Flen;16.7;Flen;Skogforsk;,Picea abies,
115943;270;Sweden;Östergötlands län;57.7;Västra Ryd, Ydre;15.2;Ydre;Skogforsk;,Picea abies,
115945;145;Sweden;SkÃ¥ne län (Malmöhus);56;Knutstorp-Bränningen, Svalöv;13.1;Svalöv;Skogforsk;,Picea abies,
115946;60;Sweden;Hallands län;56.9;Hjuleberg, Falkenberg;12.7;Falkenberg;Skogforsk;,Picea abies,
115947;10;Sweden;Västerbottens län;63.9;Sävar;20.5;UmeÃ¥;Skogforsk;,Picea abies,
115948;225;Sweden;Jönköpings län;57.5;Bölö, Karlstorp, Vetlanda;15.6;Vetlanda;Skogforsk;,Picea abies,
115949;235;Sweden;Jönköpings län;57.6;Tolarp, Ödestugu, Jönköping;14.3;Jönköping;Skogforsk;,Picea abies,
115950;150;Sweden;SkÃ¥ne län (Malmöhus);56;Knutstorp-Traneröd, Svalöv;13.1;Svalöv;Skogforsk;,Picea abies,
115951;130;Sweden;Hallands län;57.2;Karl Gustav, Varberg;12.5;Varberg;Skogforsk;,Picea abies,
115952;225;Sweden;Jönköpings län;57.5;Bölö, Karlstorp, Vetlanda;15.6;Vetlanda;Skogforsk;,Picea abies,
115953;150;Sweden;SkÃ¥ne län (Malmöhus);56;Knutstorp-Traneröd, Svalöv;13.1;Svalöv;Skogforsk;,Picea abies,
115954;130;Sweden;Hallands län;57.2;Karl Gustav, Varberg;12.5;Varberg;Skogforsk;,Picea abies,
115955;225;Sweden;Jönköpings län;57.5;Bölö, Karlstorp, Vetlanda;15.6;Vetlanda;Skogforsk;,Picea abies,
115956;155;Sweden;Kronobergs län;56.7;Nöbbele (Hassleslätt), Växjö;15;Växjö;Skogforsk;,Picea abies,
115957;110;Sweden;SkÃ¥ne län (Malmöhus);55.8;Hörby;13.6;Hörby;Skogforsk;,Picea abies,
115958;15;Sweden;Hallands län;56.7;Arlösa, Halmstad;12.9;Halmstad;Skogforsk;,Picea abies,
115959;225;Sweden;Jönköpings län;57.5;Bölö, Karlstorp, Vetlanda;15.6;Vetlanda;Skogforsk;,Picea abies,
115960;110;Sweden;SkÃ¥ne län (Malmöhus);55.8;Hörby;13.6;Hörby;Skogforsk;,Picea abies,
115964;180;Sweden;Östergötlands län;57.9;Torpa, Ydre;15.1;Ydre;Skogforsk;,Picea abies,
115965;180;Sweden;Jönköpings län;57.4;Alseda 10:1, Vetlanda;15.2;Vetlanda;Skogforsk;,Picea abies,
115966;140;Sweden;SkÃ¥ne län (Malmöhus);56;Vrams Gunnarstorp, Svalöv;13;Bjuv;Skogforsk;,Picea abies,
115967;170;Sweden;SkÃ¥ne län (Kristianstad);55.8;Huaröd, Kristianstad;13.9;Kristianstad;Skogforsk;,Picea abies,
115968;180;Sweden;Östergötlands län;57.9;Torpa, Ydre;15.1;Ydre;Skogforsk;,Picea abies,
115969;60;Sweden;Hallands län;56.9;Hjuleberg, Falkenberg;12.7;Falkenberg;Skogforsk;,Picea abies,
115970;270;Sweden;Jönköpings län;57.7;Hult SödergÃ¥rd, SmÃ¥l. Anneber;14.8;Nässjö;Skogforsk;,Picea abies,
115971;50;Sweden;Hallands län;56.9;Hjuleberg, Falkenberg;12.6;Falkenberg;Skogforsk;,Picea abies,
115972;100;Sweden;SkÃ¥ne län (Kristianstad);56;Brönnestad, Hässleholm;13.6;Hässleholm;Skogforsk;,Picea abies,
115973;100;Sweden;Gävleborgs län;60.4;Bastfallet, Österfärnebo;16.7;Sandviken;Skogforsk;,Picea abies,
115974;90;Sweden;Värmlands län;59.6;FLYGFÄLTET BRUNSBERG;12.9;Arvika;Skogforsk;,Picea abies,
115975;125;Sweden;Skaraborgs län;58.4;Remningstorp, Skara;13.6;Skara;Skogforsk;,Picea abies,
115976;270;Sweden;Jönköpings län;57.7;SmÃ¥lands Anneberg (Hult Söderg;14.8;Nässjö;Skogforsk;,Picea abies,
115977;50;Sweden;Hallands län;56.9;Hjuleberg, Falkenberg;12.6;Falkenberg;Skogforsk;,Picea abies,
115978;100;Sweden;SkÃ¥ne län (Kristianstad);56;Brönnestad, Hässleholm;13.6;Hässleholm;Skogforsk;,Picea abies,
115981;50;Sweden;Hallands län;56.9;Hjuleberg (Hästhagen), Falkenbe;12.7;Falkenberg;Skogforsk;,Picea abies,
115982;110;Sweden;SkÃ¥ne län (Kristianstad);55.9;Äsphult, Kristianstad;13.8;Kristianstad;Skogforsk;,Picea abies,
115983;150;Sweden;Skaraborgs län;58.7;Sätra Bruk, Karlsborg;14.3;Karlsborg;Skogforsk;,Picea abies,
115984;150;Sweden;Skaraborgs län;58.7;Sätra Bruk, Karlsborg;14.3;Karlsborg;Skogforsk;,Picea abies,
115985;185;Sweden;Jönköpings län;57.5;Mariannelund (Övrarp), Eksjö;15.6;Eksjö;Skogforsk;,Picea abies,
115986;170;Sweden;Kronobergs län;56.7;RamsÃ¥s, Agunnaryd, Ljungby;14.2;Ljungby;Skogforsk;,Picea abies,
115987;185;Sweden;Jönköpings län;57.5;Övrarp, Mariannelund, Eksjö;15.6;Eksjö;Skogforsk;,Picea abies,
115988;120;Sweden;Örebro län;59.7;GRIMSÖ-LINDESBERG;15.5;Lindesberg;Skogforsk;,Picea abies,
115989;100;Sweden;Gävleborgs län;60.4;Bastfallet, Österfärnebo;16.7;Sandviken;Skogforsk;,Picea abies,
115990;150;Sweden;Skaraborgs län;58.7;Sätra, Karlsborg;14.3;Karlsborg;Skogforsk;,Picea abies,
115991;100;Sweden;Gävleborgs län;60.4;Bastfallet, Österfärnebo;16.7;Sandviken;Skogforsk;,Picea abies,
115992;80;Sweden;Örebro län;59.5;KÃ…FALLA-LINDESBERG;15.4;Lindesberg;Skogforsk;,Picea abies,
115995;225;Sweden;Värmlands län;59.8;Salungen;12.7;Arvika;Skogforsk;,Picea abies,
115996;140;Sweden;Örebro län;59.7;Dunderbo, Lindesberg;15.3;Lindesberg;Skogforsk;,Picea abies,
115997;175;Sweden;Jönköpings län;57.5;Övrarp, Mariannelund, Eksjö;15.6;Eksjö;Skogforsk;,Picea abies,
115998;240;Sweden;Kopparbergs län;60.6;Nybo, Falun;15.5;Falun;Skogforsk;,Picea abies,
115999;175;Sweden;Värmlands län;60;Uddehom (Kampberget);13.6;Hagfors;Skogforsk;,Picea abies,
116000;75;Sweden;Örebro län;59.5;Storbo, Lindesberg;15.4;Lindesberg;Skogforsk;,Picea abies,
116010;80;Sweden;SkÃ¥ne län (Malmöhus);55.9;Bulstofta Jordkull, Svalöv;13;Svalöv;Skogforsk;,Picea abies,
116011;165;Sweden;Kalmar län;57.7;Södra Vi Stenshult, Vimmerby;15.7;Vimmerby;Skogforsk;,Picea abies,
116027;115;Sweden;SkÃ¥ne län (Kristianstad);56.4;Bökö, Örsjön, Osby;13.9;Osby;Skogforsk;,Picea abies,
116028;85;Sweden;SkÃ¥ne län (Malmöhus);55.9;Bulstofta, Svalöv;13;Svalöv;Skogforsk;,Picea abies,
116031;170;Sweden;SkÃ¥ne län (Malmöhus);55.8;Maltesholm, Kristianstad;13.9;;Skogforsk;,Picea abies,
116032;80;Sweden;Hallands län;56.6;Tönnersjö-Älvasjön, Halmstad;13.1;;Skogforsk;,Picea abies,
116033;150;Sweden;Kronobergs län;56.8;Engaholm, Alvesta;14.5;;Skogforsk;,Picea abies,
116034;170;Sweden;Östergötlands län;57.9;Torpa, Ydre;14.1;;Skogforsk;,Picea abies,
116035;140;Sweden;SkÃ¥ne län (Malmöhus);55.9;Knutstorps gods, Svalöv;13.1;;Skogforsk;,Picea abies,
116052;265;Sweden;Värmlands län;59.8;Salungen;12.7;;Skogforsk;,Picea abies,
116053;80;Sweden;Värmlands län;59.3;Brunsberg;12.5;;Skogforsk;,Picea abies,
116113;350;Sweden;Kopparbergs län;60.6;Backsälen, Malung;13.8;Malung;Skogforsk;,Picea abies,
116114;180;Sweden;Gävleborgs län;61.5;Nianfors, Hogdal;16.6;Hudiksvall;Skogforsk;,Picea abies,
116127;260;Sweden;Värmlands län;60.8;Kärrbackstrand, Höljes;12.6;Torsby;Skogforsk;,Picea abies,
116138;55;Sweden;Gävleborgs län;60.2;Nässja plantskola;16.7;Sandviken;Skogforsk;,Picea abies,
116139;95;Sweden;Skaraborgs län;58.5;RÃ¥da, Lidköping;13;Lidköping;Skogforsk;,Picea abies,
116140;145;Sweden;Örebro län;58.8;LAXÃ… VALLTORP;14.6;Askersund;Skogforsk;,Picea abies,
116157;135;Sweden;Gävleborgs län;60.4;ICKSVÄGEN NYSTILLA TORSÃ…KER;16.5;Hofors;Skogforsk;,Picea abies,
116174;230;Sweden;Värmlands län;59.8;Salungen;12.7;Arvika;Skogforsk;,Picea abies,
116175;120;Sweden;Örebro län;59.7;Grimsö;15.5;Lindesberg;Skogforsk;,Picea abies,
116177;110;Sweden;Örebro län;59.6;Morskoga;15.3;Lindesberg;Skogforsk;,Picea abies,
116178;375;Sweden;Kopparbergs län;60.9;Rostberget, Mora;14.3;Mora;Skogforsk;,Picea abies,
116179;315;Sweden;Värmlands län;59.8;Mangskog;12.8;Sunne;Skogforsk;,Picea abies,
116180;35;Sweden;Uppsala län;60.1;Skyttorp;17.7;Uppsala;Skogforsk;,Picea abies,
116181;20;Sweden;Stockholms län;59.5;ÖstanÃ¥;18.5;ÖsterÃ¥ker;Skogforsk;,Picea abies,
116203;270;Sweden;Gävleborgs län;61.2;ANNEFORS;16.1;Bollnäs;Skogforsk;,Picea abies,
116204;400;Sweden;Kopparbergs län;61.1;MORA;14.4;Mora;Skogforsk;,Picea abies,
116205;50;Sweden;Södermanlands län;58.9;KATRINEHOLM;16.2;Katrineholm;Skogforsk;,Picea abies,
116206;65;Sweden;Västmanlands län;59.7;SURAHAMMAR;16.2;Surahammar;Skogforsk;,Picea abies,
116207;55;Sweden;Uppsala län;60.4;SÖDERFORS;17.3;Tierp;Skogforsk;,Picea abies,
116208;175;Sweden;Örebro län;59.5;STRIBERG;14.9;Nora;Skogforsk;,Picea abies,
116209;95;Sweden;Värmlands län;59.6;BRUNSBERG, Ängstorpet;12.9;Arvika;Skogforsk;,Picea abies,
116214;195;Sweden;Västmanlands län;60.1;Norberg;15.7;;Skogforsk;,Picea abies,
116215;110;Sweden;Värmlands län;59.7;Bergaskogen;13.1;;Skogforsk;,Picea abies,
116216;55;Sweden;Uppsala län;60;Ã…kerlänna;17.3;;Skogforsk;,Picea abies,
116217;190;Sweden;Örebro län;59.6;Grythyttan;14.6;;Skogforsk;,Picea abies,
116218;60;Sweden;Gävleborgs län;60.2;Nässja;16.7;;Skogforsk;,Picea abies,
116219;10;Sweden;Uppsala län;59.6;Lugnet;17.5;;Skogforsk;,Picea abies,
116220;30;Sweden;Uppsala län;60;Vigle;17.5;;Skogforsk;,Picea abies,
116221;80;Sweden;Värmlands län;59.6;Brunsberg;12.9;;Skogforsk;,Picea abies,
116222;60;Sweden;Gävleborgs län;61.8;Friggesund;16.5;;Skogforsk;,Picea abies,
116223;110;Sweden;Västernorrlands län;63.4;GideÃ¥;19;;Skogforsk;,Picea abies,
116224;115;Sweden;Örebro län;59.6;Morskoga;15.3;Lindesberg;Skogforsk;,Picea abies,
116225;115;Sweden;Örebro län;59.6;Morskoga;15.3;Lindesberg;Skogforsk;,Picea abies,
116226;250;Sweden;Värmlands län;59.8;Mangskog;12.8;Arvika;Skogforsk;,Picea abies,
116227;240;Sweden;Värmlands län;60.1;Eriksfall, Torsby;12.8;Torsby;Skogforsk;,Picea abies,
116228;10;Sweden;Uppsala län;59.6;Lugnets pl.skola, BÃ¥lsta.;17.5;HÃ¥bo;Skogforsk;,Picea abies,
116229;525;Sweden;Kopparbergs län;61.4;Noppikoski, Skäftberget;14.7;Orsa;Skogforsk;,Picea abies,
116230;250;Sweden;Värmlands län;60.1;Eriksfall, Torsby;12.8;Torsby;Skogforsk;,Picea abies,
116231;230;Sweden;Värmlands län;60.1;Eriksfall, Torsby;12.8;Torsby;Skogforsk;,Picea abies,
116232;10;Sweden;Uppsala län;59.6;Lugnets pl.skola, BÃ¥lsta;17.5;HÃ¥bo;Skogforsk;,Picea abies,
116233;10;Sweden;Uppsala län;59.6;Lugnets pl.skola, BÃ¥lsta;17.5;Upplands-Bro;Skogforsk;,Picea abies,
116234;60;Sweden;Gävleborgs län;60.2;Hade (gravfältet);17;Gävle;Skogforsk;,Picea abies,
116235;120;Sweden;Örebro län;59.6;Morskoga;15.3;Lindesberg;Skogforsk;,Picea abies,
116236;15;Sweden;Stockholms län;59.5;Ã…lbrunna, Bro;17.5;Upplands-Bro;Skogforsk;,Picea abies,
116237;300;Sweden;Kopparbergs län;60.2;Grangärde, Görastorp;15.1;Ludvika;Skogforsk;,Picea abies,
116238;120;Sweden;Örebro län;59.6;MORSKOGA;15.3;Lindesberg;Skogforsk;,Picea abies,
116239;100;Sweden;Örebro län;59.2;LATORP, ÖREBRO;14.9;Örebro;Skogforsk;,Picea abies,
116240;10;Sweden;Uppsala län;59.6;Lugnets pl.skola, BÃ¥lsta;17.5;HÃ¥bo;Skogforsk;,Picea abies,
116241;210;Sweden;Värmlands län;60;RÃ¥dahöjden, Uddeholm.;13.5;Hagfors;Skogforsk;,Picea abies,
116242;75;Sweden;Gävleborgs län;60.2;Hade, flygfältet.;17;Gävle;Skogforsk;,Picea abies,
116243;315;Sweden;Kopparbergs län;60.2;Grangärde (Gillermarken);15.1;Ludvika;Skogforsk;,Picea abies,
116244;40;Sweden;Uppsala län;60.2;Gimo, Finnskogen;18;Östhammar;Skogforsk;,Picea abies,
116245;15;Sweden;Stockholms län;59.5;Ã…lbrunna, Bro;17.5;Upplands-Bro;Skogforsk;,Picea abies,
116249;490;Sweden;Västerbottens län;65.2;Juktfors, Storuman;17.4;;Skogforsk;,Picea abies,
116258;250;Sweden;Norrbottens län;66.6;Keroniemi;23.6;;Skogforsk;,Picea abies,
116259;380;Sweden;Västerbottens län;65;Lillholmträsk, MalÃ¥;19.1;;Skogforsk;,Picea abies,
116267;500;Sweden;Jämtlands län;64.5;Kvarntjärn Gäddede;14.1;Strömsund;Skogforsk;,Picea abies,
116268;35;Sweden;Norrbottens län;65.5;Rosfors;21.4;PiteÃ¥;Skogforsk;,Picea abies,
116269;420;Sweden;Jämtlands län;63.5;Bränndalsbodarna;15.1;Strömsund;Skogforsk;,Picea abies,
116270;635;Sweden;Jämtlands län;64.6;Sätertjärn Storfjället;13.8;Strömsund;Skogforsk;,Picea abies,
116282;160;Sweden;Västernorrlands län;63.4;Storstensmyren;18.8;Örnsköldsvik;Skogforsk;,Picea abies,
116283;190;Sweden;Västernorrlands län;63.2;Vik Drömme;18;Örnsköldsvik;Skogforsk;,Picea abies,
116285;410;Sweden;Västernorrlands län;63.3;Fjällbohög;16.3;SollefteÃ¥;Skogforsk;,Picea abies,
116295;115;Sweden;Västernorrlands län;62.7;Berglundstorpet;17.5;;Skogforsk;,Picea abies,
116309;360;Sweden;Norrbottens län;66.5;Suobbatvare;19.8;Jokkmokk;Skogforsk;,Picea abies,
116310;520;Sweden;Norrbottens län;65.7;Rönnberg;19.3;Arvidsjaur;Skogforsk;,Picea abies,
116311;350;Sweden;Värmlands län;60.8;Kärrbackstrand;12.6;Torsby;Skogforsk;,Picea abies,
116312;325;Sweden;Jämtlands län;63.6;Noräng;15.1;Strömsund;Skogforsk;,Picea abies,
116313;290;Sweden;Västernorrlands län;62.6;Rönnsjön;17.1;Sundsvall;Skogforsk;,Picea abies,
116314;550;Sweden;Västerbottens län;64.4;LÃ¥ngliden;18;Lycksele;Skogforsk;,Picea abies,
116315;425;Sweden;Jämtlands län;64;Kingen;14;Krokom;Skogforsk;,Picea abies,
116316;115;Sweden;Gävleborgs län;61.4;ArbrÃ¥;16.3;Bollnäs;Skogforsk;,Picea abies,
116317;350;Sweden;Värmlands län;60;Malmbackarna;13.9;Torsby;Skogforsk;,Picea abies,
116323;200;Sweden;Västernorrlands län;63.5;Sundmo Plantskola;16.6;;Skogforsk;,Picea abies,
116324;80;Sweden;Västernorrlands län;63.2;Nässetorpet;17.1;SollefteÃ¥;Skogforsk;,Picea abies,
116330;210;Sweden;Västernorrlands län;63;Minkelberget (del 2 Böle.);17;SollefteÃ¥;Skogforsk;,Picea abies,
116331;200;Sweden;Västernorrlands län;63.5;Sundmo Plantskola;16.6;;Skogforsk;,Picea abies,
116332;405;Sweden;Västerbottens län;64.4;Börtingtjärn;18.5;Lycksele;Skogforsk;,Picea abies,
116365;10;Sweden;Västerbottens län;63.9;Sävar;20.5;UmeÃ¥;Skogforsk;,Picea abies,
116366;10;Sweden;Västerbottens län;63.9;Sävar;20.5;UmeÃ¥;Skogforsk;,Picea abies,
116390;430;Sweden;Västerbottens län;64.8;Hornsjö;16;Vilhelmina;Skogforsk;,Picea abies,
116391;10;Sweden;Västerbottens län;63.8;Sävar (Holmen);20.5;UmeÃ¥;Skogforsk;,Picea abies,
116392;290;Sweden;Västernorrlands län;63.3;Skorped;17.6;Örnsköldsvik;Skogforsk;,Picea abies,
116452;240;Sweden;Västerbottens län;64.3;Bjursjön;20.3;SkellefteÃ¥;Skogforsk;,Picea abies,
116453;490;Sweden;Västerbottens län;64.4;Myrträsk;17.8;Lycksele;Skogforsk;,Picea abies,
116454;240;Sweden;Västernorrlands län;63;Lövsjön;16.9;SollefteÃ¥;Skogforsk;,Picea abies,
116455;415;Sweden;Jämtlands län;63.2;Lövhöjden;15.7;Ragunda;Skogforsk;,Picea abies,
116495;10;Sweden;Västerbottens län;63.8;Sävar (Holmen);20.5;UmeÃ¥;Skogforsk;,Picea abies,
116496;200;Sweden;Norrbottens län;67.1;Kolari;23.6;;Skogforsk;,Picea abies,
116497;230;Sweden;Norrbottens län;66.6;Pyhäjärvi;23.5;ÖvertorneÃ¥;Skogforsk;,Picea abies,
116498;425;Sweden;Jämtlands län;63.4;HäggenÃ¥s;14.9;Östersund;Skogforsk;,Picea abies,
116499;125;Sweden;Västernorrlands län;63.1;Helgum (Graninge);17;SollefteÃ¥;Skogforsk;,Picea abies,
116500;410;Sweden;Kopparbergs län;61.2;Labb-Djurberg;14.8;Orsa;Skogforsk;,Picea abies,
116501;170;Sweden;Kopparbergs län;60.8;Björka;14.6;Mora;Skogforsk;,Picea abies,
116503;325;Sweden;Västernorrlands län;62.9;Bastusjöberg;17.3;Härnösand;Skogforsk;,Picea abies,
116504;25;Sweden;Västerbottens län;64.2;Gumboda;20.9;Robertsfors;Skogforsk;,Picea abies,
116505;340;Sweden;Västerbottens län;64.3;Gäddträsk;18.7;Lycksele;Skogforsk;,Picea abies,
116506;165;Sweden;Västernorrlands län;63.2;Kläppen;18.2;Örnsköldsvik;Skogforsk;,Picea abies,
116514;490;Sweden;Norrbottens län;67;Ätnarova;20.2;Gällivare;Skogforsk;,Picea abies,
116515;185;Sweden;Norrbottens län;66.6;Pyhäjärvi;23.6;ÖvertorneÃ¥;Skogforsk;,Picea abies,
116516;325;Sweden;Västerbottens län;64.3;Vindeln;19.6;Vindeln;Skogforsk;,Picea abies,
116517;240;Sweden;Västernorrlands län;63.5;Hädanberg;18.2;Örnsköldsvik;Skogforsk;,Picea abies,
116583;100;Sweden;Västernorrlands län;63.4;GideÃ¥;19;Örnsköldsvik;Skogforsk;,Picea abies,
116597;180;Sweden;Västerbottens län;64.1;Brattfors;20.2;UmeÃ¥;Skogforsk;,Picea abies,
116598;100;Sweden;Norrbottens län;65.7;Älvsbyn;21.4;Boden;Skogforsk;,Picea abies,
116599;345;Sweden;Jämtlands län;62.7;VÃ¥le;14.9;Bräcke;Skogforsk;,Picea abies,
116600;75;Sweden;Västerbottens län;63.9;Piparböle;20.1;UmeÃ¥;Skogforsk;,Picea abies,
116606;280;Sweden;Västerbottens län;64.1;Kulbäcksliden;19.5;;Skogforsk;,Picea abies,
116607;285;Sweden;Västerbottens län;64.1;Kulbäcksliden;19.5;;Skogforsk;,Picea abies,
116608;280;Sweden;Västerbottens län;64.1;Kulbäcksliden;19.5;;Skogforsk;,Picea abies,
116609;280;Sweden;Västerbottens län;64.1;Kulbäcksliden;19.5;;Skogforsk;,Picea abies,
116613;315;Sweden;Västernorrlands län;63.1;Ledinge, Graninge (lokal 5);16.7;;Skogforsk;,Picea abies,
116614;195;Sweden;Västernorrlands län;63.1;Helgum, LÃ¥ngsele (lokal 6);16.9;;Skogforsk;,Picea abies,
116615;490;Sweden;Västerbottens län;65.2;Juktfors, Storuman (lokal 1);17.4;;Skogforsk;,Picea abies,
116616;380;Sweden;Västerbottens län;65;Lillholmträsk, MalÃ¥ (lokal 2);19.1;;Skogforsk;,Picea abies,
116617;90;Sweden;Västerbottens län;63.5;Lögdenäset, LögdeÃ¥ (lokal 4);19.3;;Skogforsk;,Picea abies,
116618;420;Sweden;Västerbottens län;64;Klippen, Fredrika (lokal 3);17.9;;Skogforsk;,Picea abies,
116620;170;Sweden;Kopparbergs län;60.8;Björka;14.6;Mora;Skogforsk;,Picea abies,
116621;410;Sweden;Kopparbergs län;61.2;Labb-Djurberg;14.8;Orsa;Skogforsk;,Picea abies,
116622;170;Sweden;Västernorrlands län;63.5;Björna;18.5;Örnsköldsvik;Skogforsk;,Picea abies,
116623;340;Sweden;Västernorrlands län;64;Hoting;16.1;Strömsund;Skogforsk;,Picea abies,
116624;210;Sweden;Norrbottens län;66.6;Ruokojärvi;23.2;ÖvertorneÃ¥;Skogforsk;,Picea abies,
116625;410;Sweden;Norrbottens län;65.6;Guorpaliden;19.5;Arvidsjaur;Skogforsk;,Picea abies,
116626;300;Sweden;Västernorrlands län;62.9;Bastusjöberg;17.2;Härnösand;Skogforsk;,Picea abies,
116627;140;Sweden;Västernorrlands län;63.2;Västby;16.7;SollefteÃ¥;Skogforsk;,Picea abies,
116628;340;Sweden;Västernorrlands län;64;Hoting;16.1;Strömsund;Skogforsk;,Picea abies,
116629;25;Sweden;Västerbottens län;64.2;Gumboda;20.9;Robertsfors;Skogforsk;,Picea abies,
116630;75;Sweden;SkÃ¥ne län (Kristianstad);56.1;Rössjöholm-Spirhult, Ängelhol;13;Klippan;Skogforsk;,Picea abies,
116631;75;Sweden;SkÃ¥ne län (Kristianstad);56.1;Rössjöholm-Spirhult, Ängelhol;13;Klippan;Skogforsk;,Picea abies,
116632;180;Sweden;Kronobergs län;56.4;Hermanstorp, Växjö;15;Tingsryd;Skogforsk;,Picea abies,
116633;180;Sweden;Kronobergs län;56.4;Hermanstorp, Växjö;15;Tingsryd;Skogforsk;,Picea abies,
116634;260;Sweden;Skaraborgs län;58.1;Mösseberg, Falköping;13.2;Falköping;Skogforsk;,Picea abies,
116635;260;Sweden;Skaraborgs län;58.1;Mösseberg, Falköping;13.2;Falköping;Skogforsk;,Picea abies,
116636;95;Sweden;SkÃ¥ne län (Malmöhus);56;Knutstorp, Svalöv;13;Svalöv;Skogforsk;,Picea abies,
116637;95;Sweden;SkÃ¥ne län (Malmöhus);56;Knutstorp, Svalöv;13;Svalöv;Skogforsk;,Picea abies,
116638;175;Sweden;SkÃ¥ne län (Kristianstad);56.2;Rössjöholm-Ã…rhult, Ängelholm;13;Klippan;Skogforsk;,Picea abies,
116639;175;Sweden;SkÃ¥ne län (Kristianstad);56.2;Rössjöholm-Ã…rhult, Ängelholm;13;Klippan;Skogforsk;,Picea abies,
116640;175;Sweden;SkÃ¥ne län (Kristianstad);56.2;Rössjöholm-Ã…rhult, Ängelholm;13;Klippan;Skogforsk;,Picea abies,
116641;175;Sweden;SkÃ¥ne län (Kristianstad);56.2;Rössjöholm-Ã…rhult, Ängelholm;13;Klippan;Skogforsk;,Picea abies,
116642;110;Sweden;Blekinge län;56.2;RingamÃ¥la, Karlshamn;14.4;Bromölla;Skogforsk;,Picea abies,
116643;110;Sweden;Blekinge län;56.2;RingamÃ¥la, Karlshamn;14.4;Bromölla;Skogforsk;,Picea abies,
116644;130;Sweden;Kalmar län;56.3;Emmaboda;15.3;Ronneby;Skogforsk;,Picea abies,
116645;130;Sweden;Kalmar län;56.3;Emmaboda;15.3;Ronneby;Skogforsk;,Picea abies,
116646;180;Sweden;Kronobergs län;56.4;Hermanstorp, Växjö;15;Ronneby;Skogforsk;,Picea abies,
116647;180;Sweden;Kronobergs län;56.4;Hermanstorp, Växjö;15;Ronneby;Skogforsk;,Picea abies,
116648;60;Sweden;Örebro län;59.3;Jönsarbo, Skinnskatteberg;15.4;Örebro;Skogforsk;,Picea abies,
116649;60;Sweden;Örebro län;59.3;Jönsarbo, Skinnskatteberg;15.4;Örebro;Skogforsk;,Picea abies,
116650;60;Sweden;Örebro län;59.3;Jönsarbo, Skinnskatteberg;15.4;Örebro;Skogforsk;,Picea abies,
116651;140;Sweden;SkÃ¥ne län (Malmöhus);56;Knutstorp, Svalöv;13.1;Svalöv;Skogforsk;,Picea abies,
116652;140;Sweden;SkÃ¥ne län (Malmöhus);56;Knutstorp, Svalöv;13.1;Svalöv;Skogforsk;,Picea abies,
116653;60;Sweden;Örebro län;59.6;Jönsarbo, Skinnskatteberg;15.7;Örebro;Skogforsk;,Picea abies,
116654;60;Sweden;Örebro län;59.6;Jönsarbo, Skinnskatteberg;15.7;Örebro;Skogforsk;,Picea abies,
116655;75;Sweden;SkÃ¥ne län (Kristianstad);56.1;Rössjöholm-Äspenäs, Ängelho;13;Ã…storp;Skogforsk;,Picea abies,
116656;75;Sweden;SkÃ¥ne län (Kristianstad);56.1;Rössjöholm-Äspenäs, Ängelho;13;Ã…storp;Skogforsk;,Picea abies,
116657;65;Sweden;Södermanlands län;59;Mälarskog, Solinge, VingÃ¥ker;15.4;Örebro;Skogforsk;,Picea abies,
116658;65;Sweden;Södermanlands län;59;Mälarskog, Solinge, VingÃ¥ker;15.4;Örebro;Skogforsk;,Picea abies,
116659;60;Sweden;Örebro län;59.3;Jönsarbo, Skinnskatteberg;15.4;Örebro;Skogforsk;,Picea abies,
116660;60;Sweden;Örebro län;59.3;Jönsarbo, Skinnskatteberg;15.4;Örebro;Skogforsk;,Picea abies,
116661;60;Sweden;Örebro län;59.3;Jönsarbo, Skinnskatteberg;15.4;Örebro;Skogforsk;,Picea abies,
116662;80;Sweden;Örebro län;59.4;Jönsarbo, Skinnskatteberg;15.4;Örebro;Skogforsk;,Picea abies,
116663;80;Sweden;Örebro län;59.4;Jönsarbo, Skinnskatteberg;15.4;Örebro;Skogforsk;,Picea abies,
116664;80;Sweden;Örebro län;59.4;Jönsarbo, Skinnskatteberg;15.4;Örebro;Skogforsk;,Picea abies,
116665;70;Sweden;Värmlands län;59.3;Billerud-Uddeholm, Dömle, Forsh;13.2;Karlstad;Skogforsk;,Picea abies,
116666;70;Sweden;Värmlands län;59.3;Billerud-Uddeholm, Dömle, Forsh;13.2;Karlstad;Skogforsk;,Picea abies,
116667;70;Sweden;Värmlands län;59.3;Billerud-Uddeholm, Dömle, Forsh;13.2;Karlstad;Skogforsk;,Picea abies,
116668;70;Sweden;Värmlands län;59.3;Billerud-Uddeholm, Dömle, Forsh;13.2;Karlstad;Skogforsk;,Picea abies,
116669;70;Sweden;Värmlands län;59.3;Billerud-Uddeholm, Dömle, Forsh;13.2;Karlstad;Skogforsk;,Picea abies,
116670;70;Sweden;Värmlands län;59.3;Billerud-Uddeholm, Dömle, Forsh;13.2;Karlstad;Skogforsk;,Picea abies,
116706;185;Sweden;Kronobergs län;57;Tagel avd 425, MistelÃ¥s, Alvest;14.3;;Skogforsk;,Picea abies,
116739;215;Sweden;Västernorrlands län;63.5;Vigdsjön;16.9;;Skogforsk;,Picea abies,
116740;100;Sweden;Västernorrlands län;63.1;Rödsta SollefteÃ¥;17.2;;Skogforsk;,Picea abies,
116741;200;Sweden;Västernorrlands län;63.5;Borinstorpet;16.7;;Skogforsk;,Picea abies,
116742;25;Sweden;Västernorrlands län;63.2;Järved;18.7;Örnsköldsvik;Skogforsk;,Picea abies,
116749;340;Sweden;Västernorrlands län;63.4;Resele;17.2;;Skogforsk;,Picea abies,
116750;200;Sweden;Västernorrlands län;63.5;SvanögÃ¥rden;16.7;;Skogforsk;,Picea abies,
116751;150;Sweden;Västernorrlands län;63.5;Ovanmo;16.4;;Skogforsk;,Picea abies,
116754;490;Sweden;Jämtlands län;63.6;Raftsjöhöjden;15;;Skogforsk;,Picea abies,
116760;15;Sweden;Västernorrlands län;62.8;Ramvik;17.8;;Skogforsk;,Picea abies,
116768;65;Sweden;Södermanlands län;58.7;VirÃ¥ bruk;16.4;Nyköping;Skogforsk;,Picea abies,
116769;525;Sweden;Kopparbergs län;61.4;Noppikoski, Skäftberget;14.7;Orsa;Skogforsk;,Picea abies,
116770;240;Sweden;Värmlands län;60.1;Eriksfall, Torsby;12.8;Torsby;Skogforsk;,Picea abies,
116775;95;Sweden;Västernorrlands län;63.5;GideÃ¥ bruk;19.1;;Skogforsk;,Picea abies,
116776;50;Sweden;Västerbottens län;64.1;Rönnäsvägen;19.6;;Skogforsk;,Picea abies,
116777;225;Sweden;Västernorrlands län;63.4;Valasjövägen;16.4;SollefteÃ¥;Skogforsk;,Picea abies,
116780;365;Sweden;Västernorrlands län;63.9;Övra;16.7;SollefteÃ¥;Skogforsk;,Picea abies,
116781;450;Sweden;Västerbottens län;63.9;Ã…kerberget;16.9;Ã…sele;Skogforsk;,Picea abies,
116782;470;Sweden;Västerbottens län;63.9;Ã…kerberget;16.9;Ã…sele;Skogforsk;,Picea abies,
116783;425;Sweden;Västerbottens län;64.5;MellanÃ¥s;16.5;Vilhelmina;Skogforsk;,Picea abies,
116785;225;Sweden;Västernorrlands län;63.4;Sel;16.4;SollefteÃ¥;Skogforsk;,Picea abies,
116786;365;Sweden;Västernorrlands län;63.9;Övra;16.7;SollefteÃ¥;Skogforsk;,Picea abies,
116787;450;Sweden;Västerbottens län;63.9;Ã…kerberget;16.8;Ã…sele;Skogforsk;,Picea abies,
116788;425;Sweden;Västerbottens län;64.5;MellanÃ¥s;16.5;Vilhelmina;Skogforsk;,Picea abies,
116789;350;Sweden;Jämtlands län;64.5;Kycklingvattnet;14.1;Strömsund;Skogforsk;,Picea abies,
116790;500;Sweden;Jämtlands län;64.5;Storbäcken Kycklingvattnet;14.1;Strömsund;Skogforsk;,Picea abies,
116806;175;Sweden;Värmlands län;59.5;MANGSKOG;12.1;;Skogforsk;,Picea abies,
116812;260;Sweden;Västerbottens län;64;Bjurholm;19;;Skogforsk;,Picea abies,
116820;325;Sweden;Västernorrlands län;64.3;Rotnäset;15.5;;Skogforsk;,Picea abies,
116858;190;Sweden;Värmlands län;59.5;Munkfors;13.2;;Skogforsk;,Picea abies,
116859;130;Sweden;;56.2;Farabol;14.3;;Skogforsk;,Picea abies,
116865;175;Sweden;#NAME?;57.2;Tranemo;13;;Skogforsk;,Picea abies,
116866;475;Sweden;Kopparbergs län;61;Transtrand;13.1;;Skogforsk;,Picea abies,
116867;160;Sweden;Kronobergs län;57;Dörarp;14;;Skogforsk;,Picea abies,
116868;350;Sweden;Gävleborgs län;61.1;Öjung-Voxna;15.3;;Skogforsk;,Picea abies,
116877;350;Sweden;Västernorrlands län;63.2;Ramsele;16.1;;Skogforsk;,Picea abies,
116881;170;Sweden;#NAME?;57.2;ÖrsÃ¥s;13;;Skogforsk;,Picea abies,
116882;110;Sweden;Göteborg och Bohus län;58.2;Uddevalla;11.4;;Skogforsk;,Picea abies,
116887;140;Sweden;#NAME?;57.1;HÃ¥cksvik;13.1;;Skogforsk;,Picea abies,
116890;210;Sweden;Kronobergs län;57.3;Lönneberga;15.3;;Skogforsk;,Picea abies,
116894;520;Sweden;Norrbottens län;65.4;Rönnberg;19.2;;Skogforsk;,Picea abies,
116901;115;Sweden;Kristianstads län;56.1;Snickaretorp;13.2;;Skogforsk;,Picea abies,
116912;135;Sweden;Hallands län;56.5;Torup;13;;Skogforsk;,Picea abies,
116914;96;Sweden;Hallands län;56.4;Ã…LED;12.5;;Skogforsk;,Picea abies,
116916;110;Sweden;Kristianstads län;56.1;Brekille;13;;Skogforsk;,Picea abies,
116917;100;Sweden;Kristianstads län;56.1;Össjö;13;;Skogforsk;,Picea abies,
116919;302;Sweden;Västernorrlands län;62;HASSEL;16.4;;Skogforsk;,Picea abies,
116923;415;Sweden;Kopparbergs län;60.5;Svartnäs;16;;Skogforsk;,Picea abies,
116924;;Sweden;Göteborg och Bohus län;0;Köttkulla;0;;Skogforsk;,Picea abies,
116925;410;Sweden;Gävleborgs län;61.4;Öjung;15.2;;Skogforsk;,Picea abies,
116926;225;Sweden;Kronobergs län;57;Asa;14.4;;Skogforsk;,Picea abies,
116927;75;Sweden;Malmöhus län;56;KÃ¥geröd;13;;Skogforsk;,Picea abies,
116928;;Sweden;Kronobergs län;57;Toftaholm;14;;Skogforsk;,Picea abies,
116929;225;Sweden;Kronobergs län;57;Asa;15;;Skogforsk;,Picea abies,
164840;98;Sweden;Hallands län;56.55;Skogaby;13.21;Laholm;SLU;,Picea abies,
164841;98;Sweden;Hallands län;56.56;Skogaby;13.22;Laholm;SLU;,Picea abies,
164844;150;Sweden;Blekinge län;56.43;Farabol;14.59;Olofström;SLU;,Picea abies,
164845;190;Sweden;Hallands län;56.38;Vallåsen;13;Laholm;SLU;,Picea abies,
164846;620;Sweden;Jämtlands län;62.02;Lofsdalen;13.52;Härjedalen;SLU;,Picea abies,
164850;300;Sweden;Värmlands län;59.85;Långban;14.24;Filipstad;SLU;,Picea abies,
164851;190;Sweden;Hallands län;56.39;Hasslöv;13;Laholm;SLU;,Picea abies,
164857;285;Sweden;Gävleborgs län;61.5;Ljusbergskil;16.14;Bollnäs;SLU;,Pinus sylvestris,Picea abies,
164859;240;Sweden;Kronobergs län;57.09;Åseda;15.51;Uppvidinge;SLU;,Picea abies,
164860;120;Sweden;Hallands län;56.63;Öringe;13.12;Halmstad;SLU;,Picea abies,
164861;40;Sweden;Uppsala län;60.14;Fäxboda;17.5;Uppsala;SLU;,Picea abies,
164862;240;Sweden;Kronobergs län;57.09;Åseda;15.51;Uppvidinge;SLU;,Picea abies,
164863;240;Sweden;Kronobergs län;57.09;Åseda;15.51;Uppvidinge;SLU;,Picea abies,
164864;240;Sweden;Kronobergs län;57.09;Åseda;15.51;Uppvidinge;SLU;,Picea abies,
164865;70;Sweden;Värmlands län;59.62;Karlshov;13.51;Forshaga;SLU;,Picea abies,
164866;35;Sweden;Skåne län;55.62;Veberöd;13.52;Sjöbo;SLU;,Picea abies,
164867;245;Sweden;Kronobergs län;57.15;Asa FP;14.75;Växjö;SLU;,Picea abies,
164868;180;Sweden;Kronobergs län;57.17;Asa FP;14.77;Växjö;SLU;,Picea abies,
164869;80;Sweden;Hallands län;56.69;Tönnersjöhedens FP;13.11;Halmstad;SLU;,Picea abies,
164870;60;Sweden;Hallands län;56.65;Strömma;13.05;Halmstad;SLU;,Picea abies,
164871;210;Sweden;Kronobergs län;57.16;Asa FP;14.77;Växjö;SLU;,Picea abies,
164872;175;Sweden;Kronobergs län;57.17;Asa FP;14.78;Växjö;SLU;,Picea abies,
164873;255;Sweden;Kronobergs län;57.15;Asa FP;14.77;Växjö;SLU;,Picea abies,
164874;205;Sweden;Kronobergs län;57.14;Asa FP;14.79;Växjö;SLU;,Picea abies,
164882;460;Sweden;Dalarnas län;60.78;Sälsjöarna;14.4;Mora;SLU;,Betula pendula,Larix sukaczewii,Picea abies,Pinus contorta,Pinus sylvestris,
164883;350;Sweden;Dalarnas län;60.72;Görsjön;14.32;Mora;SLU;,Betula pendula,Larix sukaczewii,Picea abies,Pinus contorta,Pinus sylvestris,
164884;120;Sweden;Västerbottens län;64.17;Vindeln;19.91;Vindeln;SLU;,Betula,Picea abies,
164887;175;Sweden;Kronobergs län;57.17;Asa FP;14.78;Växjö;SLU;,Picea abies,Pinus sylvestris,
164889;160;Sweden;Kronobergs län;56.72;Vråskogen;13.33;Ljungby;SLU;,Picea abies,
164905;55;Sweden;Skåne län;55.55;Snogeholm;13.7;Sjöbo;SLU;,Acer platanoides,Alnus glutinosa,Betula pendula,Betula pubescens,Carpinus betulus,Fagus sylvatica,Fraxinus excelsior,Larix x eurolepis,Malus silvestris,Picea abies,Pinus sylvestris,Populus x wettsteinii,Populus tremula,Prunus avium,Quercus petraea,Quercus robur,Salix caprea,Sorbus aucuparia,Sorbus intermedia,Taxus baccata,Tilia cordata,Ulmus glabra,
164907;115;Sweden;Hallands län;56.7;Tönnersjöhedens FP;13.11;Halmstad;SLU;,Picea abies,
164908;240;Sweden;Kronobergs län;57.14;Asa FP;14.78;Växjö;SLU;,Betula,Picea abies,
164909;140;Sweden;Skåne län;55.89;Fulltofta;13.71;Hörby;SLU;,Betula,Picea abies,
164910;100;Sweden;Skåne län;55.9;Fulltofta;13.64;Hörby;SLU;,Betula,Picea abies,
164913;175;Sweden;Kronobergs län;57.18;Asa FP;14.77;Växjö;SLU;,Picea abies,
164916;45;Sweden;Skåne län;56.15;Killeboda;14.19;Kristianstad;SLU;,Acer platanoides,Alnus glutinosa,Betula pendula,Carpinus betulus,Corylus avellana,Fagus sylvatica,Fraxinus excelsior,Picea abies,Populus tremula,Prunus avium,Prunus padus,Quercus robur,Ulmus glabra,
164917;140;Sweden;Kronobergs län;56.46;Ryd,Vrånga böke;14.72;Tingsryd;SLU;,Acer platanoides,Alnus glutinosa,Betula pendula,Betula pubescens,Corylus avellana,Fraxinus excelsior,Picea abies,Populus tremula,Quercus robur,Sorbus aucuparia,Sorbus intermedia,Tilia cordata,
164918;180;Sweden;Kronobergs län;56.54;Perstorp;15.08;Tingsryd;SLU;,Alnus glutinosa,Fagus sylvatica,Picea abies,Populus tremula,Quercus robur,Sorbus aucuparia,
164932;80;Sweden;Hallands län;56.69;Tönnersjöhedens FP;13.1;Halmstad;SLU;,Picea abies,
164933;80;Sweden;Hallands län;56.69;Tönnersjöhedens FP;13.11;Halmstad;SLU;,Picea abies,
164934;240;Sweden;Kronobergs län;57.15;Asa FP;14.76;Växjö;SLU;,Picea abies,
164935;180;Sweden;Kronobergs län;57.17;Asa FP;14.77;Växjö;SLU;,Picea abies,
164936;100;Sweden;Hallands län;56.7;Tönnersjöhedens FP;13.11;Halmstad;SLU;,Acer platanoides,Fagus sylvatica,Fraxinus excelsior,Picea abies,Prunus avium,Quercus robur,Tilia cordata,
164937;85;Sweden;Hallands län;57.14;Åkulla;12.57;Varberg;SLU;,Acer platanoides,Fagus sylvatica,Fraxinus excelsior,Picea abies,Prunus avium,Quercus robur,Tilia cordata,
164938;120;Sweden;Skåne län;55.9;Fulltofta;13.65;Hörby;SLU;,Alnus glutinosa,Acer platanoides,Fagus sylvatica,Fraxinus excelsior,Picea abies,Prunus avium,Quercus robur,Tilia cordata,
164939;105;Sweden;Skåne län;55.83;Skarhults FP;13.4;Eslöv;SLU;,Acer platanoides,Fagus sylvatica,Fraxinus excelsior,Larix x eurolepis,Picea abies,Prunus avium,Quercus robur,Tilia cordata,
164940;80;Sweden;Skåne län;55.68;Högestad;13.6;Sjöbo;SLU;,Acer platanoides,Alnus glutinosa,Betula pendula,Fagus sylvatica,Fraxinus excelsior,Larix x eurolepis,Picea abies,Prunus avium,Quercus robur,Tilia cordata,
164943;30;Sweden;Östergötlands län;58.52;Rövarborgen;16.08;Norrköping;SLU;,Alnus glutinosa,Betula,Corylus avellana,Picea abies,Pinus sylvestris,Quercus robur,Salix caprea,Salix,Sorbus aucuparia,Sorbus intermedia,
164944;185;Sweden;Jönköpings län;57.3;Trollebo;15.29;Vetlanda;SLU;,Betula,Corylus avellana,Fagus sylvatica,Picea abies,Pinus sylvestris,Populus tremula,Prunus avium,Quercus robur,Salix caprea,Salix,Sorbus intermedia,Sorbus aucuparia,
164945;230;Sweden;Kronobergs län;57.14;Asa;14.83;Växjö;SLU;,Betula,Picea abies,Pinus sylvestris,Populus tremula,Quercus robur,Salix caprea,Salix,Sorbus intermedia,Sorbus aucuparia,
164946;70;Sweden;Gotlands län;57.32;Autsarve;18.35;Gotland;SLU;,Betula,Picea abies,Pinus sylvestris,
164947;100;Sweden;Blekinge län;56.36;Hjortseryd;15.3;Ronneby;SLU;,Betula,Fagus sylvatica,Picea abies,Pinus sylvestris,Quercus robur,Salix caprea,Salix,Sorbus intermedia,Sorbus aucuparia,
164948;150;Sweden;Skåne län;56.44;Lönsboda;14.35;Osby;SLU;,Betula,Fagus sylvatica,Picea abies,Pinus sylvestris,Populus tremula,Salix caprea,Sorbus intermedia,Sorbus aucuparia,
164949;110;Sweden;Västra Götalands län;58.39;Uddevalla;11.78;Uddevalla;SLU;,Betula,Larix,Picea abies,Pinus sylvestris,Prunus avium,Quercus robur,Salix caprea,Salix,Sorbus intermedia,Sorbus aucuparia,
164950;175;Sweden;Västra Götalands län;57.47;Svenljunga;13.15;Svenljunga;SLU;,Betula,Picea abies,Pinus sylvestris,Populus tremula,Quercus robur,Salix caprea,Salix,Sorbus intermedia,Sorbus aucuparia,
164951;70;Sweden;Västra Götalands län;58.67;Leksberg;13.79;Mariestad;SLU;,Betula,Larix,Picea abies,Pinus sylvestris,Quercus robur,Salix caprea,Salix,Sorbus intermedia,Sorbus aucuparia,
164954;120;Sweden;Örebro län;58.95;V Molången;15.31;Hallsberg;SLU;,Betula,Picea abies,Pinus sylvestris,Populus tremula,Salix,Sorbus aucuparia,
164957;285;Sweden;Dalarnas län;60.91;Siljansfors FP;14.37;Mora;SLU;,Picea abies,Pinus sylvestris,
164958;240;Sweden;Västernorrlands län;62.47;Höganäs;15.93;Ånge;SLU;,Betula,Picea abies,Pinus sylvestris,
164959;290;Sweden;Jämtlands län;63.75;Sör-Sporrsjön;15.74;Strömsund;SLU;,Picea abies,Pinus sylvestris,
164960;235;Sweden;Jämtlands län;62.77;Strandåker;16.11;Bräcke;SLU;,Picea abies,Pinus sylvestris,
164961;145;Sweden;Västerbottens län;64.08;Trolltjärnsberg;20.3;Umeå;SLU;,Betula,Picea abies,Pinus sylvestris,
164962;340;Sweden;Västerbottens län;64.57;Orrkulla;18.41;Lycksele;SLU;,Betula,Picea abies,Pinus sylvestris,
164963;230;Sweden;Norrbottens län;67.3;Käryvaara;23.43;Pajala;SLU;,Betula,Picea abies,Pinus sylvestris,
164964;175;Sweden;Kronobergs län;57.18;Asa FP;14.77;Växjö;SLU;,Picea abies,
164965;120;Sweden;Hallands län;56.54;Skogaby;13.22;Laholm;SLU;,Picea abies,Pinus sylvestris,
164968;70;Sweden;Hallands län;56.69;Tönnersjöhedens FP;13.08;Halmstad;SLU;,Picea abies,
164970;60;Sweden;Hallands län;56.65;Tönnersjöhedens FP;13.06;Halmstad;SLU;,Picea abies,
164971;70;Sweden;Hallands län;56.68;Tönnersjöhedens FP;13.08;Halmstad;SLU;,Picea abies,
164973;270;Sweden;Västerbottens län;64.27;Lappkuliden;19.66;Vindeln;SLU;,Picea abies,
164982;125;Sweden;Västerbottens län;64.12;Rödå;19.95;Vindeln;SLU;,Picea abies,
165002;150;Sweden;Gävleborgs län;62.14;Årskogen;17.26;Nordanstig;SLU;,Picea abies,
165003;155;Sweden;Gävleborgs län;62.09;Korrbäcksv.;17.24;Nordanstig;SLU;,Picea abies,
165024;270;Sweden;Västerbottens län;64.27;Lappkuliden;19.66;Vindeln;SLU;,Picea abies,
165026;280;Sweden;Västerbottens län;64.17;Kulbäckslidens FP;19.6;Vindeln;SLU;,Picea abies,
165027;265;Sweden;Västerbottens län;64.17;Kulbäckslidens FP;19.6;Vindeln;SLU;,Picea abies,
165028;290;Sweden;Västerbottens län;64.17;Kulbäckslidens FP;19.6;Vindeln;SLU;,Picea abies,
165049;225;Sweden;Kronobergs län;57.05;Aneboda;14.56;Växjö;SLU;,Picea abies,
165050;478;Sweden;Västernorrlands län;63.86;Gammtratten;18.13;Örnsköldsvik;SLU;,Picea abies,
165051;364;Sweden;Örebro län;59.75;Kindla;14.91;Lindesberg;SLU;,Picea abies,
165052;50;Sweden;Södermanlands län;59.32;Ribbingelund;16.71;Eskilstuna;SLU;,Picea abies,
165054;165;Sweden;Kalmar län;57.6;Rostorp;15.78;Vimmerby;SLU;,Picea abies,
165059;;Sweden;Stockholms län;59.5;Singö ;18.35;Österåker;SLU;,Picea abies,
165060;10;Sweden;Stockholms län;59.42;Bogesund;18.18;Österåker;SLU;,Picea abies,
165061;10;Sweden;Stockholms län;59.42;Bogesund;18.18;Österåker;SLU;,Picea abies,
165062;35;Sweden;Södermanlands län;58.82;Tistad;16.91;Nyköpng;SLU;,Picea abies,
165063;35;Sweden;Södermanlands län;58.82;Tistad;16.91;Nyköpng;SLU;,Picea abies,
165064;125;Sweden;Västra Götalands län;58.79;Västanmoss;14.18;Hova;SLU;,Picea abies,
165065;125;Sweden;Västra Götalands län;58.79;Västanmoss;14.18;Hova;SLU;,Picea abies,
165066;125;Sweden;Västra Götalands län;58.79;Västanmoss;14.18;Hova;SLU;,Picea abies,
165067;125;Sweden;Västra Götalands län;58.79;Västanmoss;14.18;Hova;SLU;,Picea abies,
165068;125;Sweden;Västra Götalands län;58.79;Västanmoss;14.18;Hova;SLU;,Picea abies,
165069;45;Sweden;Gävleborgs län;61.65;Rödmyra;16.97;Hudiksvall;SLU;,Picea abies,
165070;60;Sweden;Västra Götalands län;0;Skrapeland;0;Munkedal;SLU;,Picea abies,
165071;30;Sweden;Stockholms län;59.63;Frösunda;18.15;Vallentuna;SLU;,Picea abies,
165072;30;Sweden;Stockholms län;59.63;Frösunda;18.24;Vallentuna;SLU;,Picea abies,
165073;125;Sweden;Västra Götalands län;58.78;Västanmoss;14.18;Hova;SLU;,Picea abies,
165081;;Sweden;Stockholms län;59.42;Bogesund;18.18;Österåker;SLU;,Picea abies,
165082;;Sweden;Stockholms län;59.42;Bogesund;18.19;Österåker;SLU;,Picea abies,
165083;10;Sweden;Stockholms län;59.43;Bogesund;18.19;Österåker;SLU;,Picea abies,
165085;20;Sweden;Stockholms län;59.26;Älgön;17.37;Södertälje;SLU;,Picea abies,
165090;20;Sweden;Stockholms län;59.42;Bogesund;18.17;Vaxholm;SLU;,Picea abies,
165091;65;Sweden;Södermanlands län;59;Vitmossen;15.9;Vingåker;SLU;,Picea abies,
165092;40;Sweden;Stockholms län;59.16;Hall;17.68;Södertälje;SLU;,Picea abies,
165093;40;Sweden;Örebro län;59.13;Dimbo;15.76;Kumla;SLU;,Picea abies,
165094;55;Sweden;Västra Götalands län;58.57;Skrapeland;11.66;Uddevalla;SLU;,Picea abies,
165095;35;Sweden;Södermanlands län;58.82;Tistad;16.9;Nyköping;SLU;,Picea abies,
165096;15;Sweden;Stockholms län;59.42;Bogesund;18.17;Vaxholm;SLU;,Picea abies,
165097;;Sweden;Värmlands län;0;Apertin;0;Kil;SLU;,Picea abies,
165098;;Sweden;Värmlands län;0;Apertin;0;Kil;SLU;,Picea abies,
165099;;Sweden;Värmlands län;0;Sörmon;0;Karlstad;SLU;,Picea abies,
165101;180;Sweden;Jämtlands län;63.02;Prästbordet;16.64;Ragunda;SLU;,Picea abies,Pinus sylvestris,
165112;100;Sweden;Jönköpings län;58.04;Visingsö;14.34;Jönköping;SLU;,Picea abies,Pinus sylvestris,
165113;100;Sweden;Jönköpings län;58.04;Visingsö;14.34;Jönköping;SLU;,Picea abies,Pinus sylvestris,
165116;270;Sweden;Jämtlands län;64.08;Bosundskog;16.26;Strömsund;SLU;,Picea abies,
165117;330;Sweden;Jämtlands län;64.06;Bosundskog;16.3;Strömsund;SLU;,Picea abies,
165118;330;Sweden;Jämtlands län;64.06;Bosundskog;16.3;Strömsund;SLU;,Picea abies,
165129;140;Sweden;Gävleborgs län;60.46;Kratte Masu;16.36;Hofors;SLU;,Picea abies,
165132;360;Sweden;Jämtlands län;63.45;Offerdal;13.98;Krokom;SLU;,Picea abies,
165138;410;Sweden;Jämtlands län;64.43;Fiskåvattnets renbetesland;14.75;Strömsund;SLU;,Picea abies,
165139;450;Sweden;Jämtlands län;64.44;Klumpvattnets renbetesland;14.76;Strömsund;SLU;,Picea abies,
165140;175;Sweden;Dalarnas län;60.27;Garpenberg;16.18;Hedemora;SLU;,Picea abies,
165146;90;Sweden;Västernorrlands län;62.7;Utanö;18.09;Härnösand;SLU;,Picea abies,
165158;170;Sweden;Dalarnas län;60.27;Garpenberg;16.18;Hedemora;SLU;,Picea abies,
165169;120;Sweden;Skåne län;56.25;Skärsnäs;14.4;Kristianstad;SLU;,Picea abies,
165170;140;Sweden;Skåne län;55.75;Snärpe;13.99;Tomelilla;SLU;,Picea abies,
165171;310;Sweden;Jämtlands län;63.22;Västerhus;14.49;Östersund;SLU;,Picea abies,
165193;120;Sweden;Värmlands län;59.49;Lungsund;14.22;Hagfors;SLU;,Picea abies,
165196;150;Sweden;Örebro län;58.86;Laxå;14.68;Askersund;SLU;,Picea abies,
165205;2;Sweden;Gävleborgs län;61.69;Gackerön;17.3;Hudiksvall;SLU;,Picea abies,
165211;120;Sweden;Skåne län;56.15;Tyringe;13.58;Hässleholm;SLU;,Picea abies,
165212;60;Sweden;Skåne län;56.2;Ishult;13.22;Klippan;SLU;,Picea abies,
165217;50;Sweden;Västernorrlands län;63.25;Själevad;18.74;Örnsköldsvik;SLU;,Picea abies,
165224;200;Sweden;Hallands län;56.36;Vallåsen;13.07;Laholm;SLU;,Picea abies,
165234;120;Sweden;Örebro län;59.13;Nysund;14.49;Degerfors;SLU;,Picea abies,
165235;150;Sweden;Värmlands län;59.25;Prästgården/Blomskog;12.04;Årjäng;SLU;,Picea abies,
165240;140;Sweden;Kronobergs län;56.76;Agunnaryd/Stensjöholm;14.13;Ljungby;SLU;,Picea abies,
165242;150;Sweden;Kronobergs län;56.79;Huseby;14.63;Alvesta;SLU;,Picea abies,
165243;180;Sweden;Kronobergs län;56.79;Bondetorp;14.63;Alvesta;SLU;,Picea abies,
165245;410;Sweden;Jämtlands län;64.43;Fiskåvattnets renbetesland;14.75;Strömsund;SLU;,Picea abies,
165260;180;Sweden;Hallands län;56.93;Övraböke;12.94;Halmstad;SLU;,Picea abies,
165261;160;Sweden;Kronobergs län;56.72;Grytsjön;13.38;Ljungby;SLU;,Picea abies,
165262;100;Sweden;Hallands län;56.56;Skogaby;13.21;Laholm;SLU;,Picea abies,
165284;185;Sweden;Värmlands län;59.89;Gunnarskog, Treskog;12.64;Arvika;SLU;,Picea abies,
165285;260;Sweden;Örebro län;59.42;Skrikarboda;14.99;Kil;SLU;,Picea abies,
165300;335;Sweden;Dalarnas län;60.91;Dådran;15.52;Bingsjö;SLU;,Picea abies,
165301;150;Sweden;Västra Götalands län;57.84;Södra Vist;13.34;Ulricehamn;SLU;,Picea abies,
165303;180;Sweden;Kronobergs län;57;Rottne;14.87;Säraby;SLU;,Betula,Picea abies,
165307;180;Sweden;Dalarnas län;60.52;Skålbo;16.13;Hofors;SLU;,Picea abies,
165317;120;Sweden;Östergötlands län;58.23;Banketorp;15.81;Vist;SLU;,Picea abies,
165319;215;Sweden;Kronobergs län;56.96;Kråkenäs;14.95;Gårdsby;SLU;,Picea abies,
165321;125;Sweden;Västra Götalands län;58.98;Naverstad;11.84;Tanum;SLU;,Picea abies,
165329;450;Sweden;Västerbottens län;64.67;Björkberget;17.8;Lycksele;SLU;,Picea abies,
165332;300;Sweden;Västerbottens län;64.26;Lövliden;19.51;Vindeln;SLU;,Picea abies,
165343;60;Sweden;Örebro län;59.13;Segersjö;15.63;Vingåker;SLU;,Picea abies,
165344;150;Sweden;Västra Götalands län;58.61;Karlås;14.28;Töreboda;SLU;,Picea abies,
165347;220;Sweden;Dalarnas län;60.17;Garpenberg;16.19;Hedemora;SLU;,Picea abies,
165348;;Sweden;Norrbottens län;0;Övertårneå;0;Övertorneå;SLU;,Picea abies,
165354;130;Sweden;Västra Götalands län;58.42;Skålltorp;13.56;Skara;SLU;,Picea abies,
165458;190;Sweden;Kronobergs län;56.75;Värnlanda;15.04;Växjö;SLU;,Picea abies,
165459;440;Sweden;Västerbottens län;64.39;Avaträsk;16.24;Dorotea;SLU;,Picea abies,
165460;150;Sweden;Kronobergs län;56.73;Kringlemon;15.06;Växjö;SLU;,Picea abies,
165461;200;Sweden;Gävleborgs län;60.44;Ovansjö;16.35;Sandviken;SLU;,Picea abies,
165462;290;Sweden;Jönköpings län;57.8;Bottnaryd;13.82;Jönköping;SLU;,Picea abies,
165467;540;Sweden;Västerbottens län;64.14;Storsjö;17.61;Åsele;SLU;,Picea abies,
165468;540;Sweden;Västerbottens län;64.14;Storsjö;17.61;Åsele;SLU;,Picea abies,
165472;350;Sweden;Norrbottens län;66.37;Blåkölen;21.65;Boden;SLU;,Picea abies,
165473;425;Sweden;Västerbottens län;64.86;Bodan;19.37;Norsjö;SLU;,Picea abies,
165476;75;Sweden;Östergötlands län;58.78;Myckelmossa;16.11;Norrköping;SLU;,Pinus sylvestris,Picea abies,
165477;80;Sweden;Östergötlands län;58.76;Rippestorpsvägen;15.97;Finspång;SLU;,Pinus sylvestris,Picea abies,
165478;480;Sweden;Jämtlands län;62.71;Brynje;14.56;Berg;SLU;,Pinus sylvestris,Picea abies,
165479;330;Sweden;Västernorrlands län;63.47;Håsjö;16.22;Sollefteå;SLU;,Picea abies,
165481;365;Sweden;Jämtlands län;63.73;Lomåsen;15.05;Strömsund;SLU;,Picea abies,
165483;260;Sweden;Norrbottens län;66.63;Storlandet;21.78;Gällivare;SLU;,Picea abies,
165485;330;Sweden;Jämtlands län;64.36;Svedje;15.64;Strömsund;SLU;,Picea abies,
165486;430;Sweden;Västerbottens län;64.26;Bjurselberget;18.31;Åsele;SLU;,Picea abies,
165488;440;Sweden;Jämtlands län;63.43;Björkheden;16.06;Ragunda;SLU;,Picea abies,
165489;330;Sweden;Jämtlands län;63.37;Faxnälden;14.24;Krokom;SLU;,Picea abies,
165490;430;Sweden;Västerbottens län;64.26;Bjurselberget;18.31;Åsele;SLU;,Picea abies,
165491;460;Sweden;Västerbottens län;64.39;Avaträsk;16.24;Dorotea;SLU;,Picea abies,
165495;17;Sweden;Kronobergs län;57.14;Asa;14.8;Växjö;SLU;,Picea abies,
165498;330;Sweden;Jämtlands län;63.14;Fillsta;14.54;Östersund;SLU;,Picea abies,
165504;620;Sweden;Jämtlands län;62.59;Österåsen;14.28;Åsarne;SLU;,Picea abies,
165505;80;Sweden;Värmlands län;59.45;Strand;12.85;Säffle;SLU;,Picea abies,
165507;290;Sweden;Västerbottens län;64.16;Kulbäckslidens FP;19.58;Vindeln;SLU;,Picea abies,
165510;200;Sweden;Västerbottens län;64.18;Kulbäckslidens FP;19.61;Vindeln;SLU;,Picea abies,
165511;310;Sweden;Västerbottens län;65.09;Tväråträsklid;20.55;Skellefteå;SLU;,Picea abies,
165512;385;Sweden;Västerbottens län;64.23;Laiksjö;16.6;Dorotea;SLU;,Picea abies,
165515;85;Sweden;Gävleborgs län;60.42;Målbo;16.83;Gävle;SLU;,Betula,Picea abies,
165516;100;Sweden;Värmlands län;59.19;Gårdsjö;12.54;Säffle;SLU;,Betula,Picea abies,
165517;260;Sweden;Västerbottens län;64.31;Nya Sandtorp;19.74;Vindeln;SLU;,Betula,Picea abies,
165518;160;Sweden;Dalarnas län;60.38;Fäggeby;15.86;Säter;SLU;,Betula,Picea abies,
165519;180;Sweden;Gävleborgs län;60.53;Edskevallen;16.24;Hofors;SLU;,Betula,Picea abies,
165520;150;Sweden;Dalarnas län;60.48;Långshyttan;16.09;Hedemora;SLU;,Betula,Picea abies,
165521;335;Sweden;Dalarnas län;60.59;Bingsjö;15.38;Rättvik;SLU;,Betula,Picea abies,
165522;170;Sweden;Kronobergs län;56.82;Huseby;14.68;Växjö;SLU;,Betula,Picea abies,
165523;150;Sweden;Kronobergs län;56.64;Diö;14.25;Älmhult;SLU;,Betula,Picea abies,
165524;110;Sweden;Västra Götalands län;57.89;Östad;12.26;Alingsås;SLU;,Betula,Picea abies,
165526;170;Sweden;Värmlands län;60.05;Hagfors;13.47;Hagfors;SLU;,Betula,Picea abies,
165527;150;Sweden;Värmlands län;60.05;Hagfors;13.48;Hagfors;SLU;,Betula,Picea abies,
165528;55;Sweden;Skåne län;55.52;Krageholm;13.78;Ystad;SLU;,Fagus sylvatica,Picea abies,
165529;105;Sweden;Skåne län;56.05;Vanneberga;13.92;Hässleholm;SLU;,Fagus sylvatica,Picea abies,
165530;140;Sweden;Hallands län;56.76;Vinsåsen;12.92;Halmstad;SLU;,Picea abies,
165531;80;Sweden;Örebro län;60.07;Dimbo;15.47;Örebro;SLU;,Picea abies,
165532;190;Sweden;Kronobergs län;56.89;Fylleryd;14.85;Växjö;SLU;,Picea abies,
165533;110;Sweden;Jönköpings län;58.04;Visingsö;14.35;Visingsö;SLU;,Abies grandis,Picea abies,
165534;80;Sweden;Hallands län;56.8;Susegården;12.81;Halmstad;SLU;,Abies alba,Abies grandis,Larix decidua,Larix kaempferi,Picea abies,Picea omorika,Picea sitchensis,Pinus contorta,Pinus sylvestris,
165536;245;Sweden;Dalarnas län;60.9;Siljansfors FP;14.37;Mora;SLU;,Picea abies,
165537;80;Sweden;Gävleborgs län;60.5;Främlingshem;16.91;Sandviken;SLU;,Picea abies,Pinus sylvestris,
165538;510;Sweden;Norrbottens län;65.98;Lilla Laxsjön;18.36;Arjeplog;SLU;,Picea abies,Pinus sylvestris,
165549;220;Sweden;Dalarnas län;60.89;Siljansfors FP;14.39;Mora;SLU;,Betula,Picea abies,
165553;310;Sweden;Dalarnas län;60.88;Siljansfors FP;14.34;Mora;SLU;,Picea abies,
165556;280;Sweden;Dalarnas län;60.88;Siljansfors FP;14.34;Mora;SLU;,Picea abies,
165570;260;Sweden;Dalarnas län;60.88;Siljansfors FP;14.39;Mora;SLU;,Picea abies,
165573;320;Sweden;Dalarnas län;60.91;Siljansfors FP;14.38;Mora;SLU;,Picea abies,
165579;270;Sweden;Dalarnas län;60.88;Siljansfors FP;14.39;Mora;SLU;,Picea abies,
165582;260;Sweden;Dalarnas län;60.87;Siljansfors FP;14.39;Mora;SLU;,Picea abies,
165583;260;Sweden;Dalarnas län;60.87;Siljansfors FP;14.39;Mora;SLU;,Picea abies,
165584;250;Sweden;Dalarnas län;60.88;Siljansfors FP;14.38;Mora;SLU;,Picea abies,
165585;260;Sweden;Dalarnas län;60.88;Siljansfors FP;14.39;Mora;SLU;,Picea abies,
165586;260;Sweden;Dalarnas län;60.87;Siljansfors FP;14.39;Mora;SLU;,Picea abies,
165587;260;Sweden;Dalarnas län;60.88;Siljansfors FP;14.38;Mora;SLU;,Picea abies,
165592;235;Sweden;Dalarnas län;60.89;Siljansfors FP;14.37;Mora;SLU;,Picea abies,
165600;250;Sweden;Dalarnas län;60.88;Siljansfors FP;14.4;Mora;SLU;,Picea abies,
165602;300;Sweden;Dalarnas län;60.91;Siljansfors FP;14.37;Mora;SLU;,Picea abies,
165606;240;Sweden;Dalarnas län;60.88;Siljansfors FP;14.38;Mora;SLU;,Pinus sylvestris,Picea abies,Betula pubescens,
165618;260;Sweden;Dalarnas län;60.88;Siljansfors FP;14.36;Mora;SLU;,Picea abies,
165622;220;Sweden;Dalarnas län;60.9;Siljansfors FP;14.36;Mora;SLU;,Betula,Picea abies,
165628;290;Sweden;Dalarnas län;60.87;Siljansfors FP;14.38;Mora;SLU;,Picea abies,
165630;180;Sweden;Dalarnas län;60.83;Siljansfors FP;14.67;Mora;SLU;,Picea abies,
165633;225;Sweden;Dalarnas län;60.89;Siljansfors FP;14.38;Mora;SLU;,Picea abies,
165647;280;Sweden;Dalarnas län;60.89;Siljansfors FP;14.35;Mora;SLU;,Betula pendula,Picea abies,
165648;260;Sweden;Dalarnas län;60.87;Siljansfors FP;14.38;Mora;SLU;,Betula,Picea abies,Pinus sylvestris,
165649;260;Sweden;Dalarnas län;60.87;Siljansfors FP;14.38;Mora;SLU;,Betula pubescens,Picea abies,
165650;250;Sweden;Dalarnas län;60.88;Siljansfors FP;14.38;Mora;SLU;,Betula pubescens,Picea abies,
165651;240;Sweden;Dalarnas län;60.88;Siljansfors FP;14.38;Mora;SLU;,Picea abies,
165652;260;Sweden;Dalarnas län;60.88;Siljansfors FP;14.39;Mora;SLU;,Picea abies,
165653;410;Sweden;Dalarnas län;60.91;Siljansfors FP;14.39;Mora;SLU;,Picea abies,Pinus sylvestris,
165654;235;Sweden;Dalarnas län;60.89;Siljansfors FP;14.4;Mora;SLU;,Picea abies,
165655;240;Sweden;Dalarnas län;60.88;Siljansfors FP;14.38;Mora;SLU;,Picea abies,
165657;250;Sweden;Dalarnas län;60.9;Siljansfors FP;14.35;Mora;SLU;,Betula pendula,Picea abies,Pinus sylvestris,
165658;360;Sweden;Dalarnas län;60.91;Siljansfors FP;14.38;Mora;SLU;,Betula pendula,Betula pubescens,Larix decidua,Larix sukaczewii,Picea abies,Pinus sylvestris,
165659;250;Sweden;Dalarnas län;60.89;Siljansfors FP;14.41;Mora;SLU;,Betula pendula,Picea abies,Pinus contorta,
165663;225;Sweden;Dalarnas län;60.9;Siljansfors FP;14.34;Mora;SLU;,Picea abies,
165664;245;Sweden;Dalarnas län;60.9;Siljansfors FP;14.37;Mora;SLU;,Picea abies,
165665;95;Sweden;Hallands län;56.7;Tönnersjöhedens FP;13.11;Halmstad;SLU;,Picea abies,
165666;95;Sweden;Hallands län;56.7;Tönnersjöhedens FP;13.1;Halmstad;SLU;,Picea abies,
165668;100;Sweden;Hallands län;56.71;Tönnersjöhedens FP;13.11;Halmstad;SLU;,Picea abies,
165669;65;Sweden;Hallands län;56.68;Tönnersjöhedens FP;13.07;Halmstad;SLU;,Picea abies,
165673;110;Sweden;Hallands län;56.71;Tönnersjöhedens FP;13.11;Halmstad;SLU;,Picea abies,
165679;65;Sweden;Hallands län;56.68;Tönnersjöhedens FP;13.06;Halmstad;SLU;,Picea abies,
165680;60;Sweden;Hallands län;56.68;Tönnersjöhedens FP;13.07;Halmstad;SLU;,Picea abies,
165681;95;Sweden;Hallands län;56.7;Tönnersjöhedens FP;13.11;Halmstad;SLU;,Picea abies,
165682;95;Sweden;Hallands län;56.7;Tönnersjöhedens FP;13.1;Halmstad;SLU;,Picea abies,
165683;60;Sweden;Hallands län;56.7;Tönnersjöhedens FP;13.09;Halmstad;SLU;,Picea abies,
165684;135;Sweden;Hallands län;56.71;Tönnersjöhedens FP;13.12;Halmstad;SLU;,Picea abies,
165685;130;Sweden;Hallands län;56.71;Tönnersjöhedens FP;13.11;Halmstad;SLU;,Picea abies,
165687;60;Sweden;Hallands län;56.7;Tönnersjöhedens FP;13.08;Halmstad;SLU;,Picea abies,
165688;125;Sweden;Hallands län;56.7;Tönnersjöhedens FP;13.11;Halmstad;SLU;,Picea abies,
165689;100;Sweden;Hallands län;56.7;Tönnersjöhedens FP;13.11;Halmstad;SLU;,Picea abies,
165690;115;Sweden;Hallands län;56.7;Tönnersjöhedens FP;13.11;Halmstad;SLU;,Picea abies,
165691;100;Sweden;Hallands län;56.7;Tönnersjöhedens FP;13.11;Halmstad;SLU;,Picea abies,
165697;85;Sweden;Hallands län;56.69;Tönnersjöhedens FP;13.1;Halmstad;SLU;,Picea abies,
165698;60;Sweden;Hallands län;56.7;Tönnersjöhedens FP;13.09;Halmstad;SLU;,Picea abies,
165699;85;Sweden;Hallands län;56.7;Tönnersjöhedens FP;13.09;Halmstad;SLU;,Picea abies,
165700;80;Sweden;Hallands län;56.69;Tönnersjöhedens FP;13.09;Halmstad;SLU;,Picea abies,
165701;90;Sweden;Hallands län;56.7;Tönnersjöhedens FP;13.09;Halmstad;SLU;,Betula,Picea abies,
165729;60;Sweden;Hallands län;56.67;Tönnersjöhedens FP;13.06;Halmstad;SLU;,Picea abies,Picea omorika,
165742;90;Sweden;Hallands län;56.7;Tönnersjöhedens FP;13.1;Halmstad;SLU;,Picea abies,
165743;100;Sweden;Hallands län;56.71;Tönnersjöhedens FP;13.12;Halmstad;SLU;,Picea abies,
165748;60;Sweden;Hallands län;56.7;Tönnersjöhedens FP;13.09;Halmstad;SLU;,Picea abies,
165749;95;Sweden;Hallands län;56.7;Tönnersjöhedens FP;13.1;Halmstad;SLU;,Picea abies,
165750;150;Sweden;Hallands län;56.71;Tönnersjöhedens FP;13.14;Halmstad;SLU;,Picea abies,
165751;130;Sweden;Hallands län;56.71;Tönnersjöhedens FP;13.11;Halmstad;SLU;,Fagus sylvatica,Picea abies,
165752;60;Sweden;Hallands län;56.69;Tönnersjöhedens FP;13.08;Halmstad;SLU;,Betula,Picea abies,
165754;90;Sweden;Hallands län;56.69;Tönnersjöhedens FP;13.11;Halmstad;SLU;,Abies alba,Abies grandis,Betula,Larix,Picea abies,Picea sitchensis,Pinus contorta,Pinus sylvestris,Pseudotsuga menziesii,
165756;75;Sweden;Hallands län;56.7;Tönnersjöhedens FP;13.1;Halmstad;SLU;,Picea abies,Picea sitchensis,
165757;80;Sweden;Hallands län;56.7;Tönnersjöhedens FP;13.09;Halmstad;SLU;,Betula,Picea abies,
165759;85;Sweden;Hallands län;56.69;Tönnersjöhedens FP;13.1;Halmstad;SLU;,Picea abies,
165760;70;Sweden;Hallands län;56.69;Tönnersjöhedens FP;13.07;Halmstad;SLU;,Picea abies,
165761;75;Sweden;Hallands län;56.68;Tönnersjöhedens FP;13.09;Halmstad;SLU;,Picea abies,
165762;95;Sweden;Hallands län;56.69;Tönnersjöhedens FP;13.11;Halmstad;SLU;,Picea abies,
165763;60;Sweden;Hallands län;56.67;Tönnersjöhedens FP;13.06;Halmstad;SLU;,Picea abies,
165764;100;Sweden;Hallands län;56.7;Tönnersjöhedens FP;13.11;Halmstad;SLU;,Picea abies,
165765;75;Sweden;Hallands län;56.69;Tönnersjöhedens FP;13.09;Halmstad;SLU;,Picea abies,
165767;75;Sweden;Hallands län;56.69;Tönnersjöhedens FP;13.09;Halmstad;SLU;,Picea abies,
165768;70;Sweden;Hallands län;56.69;Tönnersjöhedens FP;13.08;Halmstad;SLU;,Picea mariana,Picea abies,
165769;75;Sweden;Hallands län;56.68;Tönnersjöhedens FP;13.1;Halmstad;SLU;,Picea abies,
165770;120;Sweden;Hallands län;56.7;Tönnersjöhedens FP;13.11;Halmstad;SLU;,Picea abies,
165771;60;Sweden;Hallands län;56.67;Tönnersjöhedens FP;13.06;Halmstad;SLU;,Picea abies,
165772;70;Sweden;Hallands län;56.69;Tönnersjöhedens FP;13.07;Halmstad;SLU;,Picea abies,
165773;70;Sweden;Hallands län;56.69;Tönnersjöhedens FP;13.07;Halmstad;SLU;,Picea abies,
165774;65;Sweden;Hallands län;56.7;Tönnersjöhedens FP;13.1;Halmstad;SLU;,Picea abies,
165775;110;Sweden;Hallands län;56.7;Tönnersjöhedens FP;13.11;Halmstad;SLU;,Picea abies,
165776;60;Sweden;Hallands län;56.68;Tönnersjöhedens FP;13.08;Halmstad;SLU;,Picea abies,
165779;75;Sweden;Hallands län;56.69;Tönnersjöhedens FP;13.1;Halmstad;SLU;,Picea abies,
165780;75;Sweden;Hallands län;56.69;Tönnersjöhedens FP;13.07;Halmstad;SLU;,Picea abies,
165781;90;Sweden;Hallands län;56.69;Tönnersjöhedens FP;13.11;Halmstad;SLU;,Pinus sylvestris,Picea abies,
165782;70;Sweden;Hallands län;56.69;Tönnersjöhedens FP;13.09;Halmstad;SLU;,Picea abies,
165783;80;Sweden;Hallands län;56.7;Tönnersjöhedens FP;13.1;Halmstad;SLU;,Picea abies,
165784;75;Sweden;Hallands län;56.69;Tönnersjöhedens FP;13.11;Halmstad;SLU;,Picea abies,
165785;75;Sweden;Hallands län;56.69;Tönnersjöhedens FP;13.09;Halmstad;SLU;,Picea abies,
165786;85;Sweden;Hallands län;56.7;Tönnersjöhedens FP;13.11;Halmstad;SLU;,Picea abies,
165787;95;Sweden;Hallands län;56.7;Tönnersjöhedens FP;13.11;Halmstad;SLU;,Picea abies,
165799;320;Sweden;Dalarnas län;61.15;Blyberg;14.21;Älvdalen;SLU;,Picea abies,
165800;430;Sweden;Västernorrlands län;62.58;Blyberget;15.24;Ånge;SLU;,Picea abies,
165801;495;Sweden;Västerbottens län;64.46;Kroksjö;18.04;Lycksele;SLU;,Picea abies,
165862;100;Sweden;Dalarnas län;60.22;Åsgarn;16.26;Avesta;SLU;,Picea abies,
165863;220;Sweden;Gävleborgs län;60.66;Galmsjön;16.31;Sandviken;SLU;,Picea abies,
165887;170;Sweden;Dalarnas län;60.28;Skitjärn;16.18;Hedemora;SLU;,Picea abies,
165895;15;Sweden;Stockholms län;59.23;Bornsjön;17.77;Salem;SLU;,Picea abies,
165896;65;Sweden;Västerbottens län;63.93;S.Bäcksjö;20.39;Umeå;SLU;,Picea abies,
165902;65;Sweden;Västmanlands län;59.72;Lisjön;16.09;Surahammar;SLU;,Picea abies,
165903;220;Sweden;Västernorrlands län;63.42;Lappkojberg;18.62;Örnsköldsvik;SLU;,Picea abies,
165904;125;Sweden;Hallands län;56.63;Tönnersjö;13.09;Halmstad;SLU;,Picea abies,
165905;180;Sweden;Skåne län;55.77;Bjälkhult;13.78;Sjöbo;SLU;,Picea abies,
165906;125;Sweden;Gävleborgs län;61.56;Boda;16.81;Hudiksvall;SLU;,Picea abies,
165907;320;Sweden;Västernorrlands län;62.33;Torrflonäs;15.17;Ånge;SLU;,Picea abies,
165908;290;Sweden;Västerbottens län;64.38;Degernäslid;20.01;Vindeln;SLU;,Picea abies,
165918;460;Sweden;Västernorrlands län;63.92;Brattforsmon;17.11;Sollefteå;SLU;,Picea abies,
165925;185;Sweden;Dalarnas län;60.28;Fransbo;16.22;Hedemora;SLU;,Pinus sylvestris,Picea abies,
165926;180;Sweden;Dalarnas län;60.28;Fransbo;16.22;Hedemora;SLU;,Pinus sylvestris,Picea abies,
165930;200;Sweden;Dalarnas län;60.28;Fransbo;16.23;Hedemora;SLU;,Picea abies,
165931;90;Sweden;Dalarnas län;60.21;Västansjö;16.25;Avesta;SLU;,Picea abies,Betula,
165936;200;Sweden;Dalarnas län;60.31;Myggbo;16.29;Hedemora;SLU;,Picea abies,Betula,
165937;240;Sweden;Dalarnas län;60.88;Siljansfors FP;14.39;Mora;SLU;,Picea abies,Betula,
165938;60;Sweden;Hallands län;56.69;Tönnersjöhedens FP;13.08;Halmstad;SLU;,Picea abies,Betula,
165946;70;Sweden;Västra Götalands län;57.95;Östad;12.38;Alingsås;SLU;,Pinus sylvestris,Picea abies,Betula,
165958;95;Sweden;Västerbottens län;64.19;Hällmyren;20.77;Robertsfors;SLU;,Pinus sylvestris,Picea abies,Betula pubescens,
165960;37;Sweden;Uppsala län;60.18;Oxmossen;17.44;Uppsala;SLU;,Pinus sylvestris,Picea abies,
165961;37;Sweden;Uppsala län;60.18;Oxmossen;17.44;Uppsala;SLU;,Pinus sylvestris,Picea abies,
165966;165;Sweden;Hallands län;56.72;Hillesjömosse;13.32;Halmstad;SLU;,Pinus sylvestris,Picea abies,Pinus contorta,Betula pendula,
165967;;Sweden;Hallands län;56.6;Egernahult;13.38;Laholm;SLU;,Pinus sylvestris,Picea abies,Larix,
165969;75;Sweden;Skåne län;56.06;Mellby moss.;13.75;Hässleholm;SLU;,Picea abies,
165970;;Sweden;Gävleborgs län;61.77;Näsmyran;15.67;Ljusdal;SLU;,Pinus sylvestris,Picea abies,Pinus contorta,Picea mariana,Larix,
165971;;Sweden;Gävleborgs län;61.91;Skråttmyran;15.75;Ljusdal;SLU;,Pinus sylvestris,Picea abies,Pinus contorta,Picea mariana,Larix,
165975;220;Sweden;Kronobergs län;57.03;Boket;14.37;Alvesta;SLU;,Picea abies,
165981;220;Sweden;Kronobergs län;57.03;Boket;14.35;Alvesta;SLU;,Picea abies,Fagus sylvatica,
165988;220;Sweden;Kronobergs län;57.06;Bockafällan;14.38;Alvesta;SLU;,Picea abies,Larix,
165989;220;Sweden;Kronobergs län;57.02;Kullarna;14.38;Alvesta;SLU;,Pinus sylvestris,Picea abies,
165991;220;Sweden;Kronobergs län;57.04;Simonsäng;14.4;Alvesta;SLU;,Pinus sylvestris,Picea abies,Pinus contorta,Betula,
165993;220;Sweden;Kronobergs län;57.05;Jonsboda;14.38;Alvesta;SLU;,Picea abies,Betula,
165994;220;Sweden;Kronobergs län;57.04;Röslida;14.39;Alvesta;SLU;,Picea abies,Betula,
165995;220;Sweden;Kronobergs län;57.01;Fridungen;14.38;Alvesta;SLU;,Picea abies,Pinus sylvestris,
166001;220;Sweden;Kronobergs län;57.03;Slätten;14.34;Alvesta;SLU;,Picea abies,Larix,Betula,
166005;220;Sweden;Kronobergs län;57.06;Sandvik;14.37;Alvesta;SLU;,Fagus sylvatica,Betula,Quercus,Alnus,Larix,Picea abies,
166007;70;Sweden;Kalmar län;56.9;Ebbegärde;16.19;Kalmar;SLU;,Picea abies,
166008;165;Sweden;Hallands län;56.86;Tågabo;13.2;Hylte;SLU;,Picea abies,
166009;140;Sweden;Västra Götalands län;58.46;Vitsjön;13.64;Skara;SLU;,Picea abies,
166010;220;Sweden;Kronobergs län;57.05;Mon;14.39;Alvesta;SLU;,Pinus sylvestris,Picea abies,
166013;125;Sweden;Värmlands län;59.04;Skogskärr;14.43;Degerfors;SLU;,Pinus sylvestris,Picea abies,
166014;370;Sweden;Norrbottens län;66.92;Akkajärvi;20.99;Gällivare;SLU;,Pinus sylvestris,Picea abies,
166015;470;Sweden;Jämtlands län;64.13;Björngällväg;15.61;Strömsund;SLU;,Picea abies,Pinus contorta,
166019;240;Sweden;Gävleborgs län;62;Rappavägen;15.8;Ljusdal;SLU;,Pinus sylvestris,Picea abies,
166022;185;Sweden;Kronobergs län;57.03;Eriksbygget;14.39;Alvesta;SLU;,Picea abies,
166023;30;Sweden;Uppsala län;60.42;Grävsvinsberget;17.58;Tierp;SLU;,Picea abies,
166029;530;Sweden;Värmlands län;60.64;Rackasberg;12.75;Torsby;SLU;,Picea abies,
166030;250;Sweden;Västerbottens län;64.25;Svartberget;19.81;Vindeln;SLU;,Picea abies,
166032;140;Sweden;Västra Götalands län;58.46;Remningstorp;13.66;Skara;SLU;,Picea abies,
166047;200;Sweden;Kronobergs län;57.04;Spånghult;14.34;Alvesta;SLU;,Betula,Populus,Quercus,Fraxinus,Larix,Pseudotsuga menziesii,Picea abies,
166048;20;Sweden;Hallands län;56.78;Steninge;12.69;Halmstad;SLU;,Betula,Populus,Quercus,Fraxinus,Larix,Pseudotsuga menziesii,Picea abies,
166049;10;Sweden;Kalmar län;57.11;Träsken;16.51;Mönsterås;SLU;,Betula,Populus,Quercus,Fraxinus,Larix,Pseudotsuga menziesii,Picea abies,Pinus sylvestris,
166059;135;Sweden;Östergötlands län;58.17;Talltorpet;16.02;Åtvidaberg;SLU;,Pinus sylvestris,Picea abies,
166060;30;Sweden;Södermanlands län;58.95;Ekenäs;16.56;Flen;SLU;,Picea abies,
166062;30;Sweden;Södermanlands län;58.95;Ekenäs;16.58;Flen;SLU;,Picea abies,
166067;30;Sweden;Uppsala län;59.9;Hammarskog;17.51;Uppsala;SLU;,Picea abies,
166068;45;Sweden;Uppsala län;59.84;Fjällnora;17.92;Uppsala;SLU;,Picea abies,
166069;35;Sweden;Uppsala län;59.78;Hammarskog;17.56;Uppsala;SLU;,Picea abies,
166071;460;Sweden;Jämtlands län;62.56;Klövsjö;14.15;Berg;SLU;,Picea abies,
166072;460;Sweden;Jämtlands län;62.56;Klövsjö;14.16;Berg;SLU;,Picea abies,Betula,
166073;;Sweden;Jämtlands län;0;Klövsjö;0;Berg;SLU;,Picea abies,Betula,
166074;;Sweden;Jämtlands län;0;Klövsjö;0;Berg;SLU;,Picea abies,Betula,
166079;23;Sweden;Västmanlands län;0;Sickelsjö;0;Arboga;SLU;,Betula,Picea abies,
166080;130;Sweden;Västra Götalands län;58.46;Stockebacken;13.64;Skara;SLU;,Picea abies,Betula,
166083;340;Sweden;Örebro län;60;Masbybäcken;15.16;Lindesberg;SLU;,Pinus sylvestris,Picea abies,
166085;370;Sweden;Gävleborgs län;62;N.Kullarna;16.55;Hudiksvall;SLU;,Pinus sylvestris,Picea abies,
166086;380;Sweden;Gävleborgs län;62;Ö.Kullarna;16.56;Hudiksvall;SLU;,Pinus sylvestris,Picea abies,
166090;;Sweden;Uppsala län;0;Grillby;0;Enköping;SLU;,Picea abies,
166092;;Sweden;Jönköpings län;0;Värnamo;0;Värnamo;SLU;,Picea abies,
166093;40;Sweden;Uppsala län;60.14;Skyttorp;17.73;Tierp;SLU;,Picea abies,
166094;260;Sweden;Västernorrlands län;62.67;Gimåfors;16.4;Sundsvall;SLU;,Picea abies,
166095;;Sweden;Gävleborgs län;0;Iggesund;0;Iggesund;SLU;,Picea abies,Pinus sylvestris,
166097;315;Sweden;Västerbottens län;64.12;Flakaliden;19.45;Vindeln;SLU;,Picea abies,
166098;315;Sweden;Västerbottens län;64.12;Flakaliden;19.45;Vindeln;SLU;,Picea abies,
166101;350;Sweden;Dalarnas län;60.91;Stråsan;16.01;Falun;SLU;,Picea abies,
166105;260;Sweden;Dalarnas län;60.7;Svensjöberg;16.17;Falun;SLU;,Picea abies,
166108;315;Sweden;Västerbottens län;64.12;Flakaliden;19.45;Vindeln;SLU;,Picea abies,
166109;240;Sweden;Kronobergs län;57.14;Asa FP;14.81;Växjö;SLU;,Picea abies,
166113;140;Sweden;Hallands län;56.38;Vallåsen;13.11;Laholm;SLU;,Picea abies,
166122;450;Sweden;Västerbottens län;63.94;;17.56;Bjurholm;SLU;,Picea abies,
166128;300;Sweden;Gävleborgs län;61.16;Kilafors;16.34;Bollnäs;SLU;,Picea abies,
166133;350;Sweden;Dalarnas län;60.93;;16.08;Falun;SLU;,Picea abies,
166135;50;Sweden;Värmlands län;59.63;Mölnbacka;13.53;Deje;SLU;,Picea abies,
166136;100;Sweden;Västra Götalands län;0;Forsvik;0;Karlsborg;SLU;,Picea abies,
166137;130;Sweden;Västra Götalands län;57.56;Remingstorp;13.68;Skara;SLU;,Picea abies,
166138;100;Sweden;Västra Götalands län;58.54;Kinne;14.19;Töreboda;SLU;,Picea abies,
166139;150;Sweden;Jönköpings län;57.64;Hässleby;15.55;Värnamo;SLU;,Picea abies,
166140;180;Sweden;Kronobergs län;56.85;Spånhult;14.36;Alvesta;SLU;,Picea abies,
166141;150;Sweden;Kronobergs län;57.02;Toftaholm;14.06;Ljungby;SLU;,Picea abies,
166142;170;Sweden;Värmlands län;59.64;Ramsåsen;13.24;Deje;SLU;,Picea abies,
166145;40;Sweden;Uppsala län;60.28;Nolmyra;17.29;Uppsala;SLU;,Picea abies,
166148;140;Sweden;Skåne län;56.42;Fäbackatorget;14.43;Osby;SLU;,Picea abies,
166149;25;Sweden;Uppsala län;60.5;Skärplinge;17.81;Tierp;SLU;,Picea abies,
166151;300;Sweden;Västernorrlands län;62.42;Huljen;16.91;Sundsvall;SLU;,Picea abies,
166153;40;Sweden;Uppsala län;60.31;Ulvsbo;17.77;Örbyhus;SLU;,Picea abies,
166157;400;Sweden;Norrbottens län;67.02;Ätnarova FP;20.24;Gällivare;SLU;,Picea abies,Pinus sylvestris,
166158;620;Sweden;Jämtlands län;61.63;Dalkarlsberget;14.42;Härjedalen;SLU;,Picea abies,Pinus contorta,
166159;620;Sweden;Jämtlands län;61.63;Dalkarlsberget;14.42;Härjedalen;SLU;,Picea abies,Pinus contorta,
166160;635;Sweden;Jämtlands län;61.63;Dalkarlsberget;14.42;Härjedalen;SLU;,Picea abies,Pinus contorta,
166161;645;Sweden;Jämtlands län;61.63;Dalkarlsberget;14.42;Härjedalen;SLU;,Picea abies,Pinus contorta,
166162;325;Sweden;Västerbottens län;64.39;Barjasen;18.16;Lycksele;SLU;,Picea abies,Pinus contorta,Pinus sylvestris,
166163;375;Sweden;Jämtlands län;63.23;Selkroksredden;15.13;Östersund;SLU;,Picea abies,Pinus sylvestris,Pinus contorta,
166164;155;Sweden;Västerbottens län;64.03;Åliden;20.1;Robertsfors;SLU;,Picea abies,Pinus sylvestris,
166165;520;Sweden;Västerbottens län;64.53;Sutme;14.51;Dorotea;SLU;,Picea abies,Pinus sylvestris,Pinus contorta,
166167;195;Sweden;Östergötlands län;57.48;Kråkrödjan;15.33;Ydre;SLU;,Picea abies,Pinus sylvestris,
166168;60;Sweden;Södermanlands län;58.98;Barksäter;16.07;Katrineholm;SLU;,Picea abies,
166169;65;Sweden;Blekinge län;56.32;Gammelstorp;15.34;Kallinge;SLU;,Picea abies,
166170;487;Sweden;Västerbottens län;64.54;Bielite;15.29;Vilhelmina;SLU;,Picea abies,
166171;410;Sweden;Norrbottens län;67.02;Ätnarova FP;20.43;Gällivare;SLU;,Picea abies,
166172;490;Sweden;Jämtlands län;63.39;Fagerland;15.14;Östersund;SLU;,Picea abies,
166175;270;Sweden;Kronobergs län;57.05;Granhult;15.22;Uppvidinge;SLU;,Picea abies,
166179;245;Sweden;Dalarnas län;60.04;Slogberg;15.16;Ludvika;SLU;,Picea abies,
166183;100;Sweden;Hallands län;56.69;Tönnersjöhedens FP;13.11;Halmstad;SLU;,Picea abies,
166184;265;Sweden;Västerbottens län;64.29;Lövliden;19.52;Vindeln;SLU;,Picea abies,
166187;50;Sweden;Stockholms län;59.41;Bogesund, Holming;18.2;Vaxholm;SLU;,Picea abies,
166193;430;Sweden;Norrbottens län;0;;0;Arjeplog;SLU;,Picea abies,
166194;;Sweden;Norrbottens län;0;;0;Arjeplog;SLU;,Pinus sylvestris,Picea abies,
166195;;Sweden;Norrbottens län;0;;0;Arjeplog;SLU;,Pinus sylvestris,Picea abies,
166196;460;Sweden;Norrbottens län;67.06;Ätnarova FP;20.3;Gällivare;SLU;,Pinus sylvestris,Picea abies,Pinus contorta,Larix sibirica,Picea mariana,
166197;450;Sweden;Norrbottens län;67.08;Ätnarova FP;20.37;Gällivare;SLU;,Pinus sylvestris,Picea abies,Pinus contorta,Larix sibirica,Picea mariana,
166228;90;Sweden;Örebro län;59.1;Svartå;14.5;Degerfors;SLU;,Pinus contorta,Picea abies,
166231;50;Sweden;Östergötlands län;58.54;Grensholm;15.81;Norrköping;SLU;,Pinus contorta,Picea abies,
166235;10;Sweden;Skåne län ;55.91;Everöd;14.09;Kristianstad;SLU;,Pinus contorta,Picea abies,
166252;160;Sweden;Kronobergs län;56.77;Vederslöv;14.73;Växjö;SLU;,Picea abies,
166253;140;Sweden;Kronobergs län;56.53;Hackekvarn;14.76;Tingsryd;SLU;,Picea abies,
166254;120;Sweden;Skåne län ;56.38;Snuggetorpet;14.3;Osby;SLU;,Picea abies,
166255;75;Sweden;Västerbottens län;64.22;Stormora;20.65;Robertsfors;SLU;,Picea abies,
166256;55;Sweden;Västerbottens län;64.21;Petterssonmyren;20.82;Robertsfors;SLU;,Picea abies,
166257;40;Sweden;Gävleborgs län;60.49;Älvbäcksmyran;17.28;Gävle;SLU;,Picea abies,
166258;45;Sweden;Gävleborgs län;60.49;Fallet-Häggm;17.19;Gävle;SLU;,Picea abies,
166259;20;Sweden;Uppsala län;60.07;Svalmyran;18.32;Östhammar;SLU;,Picea abies,
166260;210;Sweden;Jönköpings län;57.36;Labbaliden;14.39;Sävsjö;SLU;,Picea abies,Picea mariana,
166261;140;Sweden;Jönköpings län;57.05;Mårås;13.25;Hylte;SLU;,Picea abies,Picea mariana,
166262;145;Sweden;Jönköpings län;57.1;Mogård;13.4;Hylte;SLU;,Picea abies,Picea mariana,
166284;510;Sweden;Västerbottens län;65.59;Gippervare;17.19;Sorsele;SLU;,Picea abies,Abies lasiocarpa,Abies sibirica,Picea mariana,Pinus sylvestris,Pinus contorta,
166345;350;Sweden;Norrbottens län;67.16;Tärendö, Kompelusvaara;22.13;Kalix;SLU;,Picea abies,
166349;430;Sweden;Norrbottens län;65.61;Deppis.;19.59;Arvidsjaur;SLU;,Picea abies,
166350;450;Sweden;Norrbottens län;65.82;Natokvägen;18.23;Arjeplog;SLU;,Picea abies,
166353;350;Sweden;Norrbottens län;0;Tärendö, Kompelusvaara;0;Kalix;SLU;,Picea abies,
166354;480;Sweden;Norrbottens län;65.76;Reivo;19.13;Arvidsjaur;SLU;,Picea abies,
166355;470;Sweden;Västerbottens län;65.61;Stabburrs;17;Sorsele;SLU;,Picea abies,
166356;440;Sweden;Jämtlands län;0;Hotagen, St.Bri.S;0;Lit;SLU;,Picea abies,
166358;560;Sweden;Jämtlands län;0;Linsell, Glöte;0;Härjedalen;SLU;,Picea abies,
166360;245;Sweden;Västernorrlands län;63.65;Tällvattensmon;17.97;Örnsköldsvik;SLU;,Pinus sylvestris,Picea abies,
166366;440;Sweden;Jämtlands län;62.53;Östbodarna;14.36;Berg;SLU;,Pinus contorta,Pinus sylvestris,Picea abies,
166370;135;Sweden;Östergötlands län;58.68;Fläda;15.04;Finspång;SLU;,Picea abies,Pinus sylvestris,
166371;135;Sweden;Östergötlands län;58.68;Fläda;15.04;Finspång;SLU;,Picea abies,Pinus sylvestris,
166372;120;Sweden;Östergötlands län;58.58;Lindalen;15.56;Finspång;SLU;,Picea abies,
166374;125;Sweden;Östergötlands län;58.71;Hagfallet;15.13;Finspång;SLU;,Picea abies,
166376;80;Sweden;Västerbottens län;63.93;Spöland;19.86;Vännäs;SLU;,Abies sibirica,Betula pendula,Larix sukaczewii,Picea abies,Picea glauca,Pinus contorta,Pinus sylvestris,Populus,
166377;300;Sweden;Västerbottens län;64.26;Svartbergets FP;19.79;Vindeln;SLU;,Abies lasiocarpa,Abies sibirica,Betula pendula,Larix sukaczewii,Picea abies,Picea glauca,Picea mariana,Pinus banksiana,Pinus contorta,Pinus sylvestris,
166378;10;Sweden;Västerbottens län;63.88;Sävar;20.54;Umeå;SLU;,Abies sibirica,Betula pendula,Larix sukaczewii,Picea abies,Picea glauca,Pinus contorta,Pinus sylvestris,Populus,
166379;300;Sweden;Västerbottens län;64.69;Manjaur;19.3;Åmsele;SLU;,Abies lasiocarpa,Abies sibirica,Betula pendula,Larix sukaczewii,Picea abies,Picea glauca,Picea mariana,Pinus banksiana,Pinus contorta,Pinus sylvestris,
166380;10;Sweden;Uppsala län;59.64;Rölunda;17.53;Håbo;SLU;,Betula pendula,Larix x eurolepis,Larix sukaczewii,Picea abies,Picea mariana,Picea sitchensis,Populus trichocarpa,Populus,Pseudotsuga menziesii,
166381;195;Sweden;Dalarnas län;60.31;Garpenberg;16.29;Hedemora;SLU;,Betula pendula,Larix x eurolepis,Larix sukaczewii,Picea abies,Picea glauca,Picea mariana,Pinus contorta,Pinus sylvestris,Pseudotsuga menziesii,
166383;85;Sweden;Skåne län;55.98;Bullstofta;13.01;Svalöv;SLU;,Abies grandis,Betula pendula,Larix x eurolepis,Picea abies,Picea sitchensis,Populus trichocarpa,Populus,Pseudotsuga menziesii,
166384;278;Sweden;Kronobergs län;57.08;Asa FP A035;14.46;Växjö;SLU;,Betula pendula,Larix x eurolepis,Picea abies,Picea glauca,Picea mariana,Pinus contorta,Pinus sylvestris,Pseudotsuga menziesii,
166385;200;Sweden;Kronobergs län;57.15;Asa FP A036;14.77;Växjö;SLU;,Abies grandis,Betula pendula,Larix x eurolepis,Picea abies,Picea mariana,Picea sitchensis,Pseudotsuga menziesii,
166388;5;Sweden;Västerbottens län;63.8;Innertavle;20.42;Umeå;SLU;,Populus tremula,Betula pubescens,Picea abies,
166389;290;Sweden;Norrbottens län;66.37;Hällberget;22.15;Överkalix;SLU;,Picea abies,Betula,
166390;285;Sweden;Norrbottens län;66.03;Solberget;20.27;Jokkmokk;SLU;,Picea abies,Pinus sylvestris,Betula,
166391;550;Sweden;Västerbottens län;65.57;Kirjesålandet-Lövskog;16.13;Storuman;SLU;,Picea abies,Betula,
166392;560;Sweden;Västerbottens län;65.57;Kirjesålandet-Lövskog;16.14;Storuman;SLU;,Picea abies,Betula,
166393;340;Sweden;Västerbottens län;65.25;Fågelmyrkölen;19.11;Malå;SLU;,Picea abies,Pinus sylvestris,Betula,
166394;450;Sweden;Västerbottens län;65.05;Rävliden;18.47;Lycksele;SLU;,Picea abies,Pinus sylvestris,Betula,
166395;460;Sweden;Jämtlands län;63.51;Offerdalsberget;14.16;Krokom;SLU;,Picea abies,
166396;320;Sweden;Västernorrlands län;63.31;Stenbittjärn;17.66;Örnsköldsvik;SLU;,Picea abies,Pinus sylvestris,Betula,
166397;285;Sweden;Västernorrlands län;63.17;Svartnäsudden;18.08;Örnsköldsvik;SLU;,Picea abies,Pinus sylvestris,Betula,
166398;390;Sweden;Gävleborgs län;62.29;Ensjöreservatet;15.54;Ljusdal;SLU;,Picea abies,Pinus sylvestris,Betula,
166399;405;Sweden;Gävleborgs län;62.3;Ensjöreservatet;15.54;Ljusdal;SLU;,Picea abies,Pinus sylvestris,Betula,
166400;315;Sweden;Gävleborgs län;62.2;Brassberget;15.72;Ljusdal;SLU;,Picea abies,Pinus sylvestris,Betula,
166401;310;Sweden;Dalarnas län;61.29;Gåsberget;15.35;Rättvik;SLU;,Picea abies,Pinus sylvestris,Betula,
166405;230;Sweden;Västerbottens län;64.16;Björkl.Mickelstr.;20.11;Robertsfors;SLU;,Pinus sylvestris,Picea abies,Betula,Pinus contorta,
166407;300;Sweden;Västerbottens län;64.17;Kulbäckslidens FP;19.6;Vindeln;SLU;,Pinus sylvestris,Picea abies,
166410;215;Sweden;Västerbottens län;64.18;Kulbäckslidens FP;19.6;Vindeln;SLU;,Picea abies,
166416;299;Sweden;Västerbottens län;64.15;Gammnybrännan;19.59;Vindeln;SLU;,Pinus contorta,Picea abies,
166417;284;Sweden;Västerbottens län;64.16;Gammnybrännan;19.59;Vindeln;SLU;,Pinus contorta,Picea abies,
166420;190;Sweden;Västerbottens län;64.18;Kulbäckslidens FP;19.61;Vindeln;SLU;,Pinus sylvestris,Picea abies,
166422;100;Sweden;Hallands län;56.7;Tönnersjöhedens FP;13.11;Halmstad;SLU;,Picea abies,
166428;300;Sweden;Västerbottens län;64.15;Kulbäckslidens FP ;19.59;Vindeln;SLU;,Picea abies,
166440;290;Sweden;Västerbottens län;64.16;Kulbäckslidens FP ;19.56;Vindeln;SLU;,Picea abies,
166442;290;Sweden;Västerbottens län;64.16;Kulbäckslidens FP ;19.56;Vindeln;SLU;,Picea abies,
166447;115;Sweden;Hallands län;56.71;Tönnersjöhedens FP;13.12;Halmstad;SLU;,Picea abies,
166448;280;Sweden;Västerbottens län;64.16;Kulbäckslidens FP ;19.58;Vindeln;SLU;,Picea abies,
166455;296;Sweden;Västerbottens län;64.15;Kulbäckslidens FP ;19.59;Vindeln;SLU;,Picea abies,
166456;75;Sweden;Hallands län;56.69;Tönnersjöhedens FP;13.09;Halmstad;SLU;,Picea abies,
166457;125;Sweden;Hallands län;56.7;Tönnersjöhedens FP;13.11;Halmstad;SLU;,Picea abies,
166459;;Sweden;Hallands län;56.7;Tönnersjöhedens FP;13.11;Halmstad;SLU;,Picea abies,
166460;85;Sweden;Hallands län;56.7;Tönnersjöhedens FP;13.1;Halmstad;SLU;,Picea abies,
166463;300;Sweden;Västerbottens län;0;Kulbäckslidens FP ;0;Vindeln;SLU;,Picea abies,Pinus sylvestris,
166464;280;Sweden;Västerbottens län;64.17;Kulbäckslidens FP ;19.59;Vindeln;SLU;,Picea abies,
166465;280;Sweden;Västerbottens län;64.16;Kulbäckslidens FP ;19.58;Vindeln;SLU;,Picea abies,
166472;;Sweden;Dalarnas län;0;Siljansfors FP;0;Mora;SLU;,Picea abies,
166474;185;Sweden;Gävleborgs län;60.81;Jädraås FP;16.51;Ockelbo;SLU;,Pinus sylvestris,Picea abies,
166475;249;Sweden;Dalarnas län;60.88;Siljansfors FP;14.38;Mora;SLU;,Pinus sylvestris,Picea abies,
166476;;Sweden;Västerbottens län;0;Svartbergets FP;0;Vindeln;SLU;,Pinus sylvestris,Picea abies,
166477;;Sweden;Norrbottens län;0;Ätnarova FP;0;Gällivare;SLU;,Pinus sylvestris,Picea abies,
166479;120;Sweden;Hallands län;56.7;Tönnersjöhedens FP;13.11;Halmstad;SLU;,Picea abies,Betula pendula,
166480;85;Sweden;Hallands län;56.69;Tönnersjöhedens FP;13.1;Halmstad;SLU;,Picea abies,
166482;220;Sweden;Kronobergs län;57.15;Asa FP;14.77;Växjö;SLU;,Acer platanoides,Alnus glutinosa,Alnus incana,Betula pendula,Betula pubescens,Carpinus betulus,Fagus sylvatica,Fraxinus excelsior,Malus silvestris,Picea abies,Pinus sylvestris,Populus tremula,Prunus avium,Prunus padus,Quercus robur,Salix caprea,Sorbus aucuparia,Sorbus intermedia,Tilia cordata,Ulmus glabra,
166483;500;Sweden;Västerbottens län;64.61;Fäbodliden;17.94;Lycksele;SLU;,Picea abies,
166485;120;Sweden;Hallands län;56.71;Tönnersjöhedens FP;13.12;Halmstad;SLU;,Picea abies,
166489;75;Sweden;Hallands län;56.69;Tönnersjöhedens FP;13.07;Halmstad;SLU;,Picea abies,
166490;335;Sweden;Norrbottens län;65.41;Anderstjärn;20.2;Arvidsjaur;SLU;,Picea abies,
166491;365;Sweden;Norrbottens län;65.35;Näverliden;19.73;Arvidsjaur;SLU;,Picea abies,
166492;580;Sweden;Västerbottens län;0;Ö. Vojmsjön;0;Vilhelmina;SLU;,Picea abies,
166493;550;Sweden;Västerbottens län;0;Ö. Vojmsjön;0;Vilhelmina;SLU;,Picea abies,
166494;350;Sweden;Västerbottens län;0;Knaften;0;Lycksele;SLU;,Picea abies,
166495;375;Sweden;Västerbottens län;0;Nyby;0;Lycksele;SLU;,Picea abies,
166496;375;Sweden;Västernorrlands län;63.61;Vimmarvattnet;15.9;Sollefteå;SLU;,Picea abies,
166497;360;Sweden;Västernorrlands län;63.17;Lövliden;16.64;Sollefteå;SLU;,Picea abies,
166498;50;Sweden;Gävleborgs län;0;Varggårdsv.;0;Gävle;SLU;,Picea abies,
166499;75;Sweden;Västmanlands län;0;Mellanbov.;0;Sala;SLU;,Picea abies,
166500;175;Sweden;Kronobergs län;57.18;Asa FP;14.77;Växjö;SLU;,Picea abies,
166501;250;Sweden;Kronobergs län;57.08;Hultåsen;14.94;Växjö;SLU;,Picea abies,
166504;245;Sweden;Kronobergs län;57.15;Asa FP;14.76;Växjö;SLU;,Picea abies,
166505;220;Sweden;Kronobergs län;57.02;Boket;14.38;Alvesta;SLU;,Fagus sylvatica,Quercus robur,Alnus glutinosa,Fraxinus excelsior,Picea abies,
166506;120;Sweden;Hallands län;0;Öllsjömossen;0;Hylte;SLU;,Picea abies,Picea omorika,Picea mariana,
166507;220;Sweden;Kronobergs län;57.06;Mon;14.39;Alvesta;SLU;,Pinus sylvestris,Picea abies,
166509;35;Sweden;Kalmar län;56.53;Ebbegärde;16.15;Kalmar;SLU;,Picea abies,
166510;90;Sweden;Värmlands län;59.36;Mölnbacka;13.34;Forshaga;SLU;,Picea abies,
166511;200;Sweden;Dalarnas län;60.21;Grängshammar;15.31;Säter;SLU;,Picea abies,
166512;40;Sweden;Gävleborgs län;60.34;Valbo;17.11;Gävle;SLU;,Picea abies,
166513;390;Sweden;Jämtlands län;62.43;Bräcke;15.52;Bräcke;SLU;,Picea abies,
166514;40;Sweden;Hallands län;56.96;Hjuleberg;12.71;Falkenberg;SLU;,Picea abies,
166531;;Sweden;Hallands län;56.7;Tönnersjöheden;13.13;Halmstad;SLU;,Quercus robur,Betula pendula,Picea abies,Pinus sylvestris,
166533;;Sweden;Hallands län;56.67;Tönnersjöheden;13.09;Halmstad;SLU;,Picea abies,
166535;;Sweden;Hallands län;56.7;Tönnersjöheden;13.11;Halmstad;SLU;,Picea abies,
166536;60;Sweden;Hallands län;56.65;Strömma;13.06;Halmstad;SLU;,Picea abies,
166545;65;Sweden;Hallands län;56.7;Tönnersjöhedens FP;13.07;Halmstad;SLU;,Picea abies,
166546;;Sweden;Hallands län;56.69;Tönnersjöhedens FP;13.1;Halmstad;SLU;,Picea abies,
166548;95;Sweden;Hallands län;56.72;Skedala;13.03;Halmstad;SLU;,Picea abies,
166549;172;Sweden;Hallands län;56.95;Prisparken;13.62;Hylte;SLU;,Picea abies,
166550;;Sweden;Hallands län;56.7;Eriksköp;13.13;Halmstad;SLU;,Populus tremula,Betula pendula,Picea abies,Fagus sylvatica,Quercus robur,Pinus sylvestris,
166551;125;Sweden;Hallands län;56.67;Torared;13.11;Halmstad;SLU;,Picea abies,
166552;76;Sweden;Hallands län;56.66;Börjebro;13.09;Halmstad;SLU;,Picea abies,
166553;58;Sweden;Hallands län;56.66;Skogsängsvägen;13.06;Halmstad;SLU;,Picea abies,
166554;68;Sweden;Hallands län;56.65;Strömma;13.06;Halmstad;SLU;,Picea abies,
166555;99;Sweden;Hallands län;56.55;Skogaby 1;13.2;Laholm;SLU;,Picea abies,
166556;99;Sweden;Hallands län;56.55;Skogaby 2;13.2;Laholm;SLU;,Picea abies,
166559;;Sweden;Hallands län;56.7;Tönnersjöhedens FP;13.09;Halmstad;SLU;,Picea abies,
166560;;Sweden;Hallands län;56.69;Skällåsvägen;13.11;Halmstad;SLU;,Picea abies,
166562;;Sweden;Hallands län;56.7;Tönnersjöhedens FP;13.11;Halmstad;SLU;,Picea abies,
166565;;Sweden;Hallands län;56.69;Tönnersjöhedens FP;13.08;Halmstad;SLU;,Picea omorika,Picea abies,
166566;;Sweden;Hallands län;56.7;Tönnersjöhedens FP;13.12;Halmstad;SLU;,Picea abies,
166567;;Sweden;Hallands län;56.7;Tönnersjöhedens FP;13.11;Halmstad;SLU;,Picea abies,
166568;;Sweden;Hallands län;56.69;Tönnersjöhedens FP;13.08;Halmstad;SLU;,Picea abies,
166569;;Sweden;Hallands län;56.69;Tönnersjöhedens FP;13.08;Halmstad;SLU;,Picea abies,
166574;162;Sweden;Kronobergs län;57.01;Grankärret;14.05;Ljungby;SLU;,Picea abies,
166575;177;Sweden;Kronobergs län;57;Stretelid;14.04;Ljungby;SLU;,Picea abies,